[{"pinCodeSeq":4583,"postOfficeName":"Pudupalayam","pinCode":"607001","city":"Ariyalur","district":"Ariyalur","state":"Tamil Nadu"},{"pinCodeSeq":4909,"postOfficeName":"Kodalikaruppur","pinCode":"612902","city":"Ariyalur","district":"Ariyalur","state":"Tamil Nadu"},{"pinCodeSeq":5336,"postOfficeName":"Ponparappi","pinCode":"621710","city":"Ariyalur","district":"Ariyalur","state":"Tamil Nadu"},{"pinCodeSeq":5348,"postOfficeName":"Andimadam","pinCode":"621801","city":"Ariyalur","district":"Ariyalur","state":"Tamil Nadu"},{"pinCodeSeq":5353,"postOfficeName":"Variyankaval","pinCode":"621806","city":"Ariyalur","district":"Ariyalur","state":"Tamil Nadu"},{"pinCodeSeq":5716,"postOfficeName":"Sendurai","pinCode":"624403","city":"Ariyalur","district":"Ariyalur","state":"Tamil Nadu"},{"pinCodeSeq":6217,"postOfficeName":"Karaikurichi","pinCode":"627417","city":"Ariyalur","district":"Ariyalur","state":"Tamil Nadu"},{"pinCodeSeq":6262,"postOfficeName":"Kadambur","pinCode":"627714","city":"Ariyalur","district":"Ariyalur","state":"Tamil Nadu"},{"pinCodeSeq":6560,"postOfficeName":"Thuthur","pinCode":"629176","city":"Ariyalur","district":"Ariyalur","state":"Tamil Nadu"},{"pinCodeSeq":7057,"postOfficeName":"Kadambur","pinCode":"636124","city":"Ariyalur","district":"Ariyalur","state":"Tamil Nadu"},{"pinCodeSeq":7299,"postOfficeName":"Pudupalayam","pinCode":"638452","city":"Ariyalur","district":"Ariyalur","state":"Tamil Nadu"}]