[{"pinCodeSeq":3940,"postOfficeName":"Angappanaicken Street","pinCode":"600001","city":"Chennai","district":"Chennai","state":"Tamil Nadu"},{"pinCodeSeq":3941,"postOfficeName":"Flower Bazar","pinCode":"600001","city":"Chennai","district":"Chennai","state":"Tamil Nadu"},{"pinCodeSeq":3942,"postOfficeName":"Govt Stanely Hospital","pinCode":"600001","city":"Chennai","district":"Chennai","state":"Tamil Nadu"},{"pinCodeSeq":3943,"postOfficeName":"Kothwal Market","pinCode":"600001","city":"Chennai","district":"Chennai","state":"Tamil Nadu"},{"pinCodeSeq":3944,"postOfficeName":"M P T Admn Office","pinCode":"600001","city":"Chennai","district":"Chennai","state":"Tamil Nadu"},{"pinCodeSeq":3945,"postOfficeName":"Madras Gpo","pinCode":"600001","city":"Chennai","district":"Chennai","state":"Tamil Nadu"},{"pinCodeSeq":3946,"postOfficeName":"Mannady","pinCode":"600001","city":"Chennai","district":"Chennai","state":"Tamil Nadu"},{"pinCodeSeq":3947,"postOfficeName":"Mint Buildings","pinCode":"600001","city":"Chennai","district":"Chennai","state":"Tamil Nadu"},{"pinCodeSeq":3948,"postOfficeName":"Monegar Choultry","pinCode":"600001","city":"Chennai","district":"Chennai","state":"Tamil Nadu"},{"pinCodeSeq":3949,"postOfficeName":"Muthialpet","pinCode":"600001","city":"Chennai","district":"Chennai","state":"Tamil Nadu"},{"pinCodeSeq":3950,"postOfficeName":"Sembier Street","pinCode":"600001","city":"Chennai","district":"Chennai","state":"Tamil Nadu"},{"pinCodeSeq":3951,"postOfficeName":"Seven Wells","pinCode":"600001","city":"Chennai","district":"Chennai","state":"Tamil Nadu"},{"pinCodeSeq":3952,"postOfficeName":"Wal Tax Road","pinCode":"600001","city":"Chennai","district":"Chennai","state":"Tamil Nadu"},{"pinCodeSeq":3953,"postOfficeName":"Anna Road H O","pinCode":"600002","city":"Chennai","district":"Chennai","state":"Tamil Nadu"},{"pinCodeSeq":3954,"postOfficeName":"Annaroad Sourth","pinCode":"600002","city":"Chennai","district":"Chennai","state":"Tamil Nadu"},{"pinCodeSeq":3955,"postOfficeName":"Chintadripeta","pinCode":"600002","city":"Chennai","district":"Chennai","state":"Tamil Nadu"},{"pinCodeSeq":3956,"postOfficeName":"Government Estate","pinCode":"600002","city":"Chennai","district":"Chennai","state":"Tamil Nadu"},{"pinCodeSeq":3957,"postOfficeName":"Madras Electricity System","pinCode":"600002","city":"Chennai","district":"Chennai","state":"Tamil Nadu"},{"pinCodeSeq":3958,"postOfficeName":"Pudupet","pinCode":"600002","city":"Chennai","district":"Chennai","state":"Tamil Nadu"},{"pinCodeSeq":3959,"postOfficeName":"Central Station","pinCode":"600003","city":"Chennai","district":"Chennai","state":"Tamil Nadu"},{"pinCodeSeq":3960,"postOfficeName":"Dr Ambedkarnagar","pinCode":"600003","city":"Chennai","district":"Chennai","state":"Tamil Nadu"},{"pinCodeSeq":3961,"postOfficeName":"Edapalayam","pinCode":"600003","city":"Chennai","district":"Chennai","state":"Tamil Nadu"},{"pinCodeSeq":3962,"postOfficeName":"Madras Medical College","pinCode":"600003","city":"Chennai","district":"Chennai","state":"Tamil Nadu"},{"pinCodeSeq":3963,"postOfficeName":"Park Town","pinCode":"600003","city":"Chennai","district":"Chennai","state":"Tamil Nadu"},{"pinCodeSeq":3964,"postOfficeName":"Ripon Buildings","pinCode":"600003","city":"Chennai","district":"Chennai","state":"Tamil Nadu"},{"pinCodeSeq":3965,"postOfficeName":"Luz Church Road","pinCode":"600004","city":"Chennai","district":"Chennai","state":"Tamil Nadu"},{"pinCodeSeq":3966,"postOfficeName":"Mandavalli","pinCode":"600004","city":"Chennai","district":"Chennai","state":"Tamil Nadu"},{"pinCodeSeq":3967,"postOfficeName":"Ms Vivekanands College","pinCode":"600004","city":"Chennai","district":"Chennai","state":"Tamil Nadu"},{"pinCodeSeq":3968,"postOfficeName":"Mylopore","pinCode":"600004","city":"Chennai","district":"Chennai","state":"Tamil Nadu"},{"pinCodeSeq":3969,"postOfficeName":"Nochikuppam Colony","pinCode":"600004","city":"Chennai","district":"Chennai","state":"Tamil Nadu"},{"pinCodeSeq":3970,"postOfficeName":"Police Head Quarters","pinCode":"600004","city":"Chennai","district":"Chennai","state":"Tamil Nadu"},{"pinCodeSeq":3971,"postOfficeName":"Royapettah High Road","pinCode":"600004","city":"Chennai","district":"Chennai","state":"Tamil Nadu"},{"pinCodeSeq":3972,"postOfficeName":"Santhome","pinCode":"600004","city":"Chennai","district":"Chennai","state":"Tamil Nadu"},{"pinCodeSeq":3973,"postOfficeName":"Chepauk","pinCode":"600005","city":"Chennai","district":"Chennai","state":"Tamil Nadu"},{"pinCodeSeq":3974,"postOfficeName":"Krishnampet","pinCode":"600005","city":"Chennai","district":"Chennai","state":"Tamil Nadu"},{"pinCodeSeq":3975,"postOfficeName":"Madras Presidency College","pinCode":"600005","city":"Chennai","district":"Chennai","state":"Tamil Nadu"},{"pinCodeSeq":3976,"postOfficeName":"Madras University","pinCode":"600005","city":"Chennai","district":"Chennai","state":"Tamil Nadu"},{"pinCodeSeq":3977,"postOfficeName":"Parthasarathy Koil","pinCode":"600005","city":"Chennai","district":"Chennai","state":"Tamil Nadu"},{"pinCodeSeq":3978,"postOfficeName":"Tiruvellikeni","pinCode":"600005","city":"Chennai","district":"Chennai","state":"Tamil Nadu"},{"pinCodeSeq":3979,"postOfficeName":"Cathedral","pinCode":"600006","city":"Chennai","district":"Chennai","state":"Tamil Nadu"},{"pinCodeSeq":3980,"postOfficeName":"Greams Road","pinCode":"600006","city":"Chennai","district":"Chennai","state":"Tamil Nadu"},{"pinCodeSeq":3981,"postOfficeName":"Old College Buildings","pinCode":"600006","city":"Chennai","district":"Chennai","state":"Tamil Nadu"},{"pinCodeSeq":3982,"postOfficeName":"Shastri Bhavan","pinCode":"600006","city":"Chennai","district":"Chennai","state":"Tamil Nadu"},{"pinCodeSeq":3983,"postOfficeName":"Teynampet West","pinCode":"600006","city":"Chennai","district":"Chennai","state":"Tamil Nadu"},{"pinCodeSeq":3984,"postOfficeName":"Vepery","pinCode":"600007","city":"Chennai","district":"Chennai","state":"Tamil Nadu"},{"pinCodeSeq":3985,"postOfficeName":"Egmore","pinCode":"600008","city":"Chennai","district":"Chennai","state":"Tamil Nadu"},{"pinCodeSeq":3986,"postOfficeName":"Egmore High Road","pinCode":"600008","city":"Chennai","district":"Chennai","state":"Tamil Nadu"},{"pinCodeSeq":3987,"postOfficeName":"Fort St George","pinCode":"600009","city":"Chennai","district":"Chennai","state":"Tamil Nadu"},{"pinCodeSeq":3988,"postOfficeName":"Kilpauk","pinCode":"600010","city":"Chennai","district":"Chennai","state":"Tamil Nadu"},{"pinCodeSeq":3989,"postOfficeName":"Kilpauk Garden Colony","pinCode":"600010","city":"Chennai","district":"Chennai","state":"Tamil Nadu"},{"pinCodeSeq":3990,"postOfficeName":"Kilpauk Medical College","pinCode":"600010","city":"Chennai","district":"Chennai","state":"Tamil Nadu"},{"pinCodeSeq":3991,"postOfficeName":"Kilpauk West","pinCode":"600010","city":"Chennai","district":"Chennai","state":"Tamil Nadu"},{"pinCodeSeq":3992,"postOfficeName":"Medavakkam Tank Road","pinCode":"600010","city":"Chennai","district":"Chennai","state":"Tamil Nadu"},{"pinCodeSeq":3994,"postOfficeName":"Chinnaiah Mudali Colony","pinCode":"600011","city":"Chennai","district":"Chennai","state":"Tamil Nadu"},{"pinCodeSeq":3995,"postOfficeName":"Perambur","pinCode":"600011","city":"Chennai","district":"Chennai","state":"Tamil Nadu"},{"pinCodeSeq":3996,"postOfficeName":"Perambur North","pinCode":"600011","city":"Chennai","district":"Chennai","state":"Tamil Nadu"},{"pinCodeSeq":3997,"postOfficeName":"Sembiam","pinCode":"600011","city":"Chennai","district":"Chennai","state":"Tamil Nadu"},{"pinCodeSeq":3998,"postOfficeName":"Decoster Road","pinCode":"600012","city":"Chennai","district":"Chennai","state":"Tamil Nadu"},{"pinCodeSeq":3999,"postOfficeName":"Kosapet","pinCode":"600012","city":"Chennai","district":"Chennai","state":"Tamil Nadu"},{"pinCodeSeq":4000,"postOfficeName":"Perambur Barracks","pinCode":"600012","city":"Chennai","district":"Chennai","state":"Tamil Nadu"},{"pinCodeSeq":4001,"postOfficeName":"Perambur High Road","pinCode":"600012","city":"Chennai","district":"Chennai","state":"Tamil Nadu"},{"pinCodeSeq":4002,"postOfficeName":"Pulianthope","pinCode":"600012","city":"Chennai","district":"Chennai","state":"Tamil Nadu"},{"pinCodeSeq":4003,"postOfficeName":"Syrahans Road","pinCode":"600012","city":"Chennai","district":"Chennai","state":"Tamil Nadu"},{"pinCodeSeq":4004,"postOfficeName":"Venkatesapuram","pinCode":"600012","city":"Chennai","district":"Chennai","state":"Tamil Nadu"},{"pinCodeSeq":4005,"postOfficeName":"Kalmandapam","pinCode":"600013","city":"Chennai","district":"Chennai","state":"Tamil Nadu"},{"pinCodeSeq":4006,"postOfficeName":"Kasimode","pinCode":"600013","city":"Chennai","district":"Chennai","state":"Tamil Nadu"},{"pinCodeSeq":4007,"postOfficeName":"Rayapuram Madras","pinCode":"600013","city":"Chennai","district":"Chennai","state":"Tamil Nadu"},{"pinCodeSeq":4008,"postOfficeName":"Rayapuram Market","pinCode":"600013","city":"Chennai","district":"Chennai","state":"Tamil Nadu"},{"pinCodeSeq":4009,"postOfficeName":"Goudiyamath Road","pinCode":"600014","city":"Chennai","district":"Chennai","state":"Tamil Nadu"},{"pinCodeSeq":4010,"postOfficeName":"Jam Bazaar","pinCode":"600014","city":"Chennai","district":"Chennai","state":"Tamil Nadu"},{"pinCodeSeq":4011,"postOfficeName":"Ligods Estate","pinCode":"600014","city":"Chennai","district":"Chennai","state":"Tamil Nadu"},{"pinCodeSeq":4012,"postOfficeName":"Ligods Road","pinCode":"600014","city":"Chennai","district":"Chennai","state":"Tamil Nadu"},{"pinCodeSeq":4013,"postOfficeName":"Pudupakkam","pinCode":"600014","city":"Chennai","district":"Chennai","state":"Tamil Nadu"},{"pinCodeSeq":4014,"postOfficeName":"Royapettah","pinCode":"600014","city":"Chennai","district":"Chennai","state":"Tamil Nadu"},{"pinCodeSeq":4015,"postOfficeName":"Triplicane South","pinCode":"600014","city":"Chennai","district":"Chennai","state":"Tamil Nadu"},{"pinCodeSeq":4016,"postOfficeName":"Gunidy North","pinCode":"600015","city":"Chennai","district":"Chennai","state":"Tamil Nadu"},{"pinCodeSeq":4017,"postOfficeName":"Saidapet Madras","pinCode":"600015","city":"Chennai","district":"Chennai","state":"Tamil Nadu"},{"pinCodeSeq":4018,"postOfficeName":"Saidapet West","pinCode":"600015","city":"Chennai","district":"Chennai","state":"Tamil Nadu"},{"pinCodeSeq":4019,"postOfficeName":"Saidhapet North","pinCode":"600015","city":"Chennai","district":"Chennai","state":"Tamil Nadu"},{"pinCodeSeq":4021,"postOfficeName":"Butt Road","pinCode":"600016","city":"Chennai","district":"Chennai","state":"Tamil Nadu"},{"pinCodeSeq":4022,"postOfficeName":"St Thomas Mount H O","pinCode":"600016","city":"Chennai","district":"Chennai","state":"Tamil Nadu"},{"pinCodeSeq":4023,"postOfficeName":"Tiruvaluvar Nagar","pinCode":"600016","city":"Chennai","district":"Chennai","state":"Tamil Nadu"},{"pinCodeSeq":4024,"postOfficeName":"Habibullah Road","pinCode":"600017","city":"Chennai","district":"Chennai","state":"Tamil Nadu"},{"pinCodeSeq":4025,"postOfficeName":"Hindi Prachar Sabha","pinCode":"600017","city":"Chennai","district":"Chennai","state":"Tamil Nadu"},{"pinCodeSeq":4026,"postOfficeName":"North Thyagarayanagar","pinCode":"600017","city":"Chennai","district":"Chennai","state":"Tamil Nadu"},{"pinCodeSeq":4027,"postOfficeName":"Panagal Park","pinCode":"600017","city":"Chennai","district":"Chennai","state":"Tamil Nadu"},{"pinCodeSeq":4028,"postOfficeName":"Thayagaranagar H O","pinCode":"600017","city":"Chennai","district":"Chennai","state":"Tamil Nadu"},{"pinCodeSeq":4029,"postOfficeName":"Thyagarayanagar South","pinCode":"600017","city":"Chennai","district":"Chennai","state":"Tamil Nadu"},{"pinCodeSeq":4030,"postOfficeName":"Usman Road","pinCode":"600017","city":"Chennai","district":"Chennai","state":"Tamil Nadu"},{"pinCodeSeq":4031,"postOfficeName":"Abiramapuram","pinCode":"600018","city":"Chennai","district":"Chennai","state":"Tamil Nadu"},{"pinCodeSeq":4032,"postOfficeName":"Chamiers Road","pinCode":"600018","city":"Chennai","district":"Chennai","state":"Tamil Nadu"},{"pinCodeSeq":4033,"postOfficeName":"Eldams Road","pinCode":"600018","city":"Chennai","district":"Chennai","state":"Tamil Nadu"},{"pinCodeSeq":4034,"postOfficeName":"Ms Accountant General","pinCode":"600018","city":"Chennai","district":"Chennai","state":"Tamil Nadu"},{"pinCodeSeq":4035,"postOfficeName":"Teynampet","pinCode":"600018","city":"Chennai","district":"Chennai","state":"Tamil Nadu"},{"pinCodeSeq":4036,"postOfficeName":"Teynampet South","pinCode":"600018","city":"Chennai","district":"Chennai","state":"Tamil Nadu"},{"pinCodeSeq":4037,"postOfficeName":"Kaladipet","pinCode":"600019","city":"Chennai","district":"Chennai","state":"Tamil Nadu"},{"pinCodeSeq":4038,"postOfficeName":"Shanmugapuram","pinCode":"600019","city":"Chennai","district":"Chennai","state":"Tamil Nadu"},{"pinCodeSeq":4039,"postOfficeName":"Tiruvottiur Central","pinCode":"600019","city":"Chennai","district":"Chennai","state":"Tamil Nadu"},{"pinCodeSeq":4041,"postOfficeName":"Tiruvottiyur North","pinCode":"600019","city":"Chennai","district":"Chennai","state":"Tamil Nadu"},{"pinCodeSeq":4042,"postOfficeName":"Tiruvottiyur West","pinCode":"600019","city":"Chennai","district":"Chennai","state":"Tamil Nadu"},{"pinCodeSeq":4043,"postOfficeName":"Wimconagar","pinCode":"600019","city":"Chennai","district":"Chennai","state":"Tamil Nadu"},{"pinCodeSeq":4044,"postOfficeName":"Adyar","pinCode":"600020","city":"Chennai","district":"Chennai","state":"Tamil Nadu"},{"pinCodeSeq":4045,"postOfficeName":"Central Institute Of Tech","pinCode":"600020","city":"Chennai","district":"Chennai","state":"Tamil Nadu"},{"pinCodeSeq":4046,"postOfficeName":"Central Leather Research","pinCode":"600020","city":"Chennai","district":"Chennai","state":"Tamil Nadu"},{"pinCodeSeq":4047,"postOfficeName":"Gandhi Nagar","pinCode":"600020","city":"Chennai","district":"Chennai","state":"Tamil Nadu"},{"pinCodeSeq":4048,"postOfficeName":"Indra Nagar","pinCode":"600020","city":"Chennai","district":"Chennai","state":"Tamil Nadu"},{"pinCodeSeq":4049,"postOfficeName":"Kasturbanagar","pinCode":"600020","city":"Chennai","district":"Chennai","state":"Tamil Nadu"},{"pinCodeSeq":4050,"postOfficeName":"Sastrinagar","pinCode":"600020","city":"Chennai","district":"Chennai","state":"Tamil Nadu"},{"pinCodeSeq":4051,"postOfficeName":"Technical Teachers Trg In","pinCode":"600020","city":"Chennai","district":"Chennai","state":"Tamil Nadu"},{"pinCodeSeq":4052,"postOfficeName":"Theosophical Society","pinCode":"600020","city":"Chennai","district":"Chennai","state":"Tamil Nadu"},{"pinCodeSeq":4053,"postOfficeName":"Cemetry Road","pinCode":"600021","city":"Chennai","district":"Chennai","state":"Tamil Nadu"},{"pinCodeSeq":4054,"postOfficeName":"Gollawar Agraharam Road","pinCode":"600021","city":"Chennai","district":"Chennai","state":"Tamil Nadu"},{"pinCodeSeq":4055,"postOfficeName":"Harinarayanapuram","pinCode":"600021","city":"Chennai","district":"Chennai","state":"Tamil Nadu"},{"pinCodeSeq":4056,"postOfficeName":"Korukkupet","pinCode":"600021","city":"Chennai","district":"Chennai","state":"Tamil Nadu"},{"pinCodeSeq":4057,"postOfficeName":"Washermanpeta East","pinCode":"600021","city":"Chennai","district":"Chennai","state":"Tamil Nadu"},{"pinCodeSeq":4058,"postOfficeName":"Washermanpetta","pinCode":"600021","city":"Chennai","district":"Chennai","state":"Tamil Nadu"},{"pinCodeSeq":4059,"postOfficeName":"Raj Bhavan Madras Raja","pinCode":"600022","city":"Chennai","district":"Chennai","state":"Tamil Nadu"},{"pinCodeSeq":4060,"postOfficeName":"Ayanavaram","pinCode":"600023","city":"Chennai","district":"Chennai","state":"Tamil Nadu"},{"pinCodeSeq":4061,"postOfficeName":"Ayanavaram Rly Colony","pinCode":"600023","city":"Chennai","district":"Chennai","state":"Tamil Nadu"},{"pinCodeSeq":4062,"postOfficeName":"Solai Street","pinCode":"600023","city":"Chennai","district":"Chennai","state":"Tamil Nadu"},{"pinCodeSeq":4063,"postOfficeName":"Arcot Road","pinCode":"600024","city":"Chennai","district":"Chennai","state":"Tamil Nadu"},{"pinCodeSeq":4064,"postOfficeName":"Kodambakkam","pinCode":"600024","city":"Chennai","district":"Chennai","state":"Tamil Nadu"},{"pinCodeSeq":4065,"postOfficeName":"Kodambakkam West","pinCode":"600024","city":"Chennai","district":"Chennai","state":"Tamil Nadu"},{"pinCodeSeq":4066,"postOfficeName":"Rengarajapuram","pinCode":"600024","city":"Chennai","district":"Chennai","state":"Tamil Nadu"},{"pinCodeSeq":4067,"postOfficeName":"Engineering College Directorat","pinCode":"600025","city":"Chennai","district":"Chennai","state":"Tamil Nadu"},{"pinCodeSeq":4068,"postOfficeName":"Vadapalani","pinCode":"600026","city":"Chennai","district":"Chennai","state":"Tamil Nadu"},{"pinCodeSeq":4069,"postOfficeName":"Madras Air Port","pinCode":"600027","city":"Chennai","district":"Chennai","state":"Tamil Nadu"},{"pinCodeSeq":4070,"postOfficeName":"Minambakkam","pinCode":"600027","city":"Chennai","district":"Chennai","state":"Tamil Nadu"},{"pinCodeSeq":4071,"postOfficeName":"Annamalaipuram","pinCode":"600028","city":"Chennai","district":"Chennai","state":"Tamil Nadu"},{"pinCodeSeq":4072,"postOfficeName":"Fore Shore Estate","pinCode":"600028","city":"Chennai","district":"Chennai","state":"Tamil Nadu"},{"pinCodeSeq":4073,"postOfficeName":"R A Puram Colony","pinCode":"600028","city":"Chennai","district":"Chennai","state":"Tamil Nadu"},{"pinCodeSeq":4074,"postOfficeName":"Ramakrishnanagar","pinCode":"600028","city":"Chennai","district":"Chennai","state":"Tamil Nadu"},{"pinCodeSeq":4075,"postOfficeName":"Aminijikarai","pinCode":"600029","city":"Chennai","district":"Chennai","state":"Tamil Nadu"},{"pinCodeSeq":4076,"postOfficeName":"Panchiappas College Hoste","pinCode":"600030","city":"Chennai","district":"Chennai","state":"Tamil Nadu"},{"pinCodeSeq":4077,"postOfficeName":"Shenoynagar","pinCode":"600030","city":"Chennai","district":"Chennai","state":"Tamil Nadu"},{"pinCodeSeq":4078,"postOfficeName":"Chetput H O","pinCode":"600031","city":"Chennai","district":"Chennai","state":"Tamil Nadu"},{"pinCodeSeq":4079,"postOfficeName":"Harrington Road","pinCode":"600031","city":"Chennai","district":"Chennai","state":"Tamil Nadu"},{"pinCodeSeq":4080,"postOfficeName":"Service Centre","pinCode":"600031","city":"Chennai","district":"Chennai","state":"Tamil Nadu"},{"pinCodeSeq":4081,"postOfficeName":"World University","pinCode":"600031","city":"Chennai","district":"Chennai","state":"Tamil Nadu"},{"pinCodeSeq":4082,"postOfficeName":"Alandur North","pinCode":"600032","city":"Chennai","district":"Chennai","state":"Tamil Nadu"},{"pinCodeSeq":4083,"postOfficeName":"Guindy Ind Estate","pinCode":"600032","city":"Chennai","district":"Chennai","state":"Tamil Nadu"},{"pinCodeSeq":4084,"postOfficeName":"Hindustan Teleprinters","pinCode":"600032","city":"Chennai","district":"Chennai","state":"Tamil Nadu"},{"pinCodeSeq":4085,"postOfficeName":"Madras Race Course","pinCode":"600032","city":"Chennai","district":"Chennai","state":"Tamil Nadu"},{"pinCodeSeq":4086,"postOfficeName":"Kumaran Nagar","pinCode":"600033","city":"Chennai","district":"Chennai","state":"Tamil Nadu"},{"pinCodeSeq":4087,"postOfficeName":"Mambalam East","pinCode":"600033","city":"Chennai","district":"Chennai","state":"Tamil Nadu"},{"pinCodeSeq":4088,"postOfficeName":"Mambalam R S","pinCode":"600033","city":"Chennai","district":"Chennai","state":"Tamil Nadu"},{"pinCodeSeq":4090,"postOfficeName":"West Mambalam","pinCode":"600033","city":"Chennai","district":"Chennai","state":"Tamil Nadu"},{"pinCodeSeq":4091,"postOfficeName":"Loyla College","pinCode":"600034","city":"Chennai","district":"Chennai","state":"Tamil Nadu"},{"pinCodeSeq":4093,"postOfficeName":"Nungambakkam Bazaar","pinCode":"600034","city":"Chennai","district":"Chennai","state":"Tamil Nadu"},{"pinCodeSeq":4094,"postOfficeName":"Nungambakkam High Road","pinCode":"600034","city":"Chennai","district":"Chennai","state":"Tamil Nadu"},{"pinCodeSeq":4095,"postOfficeName":"Nandanam","pinCode":"600035","city":"Chennai","district":"Chennai","state":"Tamil Nadu"},{"pinCodeSeq":4096,"postOfficeName":"Nandanam Bazaar","pinCode":"600035","city":"Chennai","district":"Chennai","state":"Tamil Nadu"},{"pinCodeSeq":4097,"postOfficeName":"Indian Inst Of Technology","pinCode":"600036","city":"Chennai","district":"Chennai","state":"Tamil Nadu"},{"pinCodeSeq":4098,"postOfficeName":"Offiers Trg School","pinCode":"600037","city":"Chennai","district":"Chennai","state":"Tamil Nadu"},{"pinCodeSeq":4099,"postOfficeName":"I C F Colony","pinCode":"600038","city":"Chennai","district":"Chennai","state":"Tamil Nadu"},{"pinCodeSeq":4100,"postOfficeName":"Vyasarpady","pinCode":"600039","city":"Chennai","district":"Chennai","state":"Tamil Nadu"},{"pinCodeSeq":4101,"postOfficeName":"Vysarnagar Colony","pinCode":"600039","city":"Chennai","district":"Chennai","state":"Tamil Nadu"},{"pinCodeSeq":4102,"postOfficeName":"Vysarpady Coop Ind Estate","pinCode":"600039","city":"Chennai","district":"Chennai","state":"Tamil Nadu"},{"pinCodeSeq":4103,"postOfficeName":"Annanagar","pinCode":"600040","city":"Chennai","district":"Chennai","state":"Tamil Nadu"},{"pinCodeSeq":4104,"postOfficeName":"Tiruvanmiyur","pinCode":"600041","city":"Chennai","district":"Chennai","state":"Tamil Nadu"},{"pinCodeSeq":4105,"postOfficeName":"Velacheri","pinCode":"600042","city":"Chennai","district":"Chennai","state":"Tamil Nadu"},{"pinCodeSeq":4106,"postOfficeName":"Pallavaram","pinCode":"600043","city":"Chennai","district":"Chennai","state":"Tamil Nadu"},{"pinCodeSeq":4107,"postOfficeName":"Pallavaram North","pinCode":"600043","city":"Chennai","district":"Chennai","state":"Tamil Nadu"},{"pinCodeSeq":4108,"postOfficeName":"Pallavaram South","pinCode":"600043","city":"Chennai","district":"Chennai","state":"Tamil Nadu"},{"pinCodeSeq":4109,"postOfficeName":"Rajainagar","pinCode":"600043","city":"Chennai","district":"Chennai","state":"Tamil Nadu"},{"pinCodeSeq":4110,"postOfficeName":"Bharathipuram","pinCode":"600044","city":"Chennai","district":"Chennai","state":"Tamil Nadu"},{"pinCodeSeq":4111,"postOfficeName":"Chromepet","pinCode":"600044","city":"Chennai","district":"Chennai","state":"Tamil Nadu"},{"pinCodeSeq":4112,"postOfficeName":"Negelkeni","pinCode":"600044","city":"Chennai","district":"Chennai","state":"Tamil Nadu"},{"pinCodeSeq":4113,"postOfficeName":"Radhanagar","pinCode":"600044","city":"Chennai","district":"Chennai","state":"Tamil Nadu"},{"pinCodeSeq":4116,"postOfficeName":"Ground Training School","pinCode":"600046","city":"Chennai","district":"Chennai","state":"Tamil Nadu"},{"pinCodeSeq":4120,"postOfficeName":"Tirumangalam Road","pinCode":"600049","city":"Chennai","district":"Chennai","state":"Tamil Nadu"},{"pinCodeSeq":4121,"postOfficeName":"Villivakkam","pinCode":"600049","city":"Chennai","district":"Chennai","state":"Tamil Nadu"},{"pinCodeSeq":4122,"postOfficeName":"Villivakkam North","pinCode":"600049","city":"Chennai","district":"Chennai","state":"Tamil Nadu"},{"pinCodeSeq":4123,"postOfficeName":"Villivakkam South","pinCode":"600049","city":"Chennai","district":"Chennai","state":"Tamil Nadu"},{"pinCodeSeq":4124,"postOfficeName":"Mannurpettai","pinCode":"600050","city":"Chennai","district":"Chennai","state":"Tamil Nadu"},{"pinCodeSeq":4126,"postOfficeName":"Padi South","pinCode":"600050","city":"Chennai","district":"Chennai","state":"Tamil Nadu"},{"pinCodeSeq":4127,"postOfficeName":"Madhavaram Milk Colony","pinCode":"600051","city":"Chennai","district":"Chennai","state":"Tamil Nadu"},{"pinCodeSeq":4129,"postOfficeName":"Red Hills","pinCode":"600052","city":"Chennai","district":"Chennai","state":"Tamil Nadu"},{"pinCodeSeq":4130,"postOfficeName":"Red Hills Bazaar","pinCode":"600052","city":"Chennai","district":"Chennai","state":"Tamil Nadu"},{"pinCodeSeq":4131,"postOfficeName":"Regional Engg College","pinCode":"600052","city":"Chennai","district":"Chennai","state":"Tamil Nadu"},{"pinCodeSeq":4132,"postOfficeName":"Ambattur Bazaar","pinCode":"600053","city":"Chennai","district":"Chennai","state":"Tamil Nadu"},{"pinCodeSeq":4133,"postOfficeName":"Ambattur H O","pinCode":"600053","city":"Chennai","district":"Chennai","state":"Tamil Nadu"},{"pinCodeSeq":4134,"postOfficeName":"Ambattur West","pinCode":"600053","city":"Chennai","district":"Chennai","state":"Tamil Nadu"},{"pinCodeSeq":4135,"postOfficeName":"Mednambedu","pinCode":"600053","city":"Chennai","district":"Chennai","state":"Tamil Nadu"},{"pinCodeSeq":4136,"postOfficeName":"Orgadam","pinCode":"600053","city":"Chennai","district":"Chennai","state":"Tamil Nadu"},{"pinCodeSeq":4137,"postOfficeName":"Prithivipakkam","pinCode":"600053","city":"Chennai","district":"Chennai","state":"Tamil Nadu"},{"pinCodeSeq":4138,"postOfficeName":"Vijayalakshmipuram","pinCode":"600053","city":"Chennai","district":"Chennai","state":"Tamil Nadu"},{"pinCodeSeq":4144,"postOfficeName":"Central Vehicle Depot","pinCode":"600055","city":"Chennai","district":"Chennai","state":"Tamil Nadu"},{"pinCodeSeq":4147,"postOfficeName":"Ennur R S","pinCode":"600057","city":"Chennai","district":"Chennai","state":"Tamil Nadu"},{"pinCodeSeq":4148,"postOfficeName":"Ennur Thermal Station","pinCode":"600057","city":"Chennai","district":"Chennai","state":"Tamil Nadu"},{"pinCodeSeq":4149,"postOfficeName":"Ernavur","pinCode":"600057","city":"Chennai","district":"Chennai","state":"Tamil Nadu"},{"pinCodeSeq":4150,"postOfficeName":"Ambattur Industrial Estat","pinCode":"600058","city":"Chennai","district":"Chennai","state":"Tamil Nadu"},{"pinCodeSeq":4151,"postOfficeName":"Christian College","pinCode":"600059","city":"Chennai","district":"Chennai","state":"Tamil Nadu"},{"pinCodeSeq":4153,"postOfficeName":"Lic Colony Tambaram","pinCode":"600059","city":"Chennai","district":"Chennai","state":"Tamil Nadu"},{"pinCodeSeq":4154,"postOfficeName":"Railway Colony","pinCode":"600059","city":"Chennai","district":"Chennai","state":"Tamil Nadu"},{"pinCodeSeq":4155,"postOfficeName":"Tambaram East","pinCode":"600059","city":"Chennai","district":"Chennai","state":"Tamil Nadu"},{"pinCodeSeq":4156,"postOfficeName":"Madhavaram","pinCode":"600060","city":"Chennai","district":"Chennai","state":"Tamil Nadu"},{"pinCodeSeq":4157,"postOfficeName":"Madhavaram East","pinCode":"600060","city":"Chennai","district":"Chennai","state":"Tamil Nadu"},{"pinCodeSeq":4158,"postOfficeName":"Moolakadai","pinCode":"600060","city":"Chennai","district":"Chennai","state":"Tamil Nadu"},{"pinCodeSeq":4159,"postOfficeName":"Pozhal","pinCode":"600060","city":"Chennai","district":"Chennai","state":"Tamil Nadu"},{"pinCodeSeq":4160,"postOfficeName":"Naganallur","pinCode":"600061","city":"Chennai","district":"Chennai","state":"Tamil Nadu"},{"pinCodeSeq":4161,"postOfficeName":"Naganallur South","pinCode":"600061","city":"Chennai","district":"Chennai","state":"Tamil Nadu"},{"pinCodeSeq":4162,"postOfficeName":"Nanganallur Bazaar","pinCode":"600061","city":"Chennai","district":"Chennai","state":"Tamil Nadu"},{"pinCodeSeq":4163,"postOfficeName":"Palvanthangal","pinCode":"600061","city":"Chennai","district":"Chennai","state":"Tamil Nadu"},{"pinCodeSeq":4164,"postOfficeName":"Thillaiganganagar","pinCode":"600061","city":"Chennai","district":"Chennai","state":"Tamil Nadu"},{"pinCodeSeq":4165,"postOfficeName":"Sathyamurthinagar","pinCode":"600062","city":"Chennai","district":"Chennai","state":"Tamil Nadu"},{"pinCodeSeq":4166,"postOfficeName":"Srinivasanagar","pinCode":"600063","city":"Chennai","district":"Chennai","state":"Tamil Nadu"},{"pinCodeSeq":4168,"postOfficeName":"Crp Camp","pinCode":"600065","city":"Chennai","district":"Chennai","state":"Tamil Nadu"},{"pinCodeSeq":4169,"postOfficeName":"Kadirvedu","pinCode":"600066","city":"Chennai","district":"Chennai","state":"Tamil Nadu"},{"pinCodeSeq":4170,"postOfficeName":"Kaladipet","pinCode":"600066","city":"Chennai","district":"Chennai","state":"Tamil Nadu"},{"pinCodeSeq":4171,"postOfficeName":"Solavaram","pinCode":"600067","city":"Chennai","district":"Chennai","state":"Tamil Nadu"},{"pinCodeSeq":4173,"postOfficeName":"Kunnathur Kanchipuram","pinCode":"600069","city":"Chennai","district":"Chennai","state":"Tamil Nadu"},{"pinCodeSeq":4175,"postOfficeName":"Kamarajanagar","pinCode":"600071","city":"Chennai","district":"Chennai","state":"Tamil Nadu"},{"pinCodeSeq":4176,"postOfficeName":"Pattabiram","pinCode":"600072","city":"Chennai","district":"Chennai","state":"Tamil Nadu"},{"pinCodeSeq":4177,"postOfficeName":"Pattabiram East","pinCode":"600072","city":"Chennai","district":"Chennai","state":"Tamil Nadu"},{"pinCodeSeq":4178,"postOfficeName":"Thandarai","pinCode":"600072","city":"Chennai","district":"Chennai","state":"Tamil Nadu"},{"pinCodeSeq":4179,"postOfficeName":"Selaiyur","pinCode":"600073","city":"Chennai","district":"Chennai","state":"Tamil Nadu"},{"pinCodeSeq":4181,"postOfficeName":"Sithathur","pinCode":"600074","city":"Chennai","district":"Chennai","state":"Tamil Nadu"},{"pinCodeSeq":4183,"postOfficeName":"Korattur R S","pinCode":"600076","city":"Chennai","district":"Chennai","state":"Tamil Nadu"},{"pinCodeSeq":4185,"postOfficeName":"K K Nagar","pinCode":"600078","city":"Chennai","district":"Chennai","state":"Tamil Nadu"},{"pinCodeSeq":4186,"postOfficeName":"Kalignar Karunanidhinagar","pinCode":"600078","city":"Chennai","district":"Chennai","state":"Tamil Nadu"},{"pinCodeSeq":4187,"postOfficeName":"Kalinga Colony","pinCode":"600078","city":"Chennai","district":"Chennai","state":"Tamil Nadu"},{"pinCodeSeq":4188,"postOfficeName":"Bullion Market","pinCode":"600079","city":"Chennai","district":"Chennai","state":"Tamil Nadu"},{"pinCodeSeq":4189,"postOfficeName":"Sowcarpet","pinCode":"600079","city":"Chennai","district":"Chennai","state":"Tamil Nadu"},{"pinCodeSeq":4191,"postOfficeName":"Mpt Staff Colony","pinCode":"600081","city":"Chennai","district":"Chennai","state":"Tamil Nadu"},{"pinCodeSeq":4192,"postOfficeName":"Tondikarpet","pinCode":"600081","city":"Chennai","district":"Chennai","state":"Tamil Nadu"},{"pinCodeSeq":4193,"postOfficeName":"Agaram","pinCode":"600082","city":"Chennai","district":"Chennai","state":"Tamil Nadu"},{"pinCodeSeq":4194,"postOfficeName":"Jawahar Nagar","pinCode":"600082","city":"Chennai","district":"Chennai","state":"Tamil Nadu"},{"pinCodeSeq":4195,"postOfficeName":"Rajah Thottam","pinCode":"600082","city":"Chennai","district":"Chennai","state":"Tamil Nadu"},{"pinCodeSeq":4196,"postOfficeName":"Ashok Nagar","pinCode":"600083","city":"Chennai","district":"Chennai","state":"Tamil Nadu"},{"pinCodeSeq":4197,"postOfficeName":"Flowers Road","pinCode":"600084","city":"Chennai","district":"Chennai","state":"Tamil Nadu"},{"pinCodeSeq":4198,"postOfficeName":"Gaugadeeswaran Koil","pinCode":"600084","city":"Chennai","district":"Chennai","state":"Tamil Nadu"},{"pinCodeSeq":4199,"postOfficeName":"Purasawakkam","pinCode":"600084","city":"Chennai","district":"Chennai","state":"Tamil Nadu"},{"pinCodeSeq":4200,"postOfficeName":"Kottur Gram","pinCode":"600085","city":"Chennai","district":"Chennai","state":"Tamil Nadu"},{"pinCodeSeq":4201,"postOfficeName":"Kottur Madras","pinCode":"600085","city":"Chennai","district":"Chennai","state":"Tamil Nadu"},{"pinCodeSeq":4202,"postOfficeName":"Gopalapuram","pinCode":"600086","city":"Chennai","district":"Chennai","state":"Tamil Nadu"},{"pinCodeSeq":4203,"postOfficeName":"Alwar Tirunagar","pinCode":"600087","city":"Chennai","district":"Chennai","state":"Tamil Nadu"},{"pinCodeSeq":4204,"postOfficeName":"Adambakkam","pinCode":"600088","city":"Chennai","district":"Chennai","state":"Tamil Nadu"},{"pinCodeSeq":4205,"postOfficeName":"Ganesh Nagar","pinCode":"600088","city":"Chennai","district":"Chennai","state":"Tamil Nadu"},{"pinCodeSeq":4206,"postOfficeName":"Kudlyiruppur","pinCode":"600089","city":"Chennai","district":"Chennai","state":"Tamil Nadu"},{"pinCodeSeq":4207,"postOfficeName":"Besant Nagar","pinCode":"600090","city":"Chennai","district":"Chennai","state":"Tamil Nadu"},{"pinCodeSeq":4208,"postOfficeName":"Besantnagat South","pinCode":"600090","city":"Chennai","district":"Chennai","state":"Tamil Nadu"},{"pinCodeSeq":4209,"postOfficeName":"Madipakkam","pinCode":"600091","city":"Chennai","district":"Chennai","state":"Tamil Nadu"},{"pinCodeSeq":4210,"postOfficeName":"Virugambakkam","pinCode":"600092","city":"Chennai","district":"Chennai","state":"Tamil Nadu"},{"pinCodeSeq":4211,"postOfficeName":"Virugambakkam Bazar","pinCode":"600092","city":"Chennai","district":"Chennai","state":"Tamil Nadu"},{"pinCodeSeq":4212,"postOfficeName":"Virugambakkam North","pinCode":"600092","city":"Chennai","district":"Chennai","state":"Tamil Nadu"},{"pinCodeSeq":4214,"postOfficeName":"Saligramam South","pinCode":"600093","city":"Chennai","district":"Chennai","state":"Tamil Nadu"},{"pinCodeSeq":4215,"postOfficeName":"Choolaimedu","pinCode":"600094","city":"Chennai","district":"Chennai","state":"Tamil Nadu"},{"pinCodeSeq":4216,"postOfficeName":"Choolaimedu Mdo","pinCode":"600094","city":"Chennai","district":"Chennai","state":"Tamil Nadu"},{"pinCodeSeq":4217,"postOfficeName":"Jaffarkhanpet","pinCode":"600095","city":"Chennai","district":"Chennai","state":"Tamil Nadu"},{"pinCodeSeq":4219,"postOfficeName":"Defence Officers Colony","pinCode":"600097","city":"Chennai","district":"Chennai","state":"Tamil Nadu"},{"pinCodeSeq":4220,"postOfficeName":"Ekkaduthangal","pinCode":"600097","city":"Chennai","district":"Chennai","state":"Tamil Nadu"},{"pinCodeSeq":4221,"postOfficeName":"Sidco Estate","pinCode":"600098","city":"Chennai","district":"Chennai","state":"Tamil Nadu"},{"pinCodeSeq":4223,"postOfficeName":"Annanagar Western Extn","pinCode":"600101","city":"Chennai","district":"Chennai","state":"Tamil Nadu"},{"pinCodeSeq":4224,"postOfficeName":"Annanagar East","pinCode":"600102","city":"Chennai","district":"Chennai","state":"Tamil Nadu"},{"pinCodeSeq":4226,"postOfficeName":"High Court Buildings","pinCode":"600104","city":"Chennai","district":"Chennai","state":"Tamil Nadu"},{"pinCodeSeq":4227,"postOfficeName":"C-In-C Road","pinCode":"600105","city":"Chennai","district":"Chennai","state":"Tamil Nadu"},{"pinCodeSeq":4230,"postOfficeName":"Koyambedu","pinCode":"600107","city":"Chennai","district":"Chennai","state":"Tamil Nadu"},{"pinCodeSeq":4231,"postOfficeName":"Broadway","pinCode":"600108","city":"Chennai","district":"Chennai","state":"Tamil Nadu"},{"pinCodeSeq":4233,"postOfficeName":"Ponniammanmedu","pinCode":"600110","city":"Chennai","district":"Chennai","state":"Tamil Nadu"},{"pinCodeSeq":4234,"postOfficeName":"Sri Ayyappanagar","pinCode":"600111","city":"Chennai","district":"Chennai","state":"Tamil Nadu"},{"pinCodeSeq":4235,"postOfficeName":"Ashtabujam Road","pinCode":"600112","city":"Chennai","district":"Chennai","state":"Tamil Nadu"},{"pinCodeSeq":4236,"postOfficeName":"Choolai","pinCode":"600112","city":"Chennai","district":"Chennai","state":"Tamil Nadu"},{"pinCodeSeq":4237,"postOfficeName":"Taramani","pinCode":"600113","city":"Chennai","district":"Chennai","state":"Tamil Nadu"},{"pinCodeSeq":4238,"postOfficeName":"Treaning Institute","pinCode":"600113","city":"Chennai","district":"Chennai","state":"Tamil Nadu"}]