[{"pinCodeSeq":5024,"postOfficeName":"Sunderaperumalkoil","pinCode":"614208","city":"Coimbatore","district":"Coimbatore","state":"Tamil Nadu"},{"pinCodeSeq":7266,"postOfficeName":"Gudimangalam","pinCode":"638201","city":"Coimbatore","district":"Coimbatore","state":"Tamil Nadu"},{"pinCodeSeq":7273,"postOfficeName":"Devanurpudur","pinCode":"638211","city":"Coimbatore","district":"Coimbatore","state":"Tamil Nadu"},{"pinCodeSeq":7293,"postOfficeName":"Chikkarasampalayam","pinCode":"638406","city":"Coimbatore","district":"Coimbatore","state":"Tamil Nadu"},{"pinCodeSeq":7418,"postOfficeName":"Coimbatore","pinCode":"641001","city":"Coimbatore","district":"Coimbatore","state":"Tamil Nadu"},{"pinCodeSeq":7419,"postOfficeName":"Coimbatore Bazaar","pinCode":"641001","city":"Coimbatore","district":"Coimbatore","state":"Tamil Nadu"},{"pinCodeSeq":7420,"postOfficeName":"Coimbatore H O","pinCode":"641001","city":"Coimbatore","district":"Coimbatore","state":"Tamil Nadu"},{"pinCodeSeq":7421,"postOfficeName":"Coimbatore South","pinCode":"641001","city":"Coimbatore","district":"Coimbatore","state":"Tamil Nadu"},{"pinCodeSeq":7422,"postOfficeName":"Coimbatore Ukadam","pinCode":"641001","city":"Coimbatore","district":"Coimbatore","state":"Tamil Nadu"},{"pinCodeSeq":7423,"postOfficeName":"Coimbatore West","pinCode":"641001","city":"Coimbatore","district":"Coimbatore","state":"Tamil Nadu"},{"pinCodeSeq":7424,"postOfficeName":"Devangapet","pinCode":"641001","city":"Coimbatore","district":"Coimbatore","state":"Tamil Nadu"},{"pinCodeSeq":7425,"postOfficeName":"Ponnaiya Rajapuram","pinCode":"641001","city":"Coimbatore","district":"Coimbatore","state":"Tamil Nadu"},{"pinCodeSeq":7426,"postOfficeName":"Selvapuram","pinCode":"641001","city":"Coimbatore","district":"Coimbatore","state":"Tamil Nadu"},{"pinCodeSeq":7427,"postOfficeName":"Sukravarpettai","pinCode":"641001","city":"Coimbatore","district":"Coimbatore","state":"Tamil Nadu"},{"pinCodeSeq":7428,"postOfficeName":"Coimbatore North","pinCode":"641002","city":"Coimbatore","district":"Coimbatore","state":"Tamil Nadu"},{"pinCodeSeq":7429,"postOfficeName":"R S Puram East","pinCode":"641002","city":"Coimbatore","district":"Coimbatore","state":"Tamil Nadu"},{"pinCodeSeq":7430,"postOfficeName":"R S Puram H O","pinCode":"641002","city":"Coimbatore","district":"Coimbatore","state":"Tamil Nadu"},{"pinCodeSeq":7431,"postOfficeName":"R S Puram South","pinCode":"641002","city":"Coimbatore","district":"Coimbatore","state":"Tamil Nadu"},{"pinCodeSeq":7432,"postOfficeName":"R S Puram West","pinCode":"641002","city":"Coimbatore","district":"Coimbatore","state":"Tamil Nadu"},{"pinCodeSeq":7433,"postOfficeName":"Lalwley Road","pinCode":"641003","city":"Coimbatore","district":"Coimbatore","state":"Tamil Nadu"},{"pinCodeSeq":7434,"postOfficeName":"Peelamedu","pinCode":"641004","city":"Coimbatore","district":"Coimbatore","state":"Tamil Nadu"},{"pinCodeSeq":7435,"postOfficeName":"Peelamedu East","pinCode":"641004","city":"Coimbatore","district":"Coimbatore","state":"Tamil Nadu"},{"pinCodeSeq":7436,"postOfficeName":"Nandanagar","pinCode":"641005","city":"Coimbatore","district":"Coimbatore","state":"Tamil Nadu"},{"pinCodeSeq":7437,"postOfficeName":"Singanallur","pinCode":"641005","city":"Coimbatore","district":"Coimbatore","state":"Tamil Nadu"},{"pinCodeSeq":7438,"postOfficeName":"Ganapathi","pinCode":"641006","city":"Coimbatore","district":"Coimbatore","state":"Tamil Nadu"},{"pinCodeSeq":7439,"postOfficeName":"Muthugoundenpudur","pinCode":"641006","city":"Coimbatore","district":"Coimbatore","state":"Tamil Nadu"},{"pinCodeSeq":7440,"postOfficeName":"Institute","pinCode":"641007","city":"Coimbatore","district":"Coimbatore","state":"Tamil Nadu"},{"pinCodeSeq":7442,"postOfficeName":"Anupparpalayam","pinCode":"641009","city":"Coimbatore","district":"Coimbatore","state":"Tamil Nadu"},{"pinCodeSeq":7443,"postOfficeName":"Coimbatore","pinCode":"641009","city":"Coimbatore","district":"Coimbatore","state":"Tamil Nadu"},{"pinCodeSeq":7444,"postOfficeName":"Ramnagar","pinCode":"641009","city":"Coimbatore","district":"Coimbatore","state":"Tamil Nadu"},{"pinCodeSeq":7447,"postOfficeName":"Saibaba Mission","pinCode":"641011","city":"Coimbatore","district":"Coimbatore","state":"Tamil Nadu"},{"pinCodeSeq":7448,"postOfficeName":"Saibaba Mission East","pinCode":"641011","city":"Coimbatore","district":"Coimbatore","state":"Tamil Nadu"},{"pinCodeSeq":7449,"postOfficeName":"Tatabad","pinCode":"641012","city":"Coimbatore","district":"Coimbatore","state":"Tamil Nadu"},{"pinCodeSeq":7450,"postOfficeName":"Tatabad East","pinCode":"641012","city":"Coimbatore","district":"Coimbatore","state":"Tamil Nadu"},{"pinCodeSeq":7451,"postOfficeName":"Govt College Of Technology","pinCode":"641013","city":"Coimbatore","district":"Coimbatore","state":"Tamil Nadu"},{"pinCodeSeq":7452,"postOfficeName":"Coimbatore Aerodrome","pinCode":"641014","city":"Coimbatore","district":"Coimbatore","state":"Tamil Nadu"},{"pinCodeSeq":7453,"postOfficeName":"Uppilpalayam","pinCode":"641015","city":"Coimbatore","district":"Coimbatore","state":"Tamil Nadu"},{"pinCodeSeq":7454,"postOfficeName":"Ondipudur","pinCode":"641016","city":"Coimbatore","district":"Coimbatore","state":"Tamil Nadu"},{"pinCodeSeq":7456,"postOfficeName":"Coimbatore Central","pinCode":"641018","city":"Coimbatore","district":"Coimbatore","state":"Tamil Nadu"},{"pinCodeSeq":7457,"postOfficeName":"Coimbatore Central Bus St","pinCode":"641018","city":"Coimbatore","district":"Coimbatore","state":"Tamil Nadu"},{"pinCodeSeq":7458,"postOfficeName":"Coimbatore Collectorate","pinCode":"641018","city":"Coimbatore","district":"Coimbatore","state":"Tamil Nadu"},{"pinCodeSeq":7459,"postOfficeName":"Coimbatore Courts","pinCode":"641018","city":"Coimbatore","district":"Coimbatore","state":"Tamil Nadu"},{"pinCodeSeq":7460,"postOfficeName":"Coimbatore R S","pinCode":"641018","city":"Coimbatore","district":"Coimbatore","state":"Tamil Nadu"},{"pinCodeSeq":7461,"postOfficeName":"Coimbatore Race Course","pinCode":"641018","city":"Coimbatore","district":"Coimbatore","state":"Tamil Nadu"},{"pinCodeSeq":7462,"postOfficeName":"Commercial Tax Office Bld","pinCode":"641018","city":"Coimbatore","district":"Coimbatore","state":"Tamil Nadu"},{"pinCodeSeq":7463,"postOfficeName":"Krishnaswamynagar","pinCode":"641018","city":"Coimbatore","district":"Coimbatore","state":"Tamil Nadu"},{"pinCodeSeq":7464,"postOfficeName":"Puliyakulam","pinCode":"641018","city":"Coimbatore","district":"Coimbatore","state":"Tamil Nadu"},{"pinCodeSeq":7465,"postOfficeName":"Ramanathapuram Cbt","pinCode":"641018","city":"Coimbatore","district":"Coimbatore","state":"Tamil Nadu"},{"pinCodeSeq":7466,"postOfficeName":"Red Fields","pinCode":"641018","city":"Coimbatore","district":"Coimbatore","state":"Tamil Nadu"},{"pinCodeSeq":7467,"postOfficeName":"Coimbatore Press Colony","pinCode":"641019","city":"Coimbatore","district":"Coimbatore","state":"Tamil Nadu"},{"pinCodeSeq":7468,"postOfficeName":"Perianaickenpalayam","pinCode":"641020","city":"Coimbatore","district":"Coimbatore","state":"Tamil Nadu"},{"pinCodeSeq":7469,"postOfficeName":"Sri Ramakrishna Vidyalaya","pinCode":"641020","city":"Coimbatore","district":"Coimbatore","state":"Tamil Nadu"},{"pinCodeSeq":7470,"postOfficeName":"Coimbatore Ind Estate","pinCode":"641021","city":"Coimbatore","district":"Coimbatore","state":"Tamil Nadu"},{"pinCodeSeq":7471,"postOfficeName":"Nggo Colony Cbe","pinCode":"641022","city":"Coimbatore","district":"Coimbatore","state":"Tamil Nadu"},{"pinCodeSeq":7472,"postOfficeName":"Konavaikalpalayam","pinCode":"641023","city":"Coimbatore","district":"Coimbatore","state":"Tamil Nadu"},{"pinCodeSeq":7473,"postOfficeName":"Padanur","pinCode":"641023","city":"Coimbatore","district":"Coimbatore","state":"Tamil Nadu"},{"pinCodeSeq":7474,"postOfficeName":"Podanur New Town","pinCode":"641023","city":"Coimbatore","district":"Coimbatore","state":"Tamil Nadu"},{"pinCodeSeq":7476,"postOfficeName":"Velandipalayam","pinCode":"641025","city":"Coimbatore","district":"Coimbatore","state":"Tamil Nadu"},{"pinCodeSeq":7477,"postOfficeName":"Komarapalayam-Cbe","pinCode":"641026","city":"Coimbatore","district":"Coimbatore","state":"Tamil Nadu"},{"pinCodeSeq":7478,"postOfficeName":"Ratnapuri","pinCode":"641027","city":"Coimbatore","district":"Coimbatore","state":"Tamil Nadu"},{"pinCodeSeq":7479,"postOfficeName":"Sowripalayam","pinCode":"641028","city":"Coimbatore","district":"Coimbatore","state":"Tamil Nadu"},{"pinCodeSeq":7480,"postOfficeName":"Gnanambika Mills","pinCode":"641029","city":"Coimbatore","district":"Coimbatore","state":"Tamil Nadu"},{"pinCodeSeq":7481,"postOfficeName":"Kavindampalavam Colony","pinCode":"641030","city":"Coimbatore","district":"Coimbatore","state":"Tamil Nadu"},{"pinCodeSeq":7482,"postOfficeName":"Narasimhanaickenpalyam","pinCode":"641031","city":"Coimbatore","district":"Coimbatore","state":"Tamil Nadu"},{"pinCodeSeq":7484,"postOfficeName":"Neelikonampalayam","pinCode":"641033","city":"Coimbatore","district":"Coimbatore","state":"Tamil Nadu"},{"pinCodeSeq":7485,"postOfficeName":"Tadiyalur","pinCode":"641034","city":"Coimbatore","district":"Coimbatore","state":"Tamil Nadu"},{"pinCodeSeq":7486,"postOfficeName":"Nanjundapuram","pinCode":"641036","city":"Coimbatore","district":"Coimbatore","state":"Tamil Nadu"},{"pinCodeSeq":7487,"postOfficeName":"Pappanaickenpalayam","pinCode":"641037","city":"Coimbatore","district":"Coimbatore","state":"Tamil Nadu"},{"pinCodeSeq":7488,"postOfficeName":"Pappanaickenpalayam West","pinCode":"641037","city":"Coimbatore","district":"Coimbatore","state":"Tamil Nadu"},{"pinCodeSeq":7489,"postOfficeName":"Kuppakonanpudur","pinCode":"641038","city":"Coimbatore","district":"Coimbatore","state":"Tamil Nadu"},{"pinCodeSeq":7490,"postOfficeName":"Telungapalayam","pinCode":"641039","city":"Coimbatore","district":"Coimbatore","state":"Tamil Nadu"},{"pinCodeSeq":7491,"postOfficeName":"Subramaniapuram Cbe","pinCode":"641040","city":"Coimbatore","district":"Coimbatore","state":"Tamil Nadu"},{"pinCodeSeq":7492,"postOfficeName":"Subramaniapuram Madurai","pinCode":"641040","city":"Coimbatore","district":"Coimbatore","state":"Tamil Nadu"},{"pinCodeSeq":7493,"postOfficeName":"Pappanaickenpudur","pinCode":"641041","city":"Coimbatore","district":"Coimbatore","state":"Tamil Nadu"},{"pinCodeSeq":7494,"postOfficeName":"Kovaipudur","pinCode":"641042","city":"Coimbatore","district":"Coimbatore","state":"Tamil Nadu"},{"pinCodeSeq":7495,"postOfficeName":"Siddapudur","pinCode":"641044","city":"Coimbatore","district":"Coimbatore","state":"Tamil Nadu"},{"pinCodeSeq":7496,"postOfficeName":"Ramanthapuram Cbe","pinCode":"641045","city":"Coimbatore","district":"Coimbatore","state":"Tamil Nadu"},{"pinCodeSeq":7497,"postOfficeName":"Maruthamalai","pinCode":"641046","city":"Coimbatore","district":"Coimbatore","state":"Tamil Nadu"},{"pinCodeSeq":7498,"postOfficeName":"Jothipuram","pinCode":"641047","city":"Coimbatore","district":"Coimbatore","state":"Tamil Nadu"},{"pinCodeSeq":7500,"postOfficeName":"Sinnimpalayam","pinCode":"641062","city":"Coimbatore","district":"Coimbatore","state":"Tamil Nadu"},{"pinCodeSeq":7501,"postOfficeName":"Sundakamuthur","pinCode":"641064","city":"Coimbatore","district":"Coimbatore","state":"Tamil Nadu"},{"pinCodeSeq":7502,"postOfficeName":"Nilambur","pinCode":"641065","city":"Coimbatore","district":"Coimbatore","state":"Tamil Nadu"},{"pinCodeSeq":7503,"postOfficeName":"Alandurai","pinCode":"641101","city":"Coimbatore","district":"Coimbatore","state":"Tamil Nadu"},{"pinCodeSeq":7508,"postOfficeName":"Madukkarai Casba","pinCode":"641105","city":"Coimbatore","district":"Coimbatore","state":"Tamil Nadu"},{"pinCodeSeq":7509,"postOfficeName":"Pillur Dam","pinCode":"641106","city":"Coimbatore","district":"Coimbatore","state":"Tamil Nadu"},{"pinCodeSeq":7510,"postOfficeName":"Sarkar Samakulam","pinCode":"641107","city":"Coimbatore","district":"Coimbatore","state":"Tamil Nadu"},{"pinCodeSeq":7512,"postOfficeName":"Thodamuthur","pinCode":"641109","city":"Coimbatore","district":"Coimbatore","state":"Tamil Nadu"},{"pinCodeSeq":7513,"postOfficeName":"Vaiyampalayam","pinCode":"641110","city":"Coimbatore","district":"Coimbatore","state":"Tamil Nadu"},{"pinCodeSeq":7515,"postOfficeName":"Parli Power House","pinCode":"641112","city":"Coimbatore","district":"Coimbatore","state":"Tamil Nadu"},{"pinCodeSeq":7517,"postOfficeName":"Tholampalayam","pinCode":"641114","city":"Coimbatore","district":"Coimbatore","state":"Tamil Nadu"},{"pinCodeSeq":7518,"postOfficeName":"Valliamkadu","pinCode":"641115","city":"Coimbatore","district":"Coimbatore","state":"Tamil Nadu"},{"pinCodeSeq":7519,"postOfficeName":"Bhujanganur","pinCode":"641116","city":"Coimbatore","district":"Coimbatore","state":"Tamil Nadu"},{"pinCodeSeq":7521,"postOfficeName":"Thekkampatti","pinCode":"641118","city":"Coimbatore","district":"Coimbatore","state":"Tamil Nadu"},{"pinCodeSeq":7522,"postOfficeName":"Negamam","pinCode":"641120","city":"Coimbatore","district":"Coimbatore","state":"Tamil Nadu"},{"pinCodeSeq":7524,"postOfficeName":"Ganapathi Agraharam","pinCode":"641202","city":"Coimbatore","district":"Coimbatore","state":"Tamil Nadu"},{"pinCodeSeq":7525,"postOfficeName":"Vadasittur","pinCode":"641202","city":"Coimbatore","district":"Coimbatore","state":"Tamil Nadu"},{"pinCodeSeq":7526,"postOfficeName":"Katoor Mtp","pinCode":"641301","city":"Coimbatore","district":"Coimbatore","state":"Tamil Nadu"},{"pinCodeSeq":7527,"postOfficeName":"Mahadevapuram","pinCode":"641301","city":"Coimbatore","district":"Coimbatore","state":"Tamil Nadu"},{"pinCodeSeq":7528,"postOfficeName":"Mettupalayam Bazaar","pinCode":"641301","city":"Coimbatore","district":"Coimbatore","state":"Tamil Nadu"},{"pinCodeSeq":7529,"postOfficeName":"Mettupalayam East","pinCode":"641301","city":"Coimbatore","district":"Coimbatore","state":"Tamil Nadu"},{"pinCodeSeq":7530,"postOfficeName":"Mettupalayam H O","pinCode":"641301","city":"Coimbatore","district":"Coimbatore","state":"Tamil Nadu"},{"pinCodeSeq":7532,"postOfficeName":"Nellithurai","pinCode":"641303","city":"Coimbatore","district":"Coimbatore","state":"Tamil Nadu"},{"pinCodeSeq":7536,"postOfficeName":"Slur","pinCode":"641402","city":"Coimbatore","district":"Coimbatore","state":"Tamil Nadu"},{"pinCodeSeq":7537,"postOfficeName":"Kalingal","pinCode":"641404","city":"Coimbatore","district":"Coimbatore","state":"Tamil Nadu"},{"pinCodeSeq":7539,"postOfficeName":"Arasur","pinCode":"641407","city":"Coimbatore","district":"Coimbatore","state":"Tamil Nadu"},{"pinCodeSeq":7540,"postOfficeName":"Appanaickenpatti","pinCode":"641408","city":"Coimbatore","district":"Coimbatore","state":"Tamil Nadu"},{"pinCodeSeq":7541,"postOfficeName":"Perumanallur Road","pinCode":"641602","city":"Coimbatore","district":"Coimbatore","state":"Tamil Nadu"},{"pinCodeSeq":7542,"postOfficeName":"Tiruppur Bazar","pinCode":"641604","city":"Coimbatore","district":"Coimbatore","state":"Tamil Nadu"},{"pinCodeSeq":7543,"postOfficeName":"Gandhi Market","pinCode":"642001","city":"Coimbatore","district":"Coimbatore","state":"Tamil Nadu"},{"pinCodeSeq":7544,"postOfficeName":"Marapettai","pinCode":"642001","city":"Coimbatore","district":"Coimbatore","state":"Tamil Nadu"},{"pinCodeSeq":7545,"postOfficeName":"N G M College","pinCode":"642001","city":"Coimbatore","district":"Coimbatore","state":"Tamil Nadu"},{"pinCodeSeq":7548,"postOfficeName":"Pollachi H O","pinCode":"642001","city":"Coimbatore","district":"Coimbatore","state":"Tamil Nadu"},{"pinCodeSeq":7549,"postOfficeName":"Mahalingapuram","pinCode":"642002","city":"Coimbatore","district":"Coimbatore","state":"Tamil Nadu"},{"pinCodeSeq":7550,"postOfficeName":"T Kottampatti","pinCode":"642002","city":"Coimbatore","district":"Coimbatore","state":"Tamil Nadu"},{"pinCodeSeq":7551,"postOfficeName":"Makkinaickenpatti","pinCode":"642003","city":"Coimbatore","district":"Coimbatore","state":"Tamil Nadu"},{"pinCodeSeq":7552,"postOfficeName":"Uttukuli Zamin","pinCode":"642004","city":"Coimbatore","district":"Coimbatore","state":"Tamil Nadu"},{"pinCodeSeq":7553,"postOfficeName":"Zamin Mathur","pinCode":"642005","city":"Coimbatore","district":"Coimbatore","state":"Tamil Nadu"},{"pinCodeSeq":7554,"postOfficeName":"Angalakurichi","pinCode":"642007","city":"Coimbatore","district":"Coimbatore","state":"Tamil Nadu"},{"pinCodeSeq":7555,"postOfficeName":"Jallipatti","pinCode":"642051","city":"Coimbatore","district":"Coimbatore","state":"Tamil Nadu"},{"pinCodeSeq":7556,"postOfficeName":"Akilandapuram","pinCode":"642052","city":"Coimbatore","district":"Coimbatore","state":"Tamil Nadu"},{"pinCodeSeq":7557,"postOfficeName":"Ramapattinam","pinCode":"642053","city":"Coimbatore","district":"Coimbatore","state":"Tamil Nadu"},{"pinCodeSeq":7558,"postOfficeName":"Kanjampatti","pinCode":"642054","city":"Coimbatore","district":"Coimbatore","state":"Tamil Nadu"},{"pinCodeSeq":7559,"postOfficeName":"Mannur","pinCode":"642055","city":"Coimbatore","district":"Coimbatore","state":"Tamil Nadu"},{"pinCodeSeq":7560,"postOfficeName":"Aliyarnagar","pinCode":"642101","city":"Coimbatore","district":"Coimbatore","state":"Tamil Nadu"},{"pinCodeSeq":7561,"postOfficeName":"Amaravathi Nagar","pinCode":"642102","city":"Coimbatore","district":"Coimbatore","state":"Tamil Nadu"},{"pinCodeSeq":7562,"postOfficeName":"Ambarampalayam","pinCode":"642103","city":"Coimbatore","district":"Coimbatore","state":"Tamil Nadu"},{"pinCodeSeq":7563,"postOfficeName":"Anamalai","pinCode":"642104","city":"Coimbatore","district":"Coimbatore","state":"Tamil Nadu"},{"pinCodeSeq":7564,"postOfficeName":"Waterfalls Estate","pinCode":"642105","city":"Coimbatore","district":"Coimbatore","state":"Tamil Nadu"},{"pinCodeSeq":7566,"postOfficeName":"Gomangalam","pinCode":"642107","city":"Coimbatore","district":"Coimbatore","state":"Tamil Nadu"},{"pinCodeSeq":7567,"postOfficeName":"Iyerpadi","pinCode":"642108","city":"Coimbatore","district":"Coimbatore","state":"Tamil Nadu"},{"pinCodeSeq":7570,"postOfficeName":"Krishnapuram Cbe","pinCode":"642111","city":"Coimbatore","district":"Coimbatore","state":"Tamil Nadu"},{"pinCodeSeq":7571,"postOfficeName":"Kurichikottai","pinCode":"642112","city":"Coimbatore","district":"Coimbatore","state":"Tamil Nadu"},{"pinCodeSeq":7573,"postOfficeName":"Malayandipattinam","pinCode":"642114","city":"Coimbatore","district":"Coimbatore","state":"Tamil Nadu"},{"pinCodeSeq":7574,"postOfficeName":"Manamboli","pinCode":"642115","city":"Coimbatore","district":"Coimbatore","state":"Tamil Nadu"},{"pinCodeSeq":7575,"postOfficeName":"Minparai","pinCode":"642116","city":"Coimbatore","district":"Coimbatore","state":"Tamil Nadu"},{"pinCodeSeq":7576,"postOfficeName":"Mudis","pinCode":"642117","city":"Coimbatore","district":"Coimbatore","state":"Tamil Nadu"},{"pinCodeSeq":7577,"postOfficeName":"Murugali Bazaar","pinCode":"642118","city":"Coimbatore","district":"Coimbatore","state":"Tamil Nadu"},{"pinCodeSeq":7578,"postOfficeName":"Navamalai Camp","pinCode":"642119","city":"Coimbatore","district":"Coimbatore","state":"Tamil Nadu"},{"pinCodeSeq":7579,"postOfficeName":"Pulankinar","pinCode":"642122","city":"Coimbatore","district":"Coimbatore","state":"Tamil Nadu"},{"pinCodeSeq":7581,"postOfficeName":"Sholayar","pinCode":"642124","city":"Coimbatore","district":"Coimbatore","state":"Tamil Nadu"},{"pinCodeSeq":7582,"postOfficeName":"Sholayarnagar","pinCode":"642125","city":"Coimbatore","district":"Coimbatore","state":"Tamil Nadu"},{"pinCodeSeq":7583,"postOfficeName":"Eripalayam","pinCode":"642126","city":"Coimbatore","district":"Coimbatore","state":"Tamil Nadu"},{"pinCodeSeq":7584,"postOfficeName":"Gandhi Nagar","pinCode":"642126","city":"Coimbatore","district":"Coimbatore","state":"Tamil Nadu"},{"pinCodeSeq":7585,"postOfficeName":"Udamalpet Bazar","pinCode":"642126","city":"Coimbatore","district":"Coimbatore","state":"Tamil Nadu"},{"pinCodeSeq":7586,"postOfficeName":"Udamalpet H O","pinCode":"642126","city":"Coimbatore","district":"Coimbatore","state":"Tamil Nadu"},{"pinCodeSeq":7587,"postOfficeName":"Udamalpet South","pinCode":"642126","city":"Coimbatore","district":"Coimbatore","state":"Tamil Nadu"},{"pinCodeSeq":7589,"postOfficeName":"Vazhaithottam","pinCode":"642127","city":"Coimbatore","district":"Coimbatore","state":"Tamil Nadu"},{"pinCodeSeq":7590,"postOfficeName":"Venkatesa Mills","pinCode":"642128","city":"Coimbatore","district":"Coimbatore","state":"Tamil Nadu"},{"pinCodeSeq":7592,"postOfficeName":"Karamalai Bazaar","pinCode":"642130","city":"Coimbatore","district":"Coimbatore","state":"Tamil Nadu"},{"pinCodeSeq":7593,"postOfficeName":"Pannimade","pinCode":"642131","city":"Coimbatore","district":"Coimbatore","state":"Tamil Nadu"},{"pinCodeSeq":7594,"postOfficeName":"Valavadi","pinCode":"642132","city":"Coimbatore","district":"Coimbatore","state":"Tamil Nadu"},{"pinCodeSeq":7595,"postOfficeName":"Sethurmadai","pinCode":"642133","city":"Coimbatore","district":"Coimbatore","state":"Tamil Nadu"},{"pinCodeSeq":7596,"postOfficeName":"Somandurai","pinCode":"642134","city":"Coimbatore","district":"Coimbatore","state":"Tamil Nadu"},{"pinCodeSeq":7597,"postOfficeName":"Kadamparai Dam","pinCode":"642135","city":"Coimbatore","district":"Coimbatore","state":"Tamil Nadu"},{"pinCodeSeq":7598,"postOfficeName":"Ramanamudalipudur","pinCode":"642136","city":"Coimbatore","district":"Coimbatore","state":"Tamil Nadu"},{"pinCodeSeq":7599,"postOfficeName":"Chinnanegamam","pinCode":"642137","city":"Coimbatore","district":"Coimbatore","state":"Tamil Nadu"},{"pinCodeSeq":7600,"postOfficeName":"Dhully","pinCode":"642138","city":"Coimbatore","district":"Coimbatore","state":"Tamil Nadu"},{"pinCodeSeq":7601,"postOfficeName":"Thirumurthinagar","pinCode":"642139","city":"Coimbatore","district":"Coimbatore","state":"Tamil Nadu"},{"pinCodeSeq":7602,"postOfficeName":"Odayakulam","pinCode":"642140","city":"Coimbatore","district":"Coimbatore","state":"Tamil Nadu"},{"pinCodeSeq":7603,"postOfficeName":"Topslip","pinCode":"642141","city":"Coimbatore","district":"Coimbatore","state":"Tamil Nadu"},{"pinCodeSeq":7604,"postOfficeName":"Vadakkipalayam","pinCode":"642142","city":"Coimbatore","district":"Coimbatore","state":"Tamil Nadu"},{"pinCodeSeq":7605,"postOfficeName":"Sulakkal","pinCode":"642143","city":"Coimbatore","district":"Coimbatore","state":"Tamil Nadu"},{"pinCodeSeq":7606,"postOfficeName":"Poravipalayam","pinCode":"642144","city":"Coimbatore","district":"Coimbatore","state":"Tamil Nadu"},{"pinCodeSeq":7607,"postOfficeName":"Sokkanur","pinCode":"642145","city":"Coimbatore","district":"Coimbatore","state":"Tamil Nadu"},{"pinCodeSeq":7610,"postOfficeName":"Mettupalayam","pinCode":"642147","city":"Coimbatore","district":"Coimbatore","state":"Tamil Nadu"},{"pinCodeSeq":7611,"postOfficeName":"Divansapudur","pinCode":"642148","city":"Coimbatore","district":"Coimbatore","state":"Tamil Nadu"},{"pinCodeSeq":7612,"postOfficeName":"Periapodu","pinCode":"642149","city":"Coimbatore","district":"Coimbatore","state":"Tamil Nadu"},{"pinCodeSeq":7613,"postOfficeName":"Kadamparai Power House","pinCode":"642152","city":"Coimbatore","district":"Coimbatore","state":"Tamil Nadu"},{"pinCodeSeq":7614,"postOfficeName":"Sirukundra","pinCode":"642153","city":"Coimbatore","district":"Coimbatore","state":"Tamil Nadu"},{"pinCodeSeq":7615,"postOfficeName":"Udamalpet","pinCode":"642154","city":"Coimbatore","district":"Coimbatore","state":"Tamil Nadu"}]