[{"pinCodeSeq":4347,"postOfficeName":"Karunguli","pinCode":"603303","city":"Cuddalore","district":"Cuddalore","state":"Tamil Nadu"},{"pinCodeSeq":4409,"postOfficeName":"Marudadu","pinCode":"604405","city":"Cuddalore","district":"Cuddalore","state":"Tamil Nadu"},{"pinCodeSeq":4420,"postOfficeName":"Korakkai","pinCode":"604413","city":"Cuddalore","district":"Cuddalore","state":"Tamil Nadu"},{"pinCodeSeq":4497,"postOfficeName":"Avinangudi","pinCode":"606112","city":"Cuddalore","district":"Cuddalore","state":"Tamil Nadu"},{"pinCodeSeq":4500,"postOfficeName":"Sirupakkam","pinCode":"606123","city":"Cuddalore","district":"Cuddalore","state":"Tamil Nadu"},{"pinCodeSeq":4575,"postOfficeName":"Vellur","pinCode":"606914","city":"Cuddalore","district":"Cuddalore","state":"Tamil Nadu"},{"pinCodeSeq":4577,"postOfficeName":"Cuddalore Court Building","pinCode":"607001","city":"Cuddalore","district":"Cuddalore","state":"Tamil Nadu"},{"pinCodeSeq":4578,"postOfficeName":"Cuddalore H O","pinCode":"607001","city":"Cuddalore","district":"Cuddalore","state":"Tamil Nadu"},{"pinCodeSeq":4579,"postOfficeName":"Cuddalore Public Offices","pinCode":"607001","city":"Cuddalore","district":"Cuddalore","state":"Tamil Nadu"},{"pinCodeSeq":4589,"postOfficeName":"Cuddalore O T","pinCode":"607003","city":"Cuddalore","district":"Cuddalore","state":"Tamil Nadu"},{"pinCodeSeq":4590,"postOfficeName":"Cuddalore Ot Bazaar","pinCode":"607003","city":"Cuddalore","district":"Cuddalore","state":"Tamil Nadu"},{"pinCodeSeq":4591,"postOfficeName":"Cuddalore Port","pinCode":"607003","city":"Cuddalore","district":"Cuddalore","state":"Tamil Nadu"},{"pinCodeSeq":4621,"postOfficeName":"Thondamanatham","pinCode":"607305","city":"Cuddalore","district":"Cuddalore","state":"Tamil Nadu"},{"pinCodeSeq":4653,"postOfficeName":"Komaratchi","pinCode":"608302","city":"Cuddalore","district":"Cuddalore","state":"Tamil Nadu"},{"pinCodeSeq":4655,"postOfficeName":"Reddiyur","pinCode":"608304","city":"Cuddalore","district":"Cuddalore","state":"Tamil Nadu"},{"pinCodeSeq":4657,"postOfficeName":"Vallampadugai","pinCode":"608401","city":"Cuddalore","district":"Cuddalore","state":"Tamil Nadu"},{"pinCodeSeq":4662,"postOfficeName":"Keerapalayam","pinCode":"608602","city":"Cuddalore","district":"Cuddalore","state":"Tamil Nadu"},{"pinCodeSeq":4666,"postOfficeName":"Pinnalur","pinCode":"608704","city":"Cuddalore","district":"Cuddalore","state":"Tamil Nadu"},{"pinCodeSeq":4681,"postOfficeName":"Achalpuram","pinCode":"609101","city":"Cuddalore","district":"Cuddalore","state":"Tamil Nadu"},{"pinCodeSeq":4706,"postOfficeName":"Karaimedu","pinCode":"609124","city":"Cuddalore","district":"Cuddalore","state":"Tamil Nadu"},{"pinCodeSeq":4830,"postOfficeName":"Kuthur","pinCode":"611105","city":"Cuddalore","district":"Cuddalore","state":"Tamil Nadu"},{"pinCodeSeq":5118,"postOfficeName":"Sithamalli","pinCode":"614728","city":"Cuddalore","district":"Cuddalore","state":"Tamil Nadu"},{"pinCodeSeq":5389,"postOfficeName":"Perungalur","pinCode":"622203","city":"Cuddalore","district":"Cuddalore","state":"Tamil Nadu"},{"pinCodeSeq":5513,"postOfficeName":"Kannangudi","pinCode":"623318","city":"Cuddalore","district":"Cuddalore","state":"Tamil Nadu"},{"pinCodeSeq":5909,"postOfficeName":"Vellur","pinCode":"626057","city":"Cuddalore","district":"Cuddalore","state":"Tamil Nadu"},{"pinCodeSeq":6588,"postOfficeName":"Ramapuram","pinCode":"629303","city":"Cuddalore","district":"Cuddalore","state":"Tamil Nadu"},{"pinCodeSeq":7445,"postOfficeName":"Ranganathapuram","pinCode":"641009","city":"Cuddalore","district":"Cuddalore","state":"Tamil Nadu"},{"pinCodeSeq":7520,"postOfficeName":"Marudur","pinCode":"641117","city":"Cuddalore","district":"Cuddalore","state":"Tamil Nadu"}]