[{"pinCodeSeq":6837,"postOfficeName":"Dowlatabad","pinCode":"635001","city":"Dharmapuri","district":"Dharmapuri","state":"Tamil Nadu"},{"pinCodeSeq":6838,"postOfficeName":"Kathinayanapalli","pinCode":"635001","city":"Dharmapuri","district":"Dharmapuri","state":"Tamil Nadu"},{"pinCodeSeq":6843,"postOfficeName":"Lakshmipuram Krp","pinCode":"635001","city":"Dharmapuri","district":"Dharmapuri","state":"Tamil Nadu"},{"pinCodeSeq":6846,"postOfficeName":"Anchetty","pinCode":"635102","city":"Dharmapuri","district":"Dharmapuri","state":"Tamil Nadu"},{"pinCodeSeq":6847,"postOfficeName":"Bagalur","pinCode":"635103","city":"Dharmapuri","district":"Dharmapuri","state":"Tamil Nadu"},{"pinCodeSeq":6848,"postOfficeName":"Barugur","pinCode":"635104","city":"Dharmapuri","district":"Dharmapuri","state":"Tamil Nadu"},{"pinCodeSeq":6849,"postOfficeName":"Berigai","pinCode":"635105","city":"Dharmapuri","district":"Dharmapuri","state":"Tamil Nadu"},{"pinCodeSeq":6850,"postOfficeName":"Chaparthi","pinCode":"635106","city":"Dharmapuri","district":"Dharmapuri","state":"Tamil Nadu"},{"pinCodeSeq":6851,"postOfficeName":"Denkanikota","pinCode":"635107","city":"Dharmapuri","district":"Dharmapuri","state":"Tamil Nadu"},{"pinCodeSeq":6852,"postOfficeName":"Elathagiri","pinCode":"635108","city":"Dharmapuri","district":"Dharmapuri","state":"Tamil Nadu"},{"pinCodeSeq":6854,"postOfficeName":"Kothapeta Hosur","pinCode":"635109","city":"Dharmapuri","district":"Dharmapuri","state":"Tamil Nadu"},{"pinCodeSeq":6855,"postOfficeName":"Hosur Cattle Farm","pinCode":"635110","city":"Dharmapuri","district":"Dharmapuri","state":"Tamil Nadu"},{"pinCodeSeq":6856,"postOfficeName":"Karimangalam","pinCode":"635111","city":"Dharmapuri","district":"Dharmapuri","state":"Tamil Nadu"},{"pinCodeSeq":6857,"postOfficeName":"Kaveripattinam Bazaar","pinCode":"635112","city":"Dharmapuri","district":"Dharmapuri","state":"Tamil Nadu"},{"pinCodeSeq":6858,"postOfficeName":"Kaveripattinam Dharmapuri","pinCode":"635112","city":"Dharmapuri","district":"Dharmapuri","state":"Tamil Nadu"},{"pinCodeSeq":6859,"postOfficeName":"Kelamanglam","pinCode":"635113","city":"Dharmapuri","district":"Dharmapuri","state":"Tamil Nadu"},{"pinCodeSeq":6860,"postOfficeName":"Mathakondapalli","pinCode":"635114","city":"Dharmapuri","district":"Dharmapuri","state":"Tamil Nadu"},{"pinCodeSeq":6862,"postOfficeName":"Shoolagiri","pinCode":"635117","city":"Dharmapuri","district":"Dharmapuri","state":"Tamil Nadu"},{"pinCodeSeq":6863,"postOfficeName":"Thally","pinCode":"635118","city":"Dharmapuri","district":"Dharmapuri","state":"Tamil Nadu"},{"pinCodeSeq":6864,"postOfficeName":"Uddanpalli","pinCode":"635119","city":"Dharmapuri","district":"Dharmapuri","state":"Tamil Nadu"},{"pinCodeSeq":6865,"postOfficeName":"Varattanpalli","pinCode":"635120","city":"Dharmapuri","district":"Dharmapuri","state":"Tamil Nadu"},{"pinCodeSeq":6866,"postOfficeName":"Veppanapalli","pinCode":"635121","city":"Dharmapuri","district":"Dharmapuri","state":"Tamil Nadu"},{"pinCodeSeq":6867,"postOfficeName":"Alappatti","pinCode":"635122","city":"Dharmapuri","district":"Dharmapuri","state":"Tamil Nadu"},{"pinCodeSeq":6868,"postOfficeName":"Pannandur","pinCode":"635123","city":"Dharmapuri","district":"Dharmapuri","state":"Tamil Nadu"},{"pinCodeSeq":6869,"postOfficeName":"Hosur East","pinCode":"635125","city":"Dharmapuri","district":"Dharmapuri","state":"Tamil Nadu"},{"pinCodeSeq":6870,"postOfficeName":"Hosur Industrial Complex","pinCode":"635126","city":"Dharmapuri","district":"Dharmapuri","state":"Tamil Nadu"},{"pinCodeSeq":6871,"postOfficeName":"Maharajakadai","pinCode":"635127","city":"Dharmapuri","district":"Dharmapuri","state":"Tamil Nadu"},{"pinCodeSeq":6872,"postOfficeName":"Mekalachinnampalli","pinCode":"635128","city":"Dharmapuri","district":"Dharmapuri","state":"Tamil Nadu"},{"pinCodeSeq":6874,"postOfficeName":"Thorapalli","pinCode":"635129","city":"Dharmapuri","district":"Dharmapuri","state":"Tamil Nadu"},{"pinCodeSeq":6875,"postOfficeName":"Sundekuppan","pinCode":"635130","city":"Dharmapuri","district":"Dharmapuri","state":"Tamil Nadu"},{"pinCodeSeq":6876,"postOfficeName":"Kammampalli","pinCode":"635131","city":"Dharmapuri","district":"Dharmapuri","state":"Tamil Nadu"},{"pinCodeSeq":6877,"postOfficeName":"Athimugam","pinCode":"635132","city":"Dharmapuri","district":"Dharmapuri","state":"Tamil Nadu"},{"pinCodeSeq":6878,"postOfficeName":"Chigarlapalli","pinCode":"635133","city":"Dharmapuri","district":"Dharmapuri","state":"Tamil Nadu"},{"pinCodeSeq":6879,"postOfficeName":"Kamandoddi","pinCode":"635134","city":"Dharmapuri","district":"Dharmapuri","state":"Tamil Nadu"},{"pinCodeSeq":6881,"postOfficeName":"Damodarahalli","pinCode":"635136","city":"Dharmapuri","district":"Dharmapuri","state":"Tamil Nadu"},{"pinCodeSeq":6882,"postOfficeName":"Perandapalli","pinCode":"635137","city":"Dharmapuri","district":"Dharmapuri","state":"Tamil Nadu"},{"pinCodeSeq":6883,"postOfficeName":"Andevanapalli","pinCode":"635138","city":"Dharmapuri","district":"Dharmapuri","state":"Tamil Nadu"},{"pinCodeSeq":6884,"postOfficeName":"Erudukottai","pinCode":"635139","city":"Dharmapuri","district":"Dharmapuri","state":"Tamil Nadu"},{"pinCodeSeq":6885,"postOfficeName":"Sandanahalli","pinCode":"635140","city":"Dharmapuri","district":"Dharmapuri","state":"Tamil Nadu"},{"pinCodeSeq":6886,"postOfficeName":"Salivaram","pinCode":"635141","city":"Dharmapuri","district":"Dharmapuri","state":"Tamil Nadu"},{"pinCodeSeq":6887,"postOfficeName":"Barur","pinCode":"635201","city":"Dharmapuri","district":"Dharmapuri","state":"Tamil Nadu"},{"pinCodeSeq":6889,"postOfficeName":"Mathur-Dhamapuri","pinCode":"635203","city":"Dharmapuri","district":"Dharmapuri","state":"Tamil Nadu"},{"pinCodeSeq":6890,"postOfficeName":"Nagarasampatti","pinCode":"635204","city":"Dharmapuri","district":"Dharmapuri","state":"Tamil Nadu"},{"pinCodeSeq":6891,"postOfficeName":"Periyanahalli","pinCode":"635205","city":"Dharmapuri","district":"Dharmapuri","state":"Tamil Nadu"},{"pinCodeSeq":6892,"postOfficeName":"Pochampalli","pinCode":"635206","city":"Dharmapuri","district":"Dharmapuri","state":"Tamil Nadu"},{"pinCodeSeq":6893,"postOfficeName":"Uttangarai","pinCode":"635207","city":"Dharmapuri","district":"Dharmapuri","state":"Tamil Nadu"},{"pinCodeSeq":6894,"postOfficeName":"Arasampatti","pinCode":"635208","city":"Dharmapuri","district":"Dharmapuri","state":"Tamil Nadu"},{"pinCodeSeq":6895,"postOfficeName":"Saithur","pinCode":"635209","city":"Dharmapuri","district":"Dharmapuri","state":"Tamil Nadu"},{"pinCodeSeq":6897,"postOfficeName":"Kannadahalli","pinCode":"635211","city":"Dharmapuri","district":"Dharmapuri","state":"Tamil Nadu"},{"pinCodeSeq":6898,"postOfficeName":"Irumathur","pinCode":"635212","city":"Dharmapuri","district":"Dharmapuri","state":"Tamil Nadu"},{"pinCodeSeq":6899,"postOfficeName":"Bommidi","pinCode":"635301","city":"Dharmapuri","district":"Dharmapuri","state":"Tamil Nadu"},{"pinCodeSeq":6900,"postOfficeName":"Buddireddipatti","pinCode":"635302","city":"Dharmapuri","district":"Dharmapuri","state":"Tamil Nadu"},{"pinCodeSeq":6902,"postOfficeName":"Kallavi","pinCode":"635304","city":"Dharmapuri","district":"Dharmapuri","state":"Tamil Nadu"},{"pinCodeSeq":6903,"postOfficeName":"Morappur","pinCode":"635305","city":"Dharmapuri","district":"Dharmapuri","state":"Tamil Nadu"},{"pinCodeSeq":6904,"postOfficeName":"Samalpatti R S","pinCode":"635306","city":"Dharmapuri","district":"Dharmapuri","state":"Tamil Nadu"},{"pinCodeSeq":6905,"postOfficeName":"Singarapettai","pinCode":"635307","city":"Dharmapuri","district":"Dharmapuri","state":"Tamil Nadu"},{"pinCodeSeq":6906,"postOfficeName":"Bairanatham Pallipatti","pinCode":"635308","city":"Dharmapuri","district":"Dharmapuri","state":"Tamil Nadu"},{"pinCodeSeq":6907,"postOfficeName":"Periathallapadi","pinCode":"635309","city":"Dharmapuri","district":"Dharmapuri","state":"Tamil Nadu"},{"pinCodeSeq":6908,"postOfficeName":"Thalanatham","pinCode":"635310","city":"Dharmapuri","district":"Dharmapuri","state":"Tamil Nadu"},{"pinCodeSeq":6909,"postOfficeName":"Ramanahalli","pinCode":"635311","city":"Dharmapuri","district":"Dharmapuri","state":"Tamil Nadu"},{"pinCodeSeq":6910,"postOfficeName":"Mottankurichi","pinCode":"635312","city":"Dharmapuri","district":"Dharmapuri","state":"Tamil Nadu"},{"pinCodeSeq":6911,"postOfficeName":"Chintalapadi","pinCode":"635313","city":"Dharmapuri","district":"Dharmapuri","state":"Tamil Nadu"},{"pinCodeSeq":6912,"postOfficeName":"Cutcherrustreet","pinCode":"635601","city":"Dharmapuri","district":"Dharmapuri","state":"Tamil Nadu"},{"pinCodeSeq":6913,"postOfficeName":"Gandhipet","pinCode":"635601","city":"Dharmapuri","district":"Dharmapuri","state":"Tamil Nadu"},{"pinCodeSeq":6914,"postOfficeName":"Tirupattur Extension","pinCode":"635601","city":"Dharmapuri","district":"Dharmapuri","state":"Tamil Nadu"},{"pinCodeSeq":6915,"postOfficeName":"Tiruppattur H O N A","pinCode":"635601","city":"Dharmapuri","district":"Dharmapuri","state":"Tamil Nadu"},{"pinCodeSeq":6917,"postOfficeName":"Korathi","pinCode":"635611","city":"Dharmapuri","district":"Dharmapuri","state":"Tamil Nadu"},{"pinCodeSeq":6925,"postOfficeName":"Puthugaram","pinCode":"635659","city":"Dharmapuri","district":"Dharmapuri","state":"Tamil Nadu"},{"pinCodeSeq":6926,"postOfficeName":"Bommikuppam","pinCode":"635660","city":"Dharmapuri","district":"Dharmapuri","state":"Tamil Nadu"},{"pinCodeSeq":6928,"postOfficeName":"Sevathur","pinCode":"635662","city":"Dharmapuri","district":"Dharmapuri","state":"Tamil Nadu"},{"pinCodeSeq":6932,"postOfficeName":"Kavalur","pinCode":"635704","city":"Dharmapuri","district":"Dharmapuri","state":"Tamil Nadu"},{"pinCodeSeq":6933,"postOfficeName":"Irunapattu","pinCode":"635705","city":"Dharmapuri","district":"Dharmapuri","state":"Tamil Nadu"},{"pinCodeSeq":6934,"postOfficeName":"Kurusilapattu","pinCode":"635706","city":"Dharmapuri","district":"Dharmapuri","state":"Tamil Nadu"},{"pinCodeSeq":6935,"postOfficeName":"Poongulam","pinCode":"635707","city":"Dharmapuri","district":"Dharmapuri","state":"Tamil Nadu"},{"pinCodeSeq":6936,"postOfficeName":"Nachiarkuppam","pinCode":"635708","city":"Dharmapuri","district":"Dharmapuri","state":"Tamil Nadu"},{"pinCodeSeq":6937,"postOfficeName":"Perumapattu","pinCode":"635709","city":"Dharmapuri","district":"Dharmapuri","state":"Tamil Nadu"},{"pinCodeSeq":6944,"postOfficeName":"Jaffarabad","pinCode":"635754","city":"Dharmapuri","district":"Dharmapuri","state":"Tamil Nadu"},{"pinCodeSeq":6945,"postOfficeName":"Udayandiram","pinCode":"635755","city":"Dharmapuri","district":"Dharmapuri","state":"Tamil Nadu"},{"pinCodeSeq":6947,"postOfficeName":"Kothakottai","pinCode":"635757","city":"Dharmapuri","district":"Dharmapuri","state":"Tamil Nadu"},{"pinCodeSeq":6948,"postOfficeName":"Kalendra","pinCode":"635758","city":"Dharmapuri","district":"Dharmapuri","state":"Tamil Nadu"},{"pinCodeSeq":6966,"postOfficeName":"Agaram","pinCode":"635816","city":"Dharmapuri","district":"Dharmapuri","state":"Tamil Nadu"},{"pinCodeSeq":6967,"postOfficeName":"Valayakarapatti","pinCode":"635817","city":"Dharmapuri","district":"Dharmapuri","state":"Tamil Nadu"},{"pinCodeSeq":6968,"postOfficeName":"Kottur","pinCode":"635818","city":"Dharmapuri","district":"Dharmapuri","state":"Tamil Nadu"},{"pinCodeSeq":6970,"postOfficeName":"Kethandapatti","pinCode":"635820","city":"Dharmapuri","district":"Dharmapuri","state":"Tamil Nadu"},{"pinCodeSeq":6971,"postOfficeName":"Vinnamangalam","pinCode":"635821","city":"Dharmapuri","district":"Dharmapuri","state":"Tamil Nadu"},{"pinCodeSeq":6972,"postOfficeName":"Vadakkupattu Na","pinCode":"635822","city":"Dharmapuri","district":"Dharmapuri","state":"Tamil Nadu"},{"pinCodeSeq":6973,"postOfficeName":"Alasandapuram","pinCode":"635823","city":"Dharmapuri","district":"Dharmapuri","state":"Tamil Nadu"},{"pinCodeSeq":6974,"postOfficeName":"Ramanaickenpettai","pinCode":"635824","city":"Dharmapuri","district":"Dharmapuri","state":"Tamil Nadu"},{"pinCodeSeq":6975,"postOfficeName":"Kilmurungai","pinCode":"635825","city":"Dharmapuri","district":"Dharmapuri","state":"Tamil Nadu"},{"pinCodeSeq":6976,"postOfficeName":"Agaramcherry","pinCode":"635826","city":"Dharmapuri","district":"Dharmapuri","state":"Tamil Nadu"},{"pinCodeSeq":6980,"postOfficeName":"Yelagiri Hills","pinCode":"635855","city":"Dharmapuri","district":"Dharmapuri","state":"Tamil Nadu"},{"pinCodeSeq":6982,"postOfficeName":"Athurukuppam","pinCode":"635857","city":"Dharmapuri","district":"Dharmapuri","state":"Tamil Nadu"},{"pinCodeSeq":7104,"postOfficeName":"Appavoo Nagar","pinCode":"636701","city":"Dharmapuri","district":"Dharmapuri","state":"Tamil Nadu"},{"pinCodeSeq":7105,"postOfficeName":"Dharmapuri Bus Stand","pinCode":"636701","city":"Dharmapuri","district":"Dharmapuri","state":"Tamil Nadu"},{"pinCodeSeq":7106,"postOfficeName":"Dharmapuri H O","pinCode":"636701","city":"Dharmapuri","district":"Dharmapuri","state":"Tamil Nadu"},{"pinCodeSeq":7107,"postOfficeName":"Dharmapuri Public Office","pinCode":"636701","city":"Dharmapuri","district":"Dharmapuri","state":"Tamil Nadu"},{"pinCodeSeq":7108,"postOfficeName":"Dharmapuri R S","pinCode":"636701","city":"Dharmapuri","district":"Dharmapuri","state":"Tamil Nadu"},{"pinCodeSeq":7109,"postOfficeName":"Dharmapuri Bazaar","pinCode":"636702","city":"Dharmapuri","district":"Dharmapuri","state":"Tamil Nadu"},{"pinCodeSeq":7110,"postOfficeName":"Dharmapuri Fort","pinCode":"636702","city":"Dharmapuri","district":"Dharmapuri","state":"Tamil Nadu"},{"pinCodeSeq":7111,"postOfficeName":"Dharmapuri South","pinCode":"636702","city":"Dharmapuri","district":"Dharmapuri","state":"Tamil Nadu"},{"pinCodeSeq":7112,"postOfficeName":"Komarasamipatti","pinCode":"636703","city":"Dharmapuri","district":"Dharmapuri","state":"Tamil Nadu"},{"pinCodeSeq":7113,"postOfficeName":"Annasagaram","pinCode":"636704","city":"Dharmapuri","district":"Dharmapuri","state":"Tamil Nadu"},{"pinCodeSeq":7114,"postOfficeName":"Dharmapuri Collectorate","pinCode":"636705","city":"Dharmapuri","district":"Dharmapuri","state":"Tamil Nadu"},{"pinCodeSeq":7115,"postOfficeName":"Venkatanahalli","pinCode":"636751","city":"Dharmapuri","district":"Dharmapuri","state":"Tamil Nadu"},{"pinCodeSeq":7116,"postOfficeName":"Hanumanthapuram","pinCode":"636802","city":"Dharmapuri","district":"Dharmapuri","state":"Tamil Nadu"},{"pinCodeSeq":7118,"postOfficeName":"Indur","pinCode":"636803","city":"Dharmapuri","district":"Dharmapuri","state":"Tamil Nadu"},{"pinCodeSeq":7119,"postOfficeName":"Laligam","pinCode":"636804","city":"Dharmapuri","district":"Dharmapuri","state":"Tamil Nadu"},{"pinCodeSeq":7120,"postOfficeName":"Mallupatti","pinCode":"636805","city":"Dharmapuri","district":"Dharmapuri","state":"Tamil Nadu"},{"pinCodeSeq":7124,"postOfficeName":"Pauparapatti","pinCode":"636809","city":"Dharmapuri","district":"Dharmapuri","state":"Tamil Nadu"},{"pinCodeSeq":7126,"postOfficeName":"Perumbalai","pinCode":"636811","city":"Dharmapuri","district":"Dharmapuri","state":"Tamil Nadu"},{"pinCodeSeq":7127,"postOfficeName":"Panjapalli","pinCode":"636812","city":"Dharmapuri","district":"Dharmapuri","state":"Tamil Nadu"},{"pinCodeSeq":7128,"postOfficeName":"Biliyanur Agraharam","pinCode":"636813","city":"Dharmapuri","district":"Dharmapuri","state":"Tamil Nadu"},{"pinCodeSeq":7130,"postOfficeName":"Sunchalnatham","pinCode":"636816","city":"Dharmapuri","district":"Dharmapuri","state":"Tamil Nadu"},{"pinCodeSeq":7131,"postOfficeName":"Manyadahalli","pinCode":"636821","city":"Dharmapuri","district":"Dharmapuri","state":"Tamil Nadu"},{"pinCodeSeq":7134,"postOfficeName":"Menisi","pinCode":"636904","city":"Dharmapuri","district":"Dharmapuri","state":"Tamil Nadu"},{"pinCodeSeq":7137,"postOfficeName":"Harur Bazaar","pinCode":"636908","city":"Dharmapuri","district":"Dharmapuri","state":"Tamil Nadu"},{"pinCodeSeq":7138,"postOfficeName":"Thenkarai Kottar","pinCode":"636915","city":"Dharmapuri","district":"Dharmapuri","state":"Tamil Nadu"}]