[{"pinCodeSeq":5628,"postOfficeName":"Dindigul Bazar","pinCode":"624001","city":"Dindigul","district":"Dindigul","state":"Tamil Nadu"},{"pinCodeSeq":5629,"postOfficeName":"Dindigul Fort Bus Stand","pinCode":"624001","city":"Dindigul","district":"Dindigul","state":"Tamil Nadu"},{"pinCodeSeq":5630,"postOfficeName":"Dindigul H O","pinCode":"624001","city":"Dindigul","district":"Dindigul","state":"Tamil Nadu"},{"pinCodeSeq":5631,"postOfficeName":"Dindigul South","pinCode":"624001","city":"Dindigul","district":"Dindigul","state":"Tamil Nadu"},{"pinCodeSeq":5632,"postOfficeName":"Dindigul West","pinCode":"624001","city":"Dindigul","district":"Dindigul","state":"Tamil Nadu"},{"pinCodeSeq":5633,"postOfficeName":"Mangles Road","pinCode":"624001","city":"Dindigul","district":"Dindigul","state":"Tamil Nadu"},{"pinCodeSeq":5634,"postOfficeName":"Begampur","pinCode":"624002","city":"Dindigul","district":"Dindigul","state":"Tamil Nadu"},{"pinCodeSeq":5635,"postOfficeName":"Bharathipuram","pinCode":"624003","city":"Dindigul","district":"Dindigul","state":"Tamil Nadu"},{"pinCodeSeq":5636,"postOfficeName":"Dindigul Rs","pinCode":"624003","city":"Dindigul","district":"Dindigul","state":"Tamil Nadu"},{"pinCodeSeq":5637,"postOfficeName":"Dindigul Santhapettai","pinCode":"624003","city":"Dindigul","district":"Dindigul","state":"Tamil Nadu"},{"pinCodeSeq":5638,"postOfficeName":"Nagalnagar","pinCode":"624003","city":"Dindigul","district":"Dindigul","state":"Tamil Nadu"},{"pinCodeSeq":5639,"postOfficeName":"Beschi College","pinCode":"624004","city":"Dindigul","district":"Dindigul","state":"Tamil Nadu"},{"pinCodeSeq":5640,"postOfficeName":"Balakrishnapurampudur","pinCode":"624005","city":"Dindigul","district":"Dindigul","state":"Tamil Nadu"},{"pinCodeSeq":5641,"postOfficeName":"Dindigul East","pinCode":"624006","city":"Dindigul","district":"Dindigul","state":"Tamil Nadu"},{"pinCodeSeq":5642,"postOfficeName":"Pandianagar","pinCode":"624007","city":"Dindigul","district":"Dindigul","state":"Tamil Nadu"},{"pinCodeSeq":5643,"postOfficeName":"Angu Nagar","pinCode":"624008","city":"Dindigul","district":"Dindigul","state":"Tamil Nadu"},{"pinCodeSeq":5644,"postOfficeName":"N G O Colony Dindigul","pinCode":"624009","city":"Dindigul","district":"Dindigul","state":"Tamil Nadu"},{"pinCodeSeq":5645,"postOfficeName":"Dindigul Fort","pinCode":"624010","city":"Dindigul","district":"Dindigul","state":"Tamil Nadu"},{"pinCodeSeq":5646,"postOfficeName":"Pambarpuram","pinCode":"624010","city":"Dindigul","district":"Dindigul","state":"Tamil Nadu"},{"pinCodeSeq":5647,"postOfficeName":"Koovanuthu","pinCode":"624051","city":"Dindigul","district":"Dindigul","state":"Tamil Nadu"},{"pinCodeSeq":5648,"postOfficeName":"Padiyur","pinCode":"624052","city":"Dindigul","district":"Dindigul","state":"Tamil Nadu"},{"pinCodeSeq":5649,"postOfficeName":"Kulathur Dindigul","pinCode":"624053","city":"Dindigul","district":"Dindigul","state":"Tamil Nadu"},{"pinCodeSeq":5650,"postOfficeName":"Hanumantharayankottai","pinCode":"624054","city":"Dindigul","district":"Dindigul","state":"Tamil Nadu"},{"pinCodeSeq":5652,"postOfficeName":"Kodaikanal Lak View","pinCode":"624101","city":"Dindigul","district":"Dindigul","state":"Tamil Nadu"},{"pinCodeSeq":5653,"postOfficeName":"Anandagiri","pinCode":"624102","city":"Dindigul","district":"Dindigul","state":"Tamil Nadu"},{"pinCodeSeq":5654,"postOfficeName":"Kodaikanal Observatory","pinCode":"624103","city":"Dindigul","district":"Dindigul","state":"Tamil Nadu"},{"pinCodeSeq":5655,"postOfficeName":"Shenbaganur","pinCode":"624104","city":"Dindigul","district":"Dindigul","state":"Tamil Nadu"},{"pinCodeSeq":5656,"postOfficeName":"Vilpatti","pinCode":"624107","city":"Dindigul","district":"Dindigul","state":"Tamil Nadu"},{"pinCodeSeq":5657,"postOfficeName":"Perumalmalai","pinCode":"624108","city":"Dindigul","district":"Dindigul","state":"Tamil Nadu"},{"pinCodeSeq":5658,"postOfficeName":"Ammayanayakkanur","pinCode":"624201","city":"Dindigul","district":"Dindigul","state":"Tamil Nadu"},{"pinCodeSeq":5660,"postOfficeName":"Batlagundu Bazaar","pinCode":"624202","city":"Dindigul","district":"Dindigul","state":"Tamil Nadu"},{"pinCodeSeq":5661,"postOfficeName":"Genguvarpatti","pinCode":"624203","city":"Dindigul","district":"Dindigul","state":"Tamil Nadu"},{"pinCodeSeq":5662,"postOfficeName":"Iyyampalayam","pinCode":"624204","city":"Dindigul","district":"Dindigul","state":"Tamil Nadu"},{"pinCodeSeq":5663,"postOfficeName":"Karupatti","pinCode":"624205","city":"Dindigul","district":"Dindigul","state":"Tamil Nadu"},{"pinCodeSeq":5664,"postOfficeName":"Mullipallam","pinCode":"624207","city":"Dindigul","district":"Dindigul","state":"Tamil Nadu"},{"pinCodeSeq":5665,"postOfficeName":"Nilakottai","pinCode":"624208","city":"Dindigul","district":"Dindigul","state":"Tamil Nadu"},{"pinCodeSeq":5666,"postOfficeName":"Nilakottai Bazaar","pinCode":"624208","city":"Dindigul","district":"Dindigul","state":"Tamil Nadu"},{"pinCodeSeq":5667,"postOfficeName":"Pandiarajapuram","pinCode":"624209","city":"Dindigul","district":"Dindigul","state":"Tamil Nadu"},{"pinCodeSeq":5669,"postOfficeName":"Pattiveerampatti","pinCode":"624211","city":"Dindigul","district":"Dindigul","state":"Tamil Nadu"},{"pinCodeSeq":5670,"postOfficeName":"Perumbarai","pinCode":"624212","city":"Dindigul","district":"Dindigul","state":"Tamil Nadu"},{"pinCodeSeq":5671,"postOfficeName":"Ramarajapuram","pinCode":"624213","city":"Dindigul","district":"Dindigul","state":"Tamil Nadu"},{"pinCodeSeq":5672,"postOfficeName":"Sholabvandan South","pinCode":"624214","city":"Dindigul","district":"Dindigul","state":"Tamil Nadu"},{"pinCodeSeq":5673,"postOfficeName":"Sholavandan Bazaar","pinCode":"624214","city":"Dindigul","district":"Dindigul","state":"Tamil Nadu"},{"pinCodeSeq":5674,"postOfficeName":"Sholavandan H O","pinCode":"624214","city":"Dindigul","district":"Dindigul","state":"Tamil Nadu"},{"pinCodeSeq":5676,"postOfficeName":"Tandigudi","pinCode":"624216","city":"Dindigul","district":"Dindigul","state":"Tamil Nadu"},{"pinCodeSeq":5677,"postOfficeName":"Tiruvedagam West","pinCode":"624217","city":"Dindigul","district":"Dindigul","state":"Tamil Nadu"},{"pinCodeSeq":5679,"postOfficeName":"Vilampatti","pinCode":"624219","city":"Dindigul","district":"Dindigul","state":"Tamil Nadu"},{"pinCodeSeq":5680,"postOfficeName":"Viruvedu","pinCode":"624220","city":"Dindigul","district":"Dindigul","state":"Tamil Nadu"},{"pinCodeSeq":5681,"postOfficeName":"Tanichiyam","pinCode":"624221","city":"Dindigul","district":"Dindigul","state":"Tamil Nadu"},{"pinCodeSeq":5682,"postOfficeName":"Thuvariman","pinCode":"624222","city":"Dindigul","district":"Dindigul","state":"Tamil Nadu"},{"pinCodeSeq":5683,"postOfficeName":"Mannadimangalam","pinCode":"624223","city":"Dindigul","district":"Dindigul","state":"Tamil Nadu"},{"pinCodeSeq":5687,"postOfficeName":"Nachikulam","pinCode":"624227","city":"Dindigul","district":"Dindigul","state":"Tamil Nadu"},{"pinCodeSeq":5688,"postOfficeName":"Sitharevu","pinCode":"624228","city":"Dindigul","district":"Dindigul","state":"Tamil Nadu"},{"pinCodeSeq":5689,"postOfficeName":"K C Patti","pinCode":"624230","city":"Dindigul","district":"Dindigul","state":"Tamil Nadu"},{"pinCodeSeq":5690,"postOfficeName":"Kullalagundu","pinCode":"624231","city":"Dindigul","district":"Dindigul","state":"Tamil Nadu"},{"pinCodeSeq":5691,"postOfficeName":"Vikramangalam","pinCode":"624232","city":"Dindigul","district":"Dindigul","state":"Tamil Nadu"},{"pinCodeSeq":5693,"postOfficeName":"Tiruvedagam","pinCode":"624234","city":"Dindigul","district":"Dindigul","state":"Tamil Nadu"},{"pinCodeSeq":5694,"postOfficeName":"Kuppammalpatti","pinCode":"624235","city":"Dindigul","district":"Dindigul","state":"Tamil Nadu"},{"pinCodeSeq":5696,"postOfficeName":"Gandhi Gram","pinCode":"624302","city":"Dindigul","district":"Dindigul","state":"Tamil Nadu"},{"pinCodeSeq":5697,"postOfficeName":"N Panjampatti","pinCode":"624303","city":"Dindigul","district":"Dindigul","state":"Tamil Nadu"},{"pinCodeSeq":5698,"postOfficeName":"Sanarpatti","pinCode":"624304","city":"Dindigul","district":"Dindigul","state":"Tamil Nadu"},{"pinCodeSeq":5699,"postOfficeName":"Settinayakkanpatti","pinCode":"624305","city":"Dindigul","district":"Dindigul","state":"Tamil Nadu"},{"pinCodeSeq":5700,"postOfficeName":"Siluvathur","pinCode":"624306","city":"Dindigul","district":"Dindigul","state":"Tamil Nadu"},{"pinCodeSeq":5701,"postOfficeName":"Vellodu","pinCode":"624307","city":"Dindigul","district":"Dindigul","state":"Tamil Nadu"},{"pinCodeSeq":5702,"postOfficeName":"Vembarpatti","pinCode":"624308","city":"Dindigul","district":"Dindigul","state":"Tamil Nadu"},{"pinCodeSeq":5703,"postOfficeName":"Ambathurai R S","pinCode":"624309","city":"Dindigul","district":"Dindigul","state":"Tamil Nadu"},{"pinCodeSeq":5704,"postOfficeName":"Silaipadi","pinCode":"624310","city":"Dindigul","district":"Dindigul","state":"Tamil Nadu"},{"pinCodeSeq":5705,"postOfficeName":"Ambathurai","pinCode":"624311","city":"Dindigul","district":"Dindigul","state":"Tamil Nadu"},{"pinCodeSeq":5706,"postOfficeName":"Samiyarpatti","pinCode":"624312","city":"Dindigul","district":"Dindigul","state":"Tamil Nadu"},{"pinCodeSeq":5707,"postOfficeName":"Kambilianpatti","pinCode":"624313","city":"Dindigul","district":"Dindigul","state":"Tamil Nadu"},{"pinCodeSeq":5708,"postOfficeName":"Chettiapatti","pinCode":"624314","city":"Dindigul","district":"Dindigul","state":"Tamil Nadu"},{"pinCodeSeq":5709,"postOfficeName":"Perumalkovilpatti","pinCode":"624315","city":"Dindigul","district":"Dindigul","state":"Tamil Nadu"},{"pinCodeSeq":5710,"postOfficeName":"Rajakkapatti","pinCode":"624316","city":"Dindigul","district":"Dindigul","state":"Tamil Nadu"},{"pinCodeSeq":5711,"postOfficeName":"Periyakottai","pinCode":"624317","city":"Dindigul","district":"Dindigul","state":"Tamil Nadu"},{"pinCodeSeq":5712,"postOfficeName":"Ragalapuram","pinCode":"624318","city":"Dindigul","district":"Dindigul","state":"Tamil Nadu"},{"pinCodeSeq":5720,"postOfficeName":"Prianmalai","pinCode":"624503","city":"Dindigul","district":"Dindigul","state":"Tamil Nadu"},{"pinCodeSeq":5721,"postOfficeName":"Kirungakottai","pinCode":"624504","city":"Dindigul","district":"Dindigul","state":"Tamil Nadu"},{"pinCodeSeq":5723,"postOfficeName":"Suraikudi","pinCode":"624506","city":"Dindigul","district":"Dindigul","state":"Tamil Nadu"},{"pinCodeSeq":5724,"postOfficeName":"Kallappur","pinCode":"624507","city":"Dindigul","district":"Dindigul","state":"Tamil Nadu"},{"pinCodeSeq":5725,"postOfficeName":"Palani Adviaram","pinCode":"624601","city":"Dindigul","district":"Dindigul","state":"Tamil Nadu"},{"pinCodeSeq":5726,"postOfficeName":"Palani Bazaar","pinCode":"624601","city":"Dindigul","district":"Dindigul","state":"Tamil Nadu"},{"pinCodeSeq":5727,"postOfficeName":"Palani Devasthanam","pinCode":"624601","city":"Dindigul","district":"Dindigul","state":"Tamil Nadu"},{"pinCodeSeq":5728,"postOfficeName":"Palani East","pinCode":"624601","city":"Dindigul","district":"Dindigul","state":"Tamil Nadu"},{"pinCodeSeq":5729,"postOfficeName":"Palani H O","pinCode":"624601","city":"Dindigul","district":"Dindigul","state":"Tamil Nadu"},{"pinCodeSeq":5730,"postOfficeName":"Palani North","pinCode":"624601","city":"Dindigul","district":"Dindigul","state":"Tamil Nadu"},{"pinCodeSeq":5731,"postOfficeName":"Palani West","pinCode":"624601","city":"Dindigul","district":"Dindigul","state":"Tamil Nadu"},{"pinCodeSeq":5732,"postOfficeName":"Balasamudram","pinCode":"624610","city":"Dindigul","district":"Dindigul","state":"Tamil Nadu"},{"pinCodeSeq":5734,"postOfficeName":"Ambilikai","pinCode":"624612","city":"Dindigul","district":"Dindigul","state":"Tamil Nadu"},{"pinCodeSeq":5736,"postOfficeName":"Chatrapatti Palani","pinCode":"624614","city":"Dindigul","district":"Dindigul","state":"Tamil Nadu"},{"pinCodeSeq":5737,"postOfficeName":"Kalayamputhur","pinCode":"624615","city":"Dindigul","district":"Dindigul","state":"Tamil Nadu"},{"pinCodeSeq":5738,"postOfficeName":"Kallimandiyam","pinCode":"624616","city":"Dindigul","district":"Dindigul","state":"Tamil Nadu"},{"pinCodeSeq":5739,"postOfficeName":"Keeranur Madurai","pinCode":"624617","city":"Dindigul","district":"Dindigul","state":"Tamil Nadu"},{"pinCodeSeq":5740,"postOfficeName":"Narikalpatti","pinCode":"624618","city":"Dindigul","district":"Dindigul","state":"Tamil Nadu"},{"pinCodeSeq":5744,"postOfficeName":"Pappampatti","pinCode":"624621","city":"Dindigul","district":"Dindigul","state":"Tamil Nadu"},{"pinCodeSeq":5745,"postOfficeName":"Reddiarchatram","pinCode":"624622","city":"Dindigul","district":"Dindigul","state":"Tamil Nadu"},{"pinCodeSeq":5746,"postOfficeName":"Manjanaickenpatti","pinCode":"624623","city":"Dindigul","district":"Dindigul","state":"Tamil Nadu"},{"pinCodeSeq":5747,"postOfficeName":"Palakkanuthu","pinCode":"624624","city":"Dindigul","district":"Dindigul","state":"Tamil Nadu"},{"pinCodeSeq":5748,"postOfficeName":"K Keeranur","pinCode":"624625","city":"Dindigul","district":"Dindigul","state":"Tamil Nadu"},{"pinCodeSeq":5749,"postOfficeName":"Perichipalayam","pinCode":"624626","city":"Dindigul","district":"Dindigul","state":"Tamil Nadu"},{"pinCodeSeq":5750,"postOfficeName":"Amarapundi","pinCode":"624627","city":"Dindigul","district":"Dindigul","state":"Tamil Nadu"},{"pinCodeSeq":5751,"postOfficeName":"Virupatchi","pinCode":"624628","city":"Dindigul","district":"Dindigul","state":"Tamil Nadu"},{"pinCodeSeq":5752,"postOfficeName":"Ahtoor","pinCode":"624701","city":"Dindigul","district":"Dindigul","state":"Tamil Nadu"},{"pinCodeSeq":5753,"postOfficeName":"Eriyodu","pinCode":"624702","city":"Dindigul","district":"Dindigul","state":"Tamil Nadu"},{"pinCodeSeq":5754,"postOfficeName":"Guziliamparai","pinCode":"624703","city":"Dindigul","district":"Dindigul","state":"Tamil Nadu"},{"pinCodeSeq":5755,"postOfficeName":"Idayakottai","pinCode":"624704","city":"Dindigul","district":"Dindigul","state":"Tamil Nadu"},{"pinCodeSeq":5757,"postOfficeName":"Kovilur Madurai","pinCode":"624706","city":"Dindigul","district":"Dindigul","state":"Tamil Nadu"},{"pinCodeSeq":5758,"postOfficeName":"Sembatti","pinCode":"624707","city":"Dindigul","district":"Dindigul","state":"Tamil Nadu"},{"pinCodeSeq":5760,"postOfficeName":"Tadicombu","pinCode":"624709","city":"Dindigul","district":"Dindigul","state":"Tamil Nadu"},{"pinCodeSeq":5762,"postOfficeName":"Kasipalayam Madurai","pinCode":"624711","city":"Dindigul","district":"Dindigul","state":"Tamil Nadu"},{"pinCodeSeq":5763,"postOfficeName":"Markampatti","pinCode":"624712","city":"Dindigul","district":"Dindigul","state":"Tamil Nadu"},{"pinCodeSeq":5764,"postOfficeName":"Tettupatti","pinCode":"624713","city":"Dindigul","district":"Dindigul","state":"Tamil Nadu"},{"pinCodeSeq":5765,"postOfficeName":"Dharmathupatti","pinCode":"624714","city":"Dindigul","district":"Dindigul","state":"Tamil Nadu"},{"pinCodeSeq":5769,"postOfficeName":"Sengurichi","pinCode":"624804","city":"Dindigul","district":"Dindigul","state":"Tamil Nadu"},{"pinCodeSeq":5887,"postOfficeName":"Mettupatti Madurai","pinCode":"625502","city":"Dindigul","district":"Dindigul","state":"Tamil Nadu"}]