[{"pinCodeSeq":5733,"postOfficeName":"Thoppampatti","pinCode":"624611","city":"Erode","district":"Erode","state":"Tamil Nadu"},{"pinCodeSeq":6938,"postOfficeName":"Govindapuram","pinCode":"635751","city":"Erode","district":"Erode","state":"Tamil Nadu"},{"pinCodeSeq":7240,"postOfficeName":"Mambadi","pinCode":"638102","city":"Erode","district":"Erode","state":"Tamil Nadu"},{"pinCodeSeq":7257,"postOfficeName":"Chinnamarudur","pinCode":"638130","city":"Erode","district":"Erode","state":"Tamil Nadu"},{"pinCodeSeq":7274,"postOfficeName":"Bhavani H O","pinCode":"638301","city":"Erode","district":"Erode","state":"Tamil Nadu"},{"pinCodeSeq":7285,"postOfficeName":"Singampettai","pinCode":"638324","city":"Erode","district":"Erode","state":"Tamil Nadu"},{"pinCodeSeq":7338,"postOfficeName":"Dharapuram H O","pinCode":"638656","city":"Erode","district":"Erode","state":"Tamil Nadu"},{"pinCodeSeq":7339,"postOfficeName":"Ellisnagar","pinCode":"638657","city":"Erode","district":"Erode","state":"Tamil Nadu"},{"pinCodeSeq":7365,"postOfficeName":"Sankarandampalayam","pinCode":"638706","city":"Erode","district":"Erode","state":"Tamil Nadu"},{"pinCodeSeq":7412,"postOfficeName":"Nanjaithalaiyur","pinCode":"639204","city":"Erode","district":"Erode","state":"Tamil Nadu"}]