[{"pinCodeSeq":4255,"postOfficeName":"Perumbedu","pinCode":"601210","city":"Kancheepuram","district":"Kancheepuram","state":"Tamil Nadu"},{"pinCodeSeq":4307,"postOfficeName":"Chengalpattu Bazaar","pinCode":"603002","city":"Kancheepuram","district":"Kancheepuram","state":"Tamil Nadu"},{"pinCodeSeq":4308,"postOfficeName":"Chengalpattu Bus Stand","pinCode":"603002","city":"Kancheepuram","district":"Kancheepuram","state":"Tamil Nadu"},{"pinCodeSeq":4309,"postOfficeName":"Chengalpattu Cutcherry","pinCode":"603002","city":"Kancheepuram","district":"Kancheepuram","state":"Tamil Nadu"},{"pinCodeSeq":4334,"postOfficeName":"Palur","pinCode":"603118","city":"Kancheepuram","district":"Kancheepuram","state":"Tamil Nadu"},{"pinCodeSeq":4355,"postOfficeName":"Polambakkam","pinCode":"603309","city":"Kancheepuram","district":"Kancheepuram","state":"Tamil Nadu"},{"pinCodeSeq":4364,"postOfficeName":"Seevadi","pinCode":"603318","city":"Kancheepuram","district":"Kancheepuram","state":"Tamil Nadu"},{"pinCodeSeq":4367,"postOfficeName":"Chunampet","pinCode":"603401","city":"Kancheepuram","district":"Kancheepuram","state":"Tamil Nadu"},{"pinCodeSeq":4611,"postOfficeName":"Palur","pinCode":"607113","city":"Kancheepuram","district":"Kancheepuram","state":"Tamil Nadu"},{"pinCodeSeq":6676,"postOfficeName":"Perambakkam","pinCode":"631402","city":"Kancheepuram","district":"Kancheepuram","state":"Tamil Nadu"},{"pinCodeSeq":7258,"postOfficeName":"Karuppur","pinCode":"638148","city":"Kancheepuram","district":"Kancheepuram","state":"Tamil Nadu"}]