[{"pinCodeSeq":6504,"postOfficeName":"C B Hospital","pinCode":"629001","city":"Kanyakumari","district":"Kanyakumari","state":"Tamil Nadu"},{"pinCodeSeq":6505,"postOfficeName":"Krishnancoil","pinCode":"629001","city":"Kanyakumari","district":"Kanyakumari","state":"Tamil Nadu"},{"pinCodeSeq":6506,"postOfficeName":"Lagancherry","pinCode":"629001","city":"Kanyakumari","district":"Kanyakumari","state":"Tamil Nadu"},{"pinCodeSeq":6507,"postOfficeName":"Nagercoil Bazaar","pinCode":"629001","city":"Kanyakumari","district":"Kanyakumari","state":"Tamil Nadu"},{"pinCodeSeq":6508,"postOfficeName":"Nagercoil Collectorate","pinCode":"629001","city":"Kanyakumari","district":"Kanyakumari","state":"Tamil Nadu"},{"pinCodeSeq":6509,"postOfficeName":"Nagercoil H O","pinCode":"629001","city":"Kanyakumari","district":"Kanyakumari","state":"Tamil Nadu"},{"pinCodeSeq":6510,"postOfficeName":"Nagercoil Town","pinCode":"629001","city":"Kanyakumari","district":"Kanyakumari","state":"Tamil Nadu"},{"pinCodeSeq":6511,"postOfficeName":"Nagercoil West","pinCode":"629001","city":"Kanyakumari","district":"Kanyakumari","state":"Tamil Nadu"},{"pinCodeSeq":6512,"postOfficeName":"Nesamany Nagar","pinCode":"629001","city":"Kanyakumari","district":"Kanyakumari","state":"Tamil Nadu"},{"pinCodeSeq":6513,"postOfficeName":"Vadaserry","pinCode":"629001","city":"Kanyakumari","district":"Kanyakumari","state":"Tamil Nadu"},{"pinCodeSeq":6514,"postOfficeName":"Irulappapuram","pinCode":"629002","city":"Kanyakumari","district":"Kanyakumari","state":"Tamil Nadu"},{"pinCodeSeq":6515,"postOfficeName":"Kottar","pinCode":"629002","city":"Kanyakumari","district":"Kanyakumari","state":"Tamil Nadu"},{"pinCodeSeq":6516,"postOfficeName":"Maravankudiyiruppu","pinCode":"629002","city":"Kanyakumari","district":"Kanyakumari","state":"Tamil Nadu"},{"pinCodeSeq":6517,"postOfficeName":"Nagercoil Ind Estate","pinCode":"629002","city":"Kanyakumari","district":"Kanyakumari","state":"Tamil Nadu"},{"pinCodeSeq":6518,"postOfficeName":"Vadiveeswaram","pinCode":"629002","city":"Kanyakumari","district":"Kanyakumari","state":"Tamil Nadu"},{"pinCodeSeq":6519,"postOfficeName":"Vetturanimadam","pinCode":"629003","city":"Kanyakumari","district":"Kanyakumari","state":"Tamil Nadu"},{"pinCodeSeq":6520,"postOfficeName":"Nagercoil Ind Estate","pinCode":"629004","city":"Kanyakumari","district":"Kanyakumari","state":"Tamil Nadu"},{"pinCodeSeq":6521,"postOfficeName":"Edalakudi","pinCode":"629051","city":"Kanyakumari","district":"Kanyakumari","state":"Tamil Nadu"},{"pinCodeSeq":6522,"postOfficeName":"Kaliyal","pinCode":"629101","city":"Kanyakumari","district":"Kanyakumari","state":"Tamil Nadu"},{"pinCodeSeq":6523,"postOfficeName":"Kodayar Kilthangal","pinCode":"629102","city":"Kanyakumari","district":"Kanyakumari","state":"Tamil Nadu"},{"pinCodeSeq":6525,"postOfficeName":"Arumana","pinCode":"629151","city":"Kanyakumari","district":"Kanyakumari","state":"Tamil Nadu"},{"pinCodeSeq":6526,"postOfficeName":"Idaikode","pinCode":"629152","city":"Kanyakumari","district":"Kanyakumari","state":"Tamil Nadu"},{"pinCodeSeq":6527,"postOfficeName":"Kaliakkavilai","pinCode":"629153","city":"Kanyakumari","district":"Kanyakumari","state":"Tamil Nadu"},{"pinCodeSeq":6528,"postOfficeName":"Kanjampuram","pinCode":"629154","city":"Kanyakumari","district":"Kanyakumari","state":"Tamil Nadu"},{"pinCodeSeq":6529,"postOfficeName":"Kanjiracode","pinCode":"629155","city":"Kanyakumari","district":"Kanyakumari","state":"Tamil Nadu"},{"pinCodeSeq":6530,"postOfficeName":"Kappiyara","pinCode":"629156","city":"Kanyakumari","district":"Kanyakumari","state":"Tamil Nadu"},{"pinCodeSeq":6531,"postOfficeName":"Karinkal","pinCode":"629157","city":"Kanyakumari","district":"Kanyakumari","state":"Tamil Nadu"},{"pinCodeSeq":6532,"postOfficeName":"Kattathurai","pinCode":"629158","city":"Kanyakumari","district":"Kanyakumari","state":"Tamil Nadu"},{"pinCodeSeq":6533,"postOfficeName":"Kizihmidalam","pinCode":"629159","city":"Kanyakumari","district":"Kanyakumari","state":"Tamil Nadu"},{"pinCodeSeq":6534,"postOfficeName":"Palapallam","pinCode":"629159","city":"Kanyakumari","district":"Kanyakumari","state":"Tamil Nadu"},{"pinCodeSeq":6535,"postOfficeName":"Kollengodu","pinCode":"629160","city":"Kanyakumari","district":"Kanyakumari","state":"Tamil Nadu"},{"pinCodeSeq":6536,"postOfficeName":"Kulasekharam","pinCode":"629161","city":"Kanyakumari","district":"Kanyakumari","state":"Tamil Nadu"},{"pinCodeSeq":6537,"postOfficeName":"Kunnathur Nagercoil","pinCode":"629162","city":"Kanyakumari","district":"Kanyakumari","state":"Tamil Nadu"},{"pinCodeSeq":6538,"postOfficeName":"Kuzhithura","pinCode":"629163","city":"Kanyakumari","district":"Kanyakumari","state":"Tamil Nadu"},{"pinCodeSeq":6539,"postOfficeName":"Manalikara","pinCode":"629164","city":"Kanyakumari","district":"Kanyakumari","state":"Tamil Nadu"},{"pinCodeSeq":6540,"postOfficeName":"Marthanadam","pinCode":"629165","city":"Kanyakumari","district":"Kanyakumari","state":"Tamil Nadu"},{"pinCodeSeq":6541,"postOfficeName":"Marthandam Bridge","pinCode":"629165","city":"Kanyakumari","district":"Kanyakumari","state":"Tamil Nadu"},{"pinCodeSeq":6543,"postOfficeName":"Mekkamandapam","pinCode":"629166","city":"Kanyakumari","district":"Kanyakumari","state":"Tamil Nadu"},{"pinCodeSeq":6544,"postOfficeName":"Alagimandapuram","pinCode":"629167","city":"Kanyakumari","district":"Kanyakumari","state":"Tamil Nadu"},{"pinCodeSeq":6545,"postOfficeName":"Mulagumoodu","pinCode":"629167","city":"Kanyakumari","district":"Kanyakumari","state":"Tamil Nadu"},{"pinCodeSeq":6546,"postOfficeName":"Gnanamvilai","pinCode":"629168","city":"Kanyakumari","district":"Kanyakumari","state":"Tamil Nadu"},{"pinCodeSeq":6548,"postOfficeName":"Palliyadi","pinCode":"629169","city":"Kanyakumari","district":"Kanyakumari","state":"Tamil Nadu"},{"pinCodeSeq":6549,"postOfficeName":"Palukal","pinCode":"629170","city":"Kanyakumari","district":"Kanyakumari","state":"Tamil Nadu"},{"pinCodeSeq":6550,"postOfficeName":"Munichiraj","pinCode":"629171","city":"Kanyakumari","district":"Kanyakumari","state":"Tamil Nadu"},{"pinCodeSeq":6551,"postOfficeName":"Pudukada","pinCode":"629171","city":"Kanyakumari","district":"Kanyakumari","state":"Tamil Nadu"},{"pinCodeSeq":6552,"postOfficeName":"S T Mangad","pinCode":"629172","city":"Kanyakumari","district":"Kanyakumari","state":"Tamil Nadu"},{"pinCodeSeq":6553,"postOfficeName":"Thengapattinam","pinCode":"629173","city":"Kanyakumari","district":"Kanyakumari","state":"Tamil Nadu"},{"pinCodeSeq":6554,"postOfficeName":"Tiruvithamcode","pinCode":"629174","city":"Kanyakumari","district":"Kanyakumari","state":"Tamil Nadu"},{"pinCodeSeq":6555,"postOfficeName":"Fort","pinCode":"629175","city":"Kanyakumari","district":"Kanyakumari","state":"Tamil Nadu"},{"pinCodeSeq":6556,"postOfficeName":"Methukadai","pinCode":"629175","city":"Kanyakumari","district":"Kanyakumari","state":"Tamil Nadu"},{"pinCodeSeq":6557,"postOfficeName":"Mulachel","pinCode":"629175","city":"Kanyakumari","district":"Kanyakumari","state":"Tamil Nadu"},{"pinCodeSeq":6559,"postOfficeName":"Thuckalay H O","pinCode":"629175","city":"Kanyakumari","district":"Kanyakumari","state":"Tamil Nadu"},{"pinCodeSeq":6561,"postOfficeName":"Tiruvattor","pinCode":"629177","city":"Kanyakumari","district":"Kanyakumari","state":"Tamil Nadu"},{"pinCodeSeq":6562,"postOfficeName":"Udayamarthandam","pinCode":"629178","city":"Kanyakumari","district":"Kanyakumari","state":"Tamil Nadu"},{"pinCodeSeq":6563,"postOfficeName":"Unnamalaikada","pinCode":"629179","city":"Kanyakumari","district":"Kanyakumari","state":"Tamil Nadu"},{"pinCodeSeq":6565,"postOfficeName":"Kirathur","pinCode":"629181","city":"Kanyakumari","district":"Kanyakumari","state":"Tamil Nadu"},{"pinCodeSeq":6566,"postOfficeName":"Ponmana","pinCode":"629182","city":"Kanyakumari","district":"Kanyakumari","state":"Tamil Nadu"},{"pinCodeSeq":6567,"postOfficeName":"Thiruvarambu","pinCode":"629183","city":"Kanyakumari","district":"Kanyakumari","state":"Tamil Nadu"},{"pinCodeSeq":6569,"postOfficeName":"Painkulam","pinCode":"629188","city":"Kanyakumari","district":"Kanyakumari","state":"Tamil Nadu"},{"pinCodeSeq":6570,"postOfficeName":"Kumarapuram","pinCode":"629189","city":"Kanyakumari","district":"Kanyakumari","state":"Tamil Nadu"},{"pinCodeSeq":6571,"postOfficeName":"Sooriacode","pinCode":"629190","city":"Kanyakumari","district":"Kanyakumari","state":"Tamil Nadu"},{"pinCodeSeq":6572,"postOfficeName":"Atur","pinCode":"629191","city":"Kanyakumari","district":"Kanyakumari","state":"Tamil Nadu"},{"pinCodeSeq":6573,"postOfficeName":"Vallavilai","pinCode":"629192","city":"Kanyakumari","district":"Kanyakumari","state":"Tamil Nadu"},{"pinCodeSeq":6574,"postOfficeName":"Kizhkullam","pinCode":"629193","city":"Kanyakumari","district":"Kanyakumari","state":"Tamil Nadu"},{"pinCodeSeq":6575,"postOfficeName":"Nattalam","pinCode":"629195","city":"Kanyakumari","district":"Kanyakumari","state":"Tamil Nadu"},{"pinCodeSeq":6576,"postOfficeName":"Mangarai","pinCode":"629196","city":"Kanyakumari","district":"Kanyakumari","state":"Tamil Nadu"},{"pinCodeSeq":6577,"postOfficeName":"Irenipuram","pinCode":"629197","city":"Kanyakumari","district":"Kanyakumari","state":"Tamil Nadu"},{"pinCodeSeq":6578,"postOfficeName":"Asaripallam","pinCode":"629201","city":"Kanyakumari","district":"Kanyakumari","state":"Tamil Nadu"},{"pinCodeSeq":6579,"postOfficeName":"Mottom","pinCode":"629202","city":"Kanyakumari","district":"Kanyakumari","state":"Tamil Nadu"},{"pinCodeSeq":6580,"postOfficeName":"Friday Market","pinCode":"629203","city":"Kanyakumari","district":"Kanyakumari","state":"Tamil Nadu"},{"pinCodeSeq":6581,"postOfficeName":"Ammandivilai","pinCode":"629204","city":"Kanyakumari","district":"Kanyakumari","state":"Tamil Nadu"},{"pinCodeSeq":6582,"postOfficeName":"Santhapuram","pinCode":"629205","city":"Kanyakumari","district":"Kanyakumari","state":"Tamil Nadu"},{"pinCodeSeq":6583,"postOfficeName":"Colachal","pinCode":"629251","city":"Kanyakumari","district":"Kanyakumari","state":"Tamil Nadu"},{"pinCodeSeq":6584,"postOfficeName":"Colachal Port","pinCode":"629251","city":"Kanyakumari","district":"Kanyakumari","state":"Tamil Nadu"},{"pinCodeSeq":6586,"postOfficeName":"Kadiyapattinam","pinCode":"629253","city":"Kanyakumari","district":"Kanyakumari","state":"Tamil Nadu"},{"pinCodeSeq":6587,"postOfficeName":"Aramboly","pinCode":"629301","city":"Kanyakumari","district":"Kanyakumari","state":"Tamil Nadu"},{"pinCodeSeq":6589,"postOfficeName":"Chenbagaramanpudur","pinCode":"629304","city":"Kanyakumari","district":"Kanyakumari","state":"Tamil Nadu"},{"pinCodeSeq":6590,"postOfficeName":"Vellamadam","pinCode":"629305","city":"Kanyakumari","district":"Kanyakumari","state":"Tamil Nadu"},{"pinCodeSeq":6591,"postOfficeName":"Azhagappapuram","pinCode":"629401","city":"Kanyakumari","district":"Kanyakumari","state":"Tamil Nadu"},{"pinCodeSeq":6592,"postOfficeName":"Marunkur","pinCode":"629402","city":"Kanyakumari","district":"Kanyakumari","state":"Tamil Nadu"},{"pinCodeSeq":6593,"postOfficeName":"Mylady","pinCode":"629403","city":"Kanyakumari","district":"Kanyakumari","state":"Tamil Nadu"},{"pinCodeSeq":6594,"postOfficeName":"Vellaram","pinCode":"629403","city":"Kanyakumari","district":"Kanyakumari","state":"Tamil Nadu"},{"pinCodeSeq":6595,"postOfficeName":"Variyur","pinCode":"629404","city":"Kanyakumari","district":"Kanyakumari","state":"Tamil Nadu"},{"pinCodeSeq":6597,"postOfficeName":"Eathamozhi","pinCode":"629501","city":"Kanyakumari","district":"Kanyakumari","state":"Tamil Nadu"},{"pinCodeSeq":6599,"postOfficeName":"Rajakkamangalam","pinCode":"629503","city":"Kanyakumari","district":"Kanyakumari","state":"Tamil Nadu"},{"pinCodeSeq":6600,"postOfficeName":"James Town","pinCode":"629504","city":"Kanyakumari","district":"Kanyakumari","state":"Tamil Nadu"},{"pinCodeSeq":6601,"postOfficeName":"Kesavaputhanthurai","pinCode":"629509","city":"Kanyakumari","district":"Kanyakumari","state":"Tamil Nadu"},{"pinCodeSeq":6602,"postOfficeName":"Parakkai","pinCode":"629601","city":"Kanyakumari","district":"Kanyakumari","state":"Tamil Nadu"},{"pinCodeSeq":6604,"postOfficeName":"Thengamputhur","pinCode":"629603","city":"Kanyakumari","district":"Kanyakumari","state":"Tamil Nadu"},{"pinCodeSeq":6605,"postOfficeName":"Idaivchivalai","pinCode":"629664","city":"Kanyakumari","district":"Kanyakumari","state":"Tamil Nadu"},{"pinCodeSeq":6606,"postOfficeName":"Agasteeswaram","pinCode":"629701","city":"Kanyakumari","district":"Kanyakumari","state":"Tamil Nadu"},{"pinCodeSeq":6607,"postOfficeName":"Kanyakumari","pinCode":"629702","city":"Kanyakumari","district":"Kanyakumari","state":"Tamil Nadu"},{"pinCodeSeq":6608,"postOfficeName":"Vivekanandapuram","pinCode":"629702","city":"Kanyakumari","district":"Kanyakumari","state":"Tamil Nadu"},{"pinCodeSeq":6611,"postOfficeName":"Sugarcane Breeding","pinCode":"629704","city":"Kanyakumari","district":"Kanyakumari","state":"Tamil Nadu"},{"pinCodeSeq":6612,"postOfficeName":"Valakkamparai","pinCode":"629704","city":"Kanyakumari","district":"Kanyakumari","state":"Tamil Nadu"},{"pinCodeSeq":6613,"postOfficeName":"Mahadanapuram K K","pinCode":"629706","city":"Kanyakumari","district":"Kanyakumari","state":"Tamil Nadu"},{"pinCodeSeq":6615,"postOfficeName":"South Thamaraikulam","pinCode":"629708","city":"Kanyakumari","district":"Kanyakumari","state":"Tamil Nadu"},{"pinCodeSeq":6616,"postOfficeName":"Aloor","pinCode":"629801","city":"Kanyakumari","district":"Kanyakumari","state":"Tamil Nadu"},{"pinCodeSeq":6617,"postOfficeName":"Neyyoor","pinCode":"629802","city":"Kanyakumari","district":"Kanyakumari","state":"Tamil Nadu"},{"pinCodeSeq":6618,"postOfficeName":"Neyyoor West","pinCode":"629803","city":"Kanyakumari","district":"Kanyakumari","state":"Tamil Nadu"},{"pinCodeSeq":6619,"postOfficeName":"Thikkanamcode","pinCode":"629804","city":"Kanyakumari","district":"Kanyakumari","state":"Tamil Nadu"},{"pinCodeSeq":6620,"postOfficeName":"Kurunthencode","pinCode":"629805","city":"Kanyakumari","district":"Kanyakumari","state":"Tamil Nadu"},{"pinCodeSeq":6621,"postOfficeName":"Kuttimangode","pinCode":"629806","city":"Kanyakumari","district":"Kanyakumari","state":"Tamil Nadu"},{"pinCodeSeq":6622,"postOfficeName":"Chunkankadai","pinCode":"629807","city":"Kanyakumari","district":"Kanyakumari","state":"Tamil Nadu"},{"pinCodeSeq":6623,"postOfficeName":"Kallukettam","pinCode":"629808","city":"Kanyakumari","district":"Kanyakumari","state":"Tamil Nadu"},{"pinCodeSeq":6624,"postOfficeName":"Karankad","pinCode":"629809","city":"Kanyakumari","district":"Kanyakumari","state":"Tamil Nadu"},{"pinCodeSeq":6625,"postOfficeName":"Azhakiapandiapuram Darsan","pinCode":"629851","city":"Kanyakumari","district":"Kanyakumari","state":"Tamil Nadu"},{"pinCodeSeq":6626,"postOfficeName":"Bhoothapandy","pinCode":"629852","city":"Kanyakumari","district":"Kanyakumari","state":"Tamil Nadu"},{"pinCodeSeq":6627,"postOfficeName":"Kiriparai","pinCode":"629854","city":"Kanyakumari","district":"Kanyakumari","state":"Tamil Nadu"},{"pinCodeSeq":6628,"postOfficeName":"Kadukkarai","pinCode":"629855","city":"Kanyakumari","district":"Kanyakumari","state":"Tamil Nadu"},{"pinCodeSeq":6629,"postOfficeName":"Thazhakudi","pinCode":"629901","city":"Kanyakumari","district":"Kanyakumari","state":"Tamil Nadu"},{"pinCodeSeq":6630,"postOfficeName":"Erachakulam","pinCode":"629902","city":"Kanyakumari","district":"Kanyakumari","state":"Tamil Nadu"}]