[{"pinCodeSeq":5675,"postOfficeName":"Siukuvarpatti","pinCode":"624215","city":"Madurai","district":"Madurai","state":"Tamil Nadu"},{"pinCodeSeq":5713,"postOfficeName":"Nattam East","pinCode":"624401","city":"Madurai","district":"Madurai","state":"Tamil Nadu"},{"pinCodeSeq":5714,"postOfficeName":"Nattam-Madurai","pinCode":"624401","city":"Madurai","district":"Madurai","state":"Tamil Nadu"},{"pinCodeSeq":5715,"postOfficeName":"Samudrapatti","pinCode":"624402","city":"Madurai","district":"Madurai","state":"Tamil Nadu"},{"pinCodeSeq":5717,"postOfficeName":"Sirugudi","pinCode":"624404","city":"Madurai","district":"Madurai","state":"Tamil Nadu"},{"pinCodeSeq":5770,"postOfficeName":"Keerathurai","pinCode":"625001","city":"Madurai","district":"Madurai","state":"Tamil Nadu"},{"pinCodeSeq":5771,"postOfficeName":"Lakshmipuram","pinCode":"625001","city":"Madurai","district":"Madurai","state":"Tamil Nadu"},{"pinCodeSeq":5772,"postOfficeName":"Madurai Bazaar","pinCode":"625001","city":"Madurai","district":"Madurai","state":"Tamil Nadu"},{"pinCodeSeq":5773,"postOfficeName":"Madurai Central Bus Stand","pinCode":"625001","city":"Madurai","district":"Madurai","state":"Tamil Nadu"},{"pinCodeSeq":5774,"postOfficeName":"Madurai city","pinCode":"625001","city":"Madurai","district":"Madurai","state":"Tamil Nadu"},{"pinCodeSeq":5775,"postOfficeName":"Madurai Ezhukadal","pinCode":"625001","city":"Madurai","district":"Madurai","state":"Tamil Nadu"},{"pinCodeSeq":5776,"postOfficeName":"Madurai H O","pinCode":"625001","city":"Madurai","district":"Madurai","state":"Tamil Nadu"},{"pinCodeSeq":5777,"postOfficeName":"Madurai North","pinCode":"625001","city":"Madurai","district":"Madurai","state":"Tamil Nadu"},{"pinCodeSeq":5778,"postOfficeName":"Madurai Palace","pinCode":"625001","city":"Madurai","district":"Madurai","state":"Tamil Nadu"},{"pinCodeSeq":5779,"postOfficeName":"Madurai West","pinCode":"625001","city":"Madurai","district":"Madurai","state":"Tamil Nadu"},{"pinCodeSeq":5780,"postOfficeName":"Madurai West Masi Street","pinCode":"625001","city":"Madurai","district":"Madurai","state":"Tamil Nadu"},{"pinCodeSeq":5781,"postOfficeName":"Padithurai","pinCode":"625001","city":"Madurai","district":"Madurai","state":"Tamil Nadu"},{"pinCodeSeq":5782,"postOfficeName":"Panthadi Street","pinCode":"625001","city":"Madurai","district":"Madurai","state":"Tamil Nadu"},{"pinCodeSeq":5783,"postOfficeName":"Perumal Teppakulam","pinCode":"625001","city":"Madurai","district":"Madurai","state":"Tamil Nadu"},{"pinCodeSeq":5784,"postOfficeName":"Pitchaiamman","pinCode":"625001","city":"Madurai","district":"Madurai","state":"Tamil Nadu"},{"pinCodeSeq":5785,"postOfficeName":"Simmakkal","pinCode":"625001","city":"Madurai","district":"Madurai","state":"Tamil Nadu"},{"pinCodeSeq":5786,"postOfficeName":"South Gate","pinCode":"625001","city":"Madurai","district":"Madurai","state":"Tamil Nadu"},{"pinCodeSeq":5787,"postOfficeName":"South Masi Street","pinCode":"625001","city":"Madurai","district":"Madurai","state":"Tamil Nadu"},{"pinCodeSeq":5788,"postOfficeName":"South Veli L Street","pinCode":"625001","city":"Madurai","district":"Madurai","state":"Tamil Nadu"},{"pinCodeSeq":5789,"postOfficeName":"Town Hall Road","pinCode":"625001","city":"Madurai","district":"Madurai","state":"Tamil Nadu"},{"pinCodeSeq":5790,"postOfficeName":"Vilakkathoon","pinCode":"625001","city":"Madurai","district":"Madurai","state":"Tamil Nadu"},{"pinCodeSeq":5791,"postOfficeName":"Yanaikkal","pinCode":"625001","city":"Madurai","district":"Madurai","state":"Tamil Nadu"},{"pinCodeSeq":5792,"postOfficeName":"Chinnasokkikulam","pinCode":"625002","city":"Madurai","district":"Madurai","state":"Tamil Nadu"},{"pinCodeSeq":5793,"postOfficeName":"Jambropuram","pinCode":"625002","city":"Madurai","district":"Madurai","state":"Tamil Nadu"},{"pinCodeSeq":5794,"postOfficeName":"Kalpalam Road","pinCode":"625002","city":"Madurai","district":"Madurai","state":"Tamil Nadu"},{"pinCodeSeq":5795,"postOfficeName":"Madurai Bibikulam","pinCode":"625002","city":"Madurai","district":"Madurai","state":"Tamil Nadu"},{"pinCodeSeq":5796,"postOfficeName":"Madurai Corporation Bldgs","pinCode":"625002","city":"Madurai","district":"Madurai","state":"Tamil Nadu"},{"pinCodeSeq":5797,"postOfficeName":"Madurai Race Course","pinCode":"625002","city":"Madurai","district":"Madurai","state":"Tamil Nadu"},{"pinCodeSeq":5798,"postOfficeName":"Narimedu","pinCode":"625002","city":"Madurai","district":"Madurai","state":"Tamil Nadu"},{"pinCodeSeq":5799,"postOfficeName":"Sellur","pinCode":"625002","city":"Madurai","district":"Madurai","state":"Tamil Nadu"},{"pinCodeSeq":5800,"postOfficeName":"Sokkikulam","pinCode":"625002","city":"Madurai","district":"Madurai","state":"Tamil Nadu"},{"pinCodeSeq":5801,"postOfficeName":"Tallakulam H O","pinCode":"625002","city":"Madurai","district":"Madurai","state":"Tamil Nadu"},{"pinCodeSeq":5802,"postOfficeName":"Alagappa Nagar","pinCode":"625003","city":"Madurai","district":"Madurai","state":"Tamil Nadu"},{"pinCodeSeq":5803,"postOfficeName":"Palanganatham","pinCode":"625003","city":"Madurai","district":"Madurai","state":"Tamil Nadu"},{"pinCodeSeq":5804,"postOfficeName":"Tvs Nagar","pinCode":"625003","city":"Madurai","district":"Madurai","state":"Tamil Nadu"},{"pinCodeSeq":5805,"postOfficeName":"Pasumalai","pinCode":"625004","city":"Madurai","district":"Madurai","state":"Tamil Nadu"},{"pinCodeSeq":5806,"postOfficeName":"Tiruparankundram","pinCode":"625005","city":"Madurai","district":"Madurai","state":"Tamil Nadu"},{"pinCodeSeq":5807,"postOfficeName":"Tirunagar","pinCode":"625006","city":"Madurai","district":"Madurai","state":"Tamil Nadu"},{"pinCodeSeq":5808,"postOfficeName":"Kosakulampudur","pinCode":"625007","city":"Madurai","district":"Madurai","state":"Tamil Nadu"},{"pinCodeSeq":5809,"postOfficeName":"Pudur Bazaar","pinCode":"625007","city":"Madurai","district":"Madurai","state":"Tamil Nadu"},{"pinCodeSeq":5810,"postOfficeName":"De Nobili Press","pinCode":"625008","city":"Madurai","district":"Madurai","state":"Tamil Nadu"},{"pinCodeSeq":5811,"postOfficeName":"Balarangapuram","pinCode":"625009","city":"Madurai","district":"Madurai","state":"Tamil Nadu"},{"pinCodeSeq":5812,"postOfficeName":"Kamarajar Chalai","pinCode":"625009","city":"Madurai","district":"Madurai","state":"Tamil Nadu"},{"pinCodeSeq":5813,"postOfficeName":"Madurai East","pinCode":"625009","city":"Madurai","district":"Madurai","state":"Tamil Nadu"},{"pinCodeSeq":5814,"postOfficeName":"Munichalai Road","pinCode":"625009","city":"Madurai","district":"Madurai","state":"Tamil Nadu"},{"pinCodeSeq":5815,"postOfficeName":"Thiagarajar College","pinCode":"625009","city":"Madurai","district":"Madurai","state":"Tamil Nadu"},{"pinCodeSeq":5816,"postOfficeName":"Gnana Olivupuram","pinCode":"625010","city":"Madurai","district":"Madurai","state":"Tamil Nadu"},{"pinCodeSeq":5817,"postOfficeName":"Madurai Railway Colony","pinCode":"625010","city":"Madurai","district":"Madurai","state":"Tamil Nadu"},{"pinCodeSeq":5818,"postOfficeName":"Madurai Rly Dvl Office","pinCode":"625010","city":"Madurai","district":"Madurai","state":"Tamil Nadu"},{"pinCodeSeq":5819,"postOfficeName":"Ponnagaram","pinCode":"625010","city":"Madurai","district":"Madurai","state":"Tamil Nadu"},{"pinCodeSeq":5820,"postOfficeName":"Puthuthope","pinCode":"625010","city":"Madurai","district":"Madurai","state":"Tamil Nadu"},{"pinCodeSeq":5821,"postOfficeName":"West Ponnagaram","pinCode":"625010","city":"Madurai","district":"Madurai","state":"Tamil Nadu"},{"pinCodeSeq":5822,"postOfficeName":"Jaihindpuram","pinCode":"625011","city":"Madurai","district":"Madurai","state":"Tamil Nadu"},{"pinCodeSeq":5824,"postOfficeName":"Villapuram","pinCode":"625012","city":"Madurai","district":"Madurai","state":"Tamil Nadu"},{"pinCodeSeq":5825,"postOfficeName":"Krishnapuram Colony","pinCode":"625014","city":"Madurai","district":"Madurai","state":"Tamil Nadu"},{"pinCodeSeq":5826,"postOfficeName":"Madurai Reserve Lines","pinCode":"625014","city":"Madurai","district":"Madurai","state":"Tamil Nadu"},{"pinCodeSeq":5827,"postOfficeName":"Thaigarajar Engg College","pinCode":"625015","city":"Madurai","district":"Madurai","state":"Tamil Nadu"},{"pinCodeSeq":5828,"postOfficeName":"Arasaradi H O","pinCode":"625016","city":"Madurai","district":"Madurai","state":"Tamil Nadu"},{"pinCodeSeq":5829,"postOfficeName":"Chockalinga Nagar","pinCode":"625016","city":"Madurai","district":"Madurai","state":"Tamil Nadu"},{"pinCodeSeq":5830,"postOfficeName":"Somasundaram Colony","pinCode":"625016","city":"Madurai","district":"Madurai","state":"Tamil Nadu"},{"pinCodeSeq":5831,"postOfficeName":"state Bank Colony","pinCode":"625016","city":"Madurai","district":"Madurai","state":"Tamil Nadu"},{"pinCodeSeq":5832,"postOfficeName":"Shanti Nagar","pinCode":"625018","city":"Madurai","district":"Madurai","state":"Tamil Nadu"},{"pinCodeSeq":5833,"postOfficeName":"Thathaneri","pinCode":"625018","city":"Madurai","district":"Madurai","state":"Tamil Nadu"},{"pinCodeSeq":5834,"postOfficeName":"Arignaranna Nagar","pinCode":"625020","city":"Madurai","district":"Madurai","state":"Tamil Nadu"},{"pinCodeSeq":5835,"postOfficeName":"Gandhi Nagar","pinCode":"625020","city":"Madurai","district":"Madurai","state":"Tamil Nadu"},{"pinCodeSeq":5836,"postOfficeName":"Gandhi Nagar Madurai","pinCode":"625020","city":"Madurai","district":"Madurai","state":"Tamil Nadu"},{"pinCodeSeq":5837,"postOfficeName":"Madichiyam","pinCode":"625020","city":"Madurai","district":"Madurai","state":"Tamil Nadu"},{"pinCodeSeq":5838,"postOfficeName":"Madurai Collectorate","pinCode":"625020","city":"Madurai","district":"Madurai","state":"Tamil Nadu"},{"pinCodeSeq":5839,"postOfficeName":"Madurai Courts","pinCode":"625020","city":"Madurai","district":"Madurai","state":"Tamil Nadu"},{"pinCodeSeq":5840,"postOfficeName":"Madurai Erskine Hospital","pinCode":"625020","city":"Madurai","district":"Madurai","state":"Tamil Nadu"},{"pinCodeSeq":5841,"postOfficeName":"Municipal Colony","pinCode":"625020","city":"Madurai","district":"Madurai","state":"Tamil Nadu"},{"pinCodeSeq":5842,"postOfficeName":"Tallakulam Housing Board","pinCode":"625020","city":"Madurai","district":"Madurai","state":"Tamil Nadu"},{"pinCodeSeq":5843,"postOfficeName":"Palkalainagar","pinCode":"625021","city":"Madurai","district":"Madurai","state":"Tamil Nadu"},{"pinCodeSeq":5844,"postOfficeName":"Madurai Training Centre","pinCode":"625022","city":"Madurai","district":"Madurai","state":"Tamil Nadu"},{"pinCodeSeq":5845,"postOfficeName":"Pothumbu","pinCode":"625051","city":"Madurai","district":"Madurai","state":"Tamil Nadu"},{"pinCodeSeq":5846,"postOfficeName":"Chatrapatti Mdu","pinCode":"625052","city":"Madurai","district":"Madurai","state":"Tamil Nadu"},{"pinCodeSeq":5847,"postOfficeName":"Karungalakudi","pinCode":"625101","city":"Madurai","district":"Madurai","state":"Tamil Nadu"},{"pinCodeSeq":5848,"postOfficeName":"Kilavalavu","pinCode":"625102","city":"Madurai","district":"Madurai","state":"Tamil Nadu"},{"pinCodeSeq":5849,"postOfficeName":"Kottampatti","pinCode":"625103","city":"Madurai","district":"Madurai","state":"Tamil Nadu"},{"pinCodeSeq":5850,"postOfficeName":"Madurai Agricultural College","pinCode":"625104","city":"Madurai","district":"Madurai","state":"Tamil Nadu"},{"pinCodeSeq":5851,"postOfficeName":"Melavaluvu","pinCode":"625105","city":"Madurai","district":"Madurai","state":"Tamil Nadu"},{"pinCodeSeq":5852,"postOfficeName":"Melur Courts","pinCode":"625106","city":"Madurai","district":"Madurai","state":"Tamil Nadu"},{"pinCodeSeq":5853,"postOfficeName":"Melur East","pinCode":"625106","city":"Madurai","district":"Madurai","state":"Tamil Nadu"},{"pinCodeSeq":5854,"postOfficeName":"Melur H O","pinCode":"625106","city":"Madurai","district":"Madurai","state":"Tamil Nadu"},{"pinCodeSeq":5855,"postOfficeName":"Melur South","pinCode":"625106","city":"Madurai","district":"Madurai","state":"Tamil Nadu"},{"pinCodeSeq":5857,"postOfficeName":"Thumbapatti","pinCode":"625108","city":"Madurai","district":"Madurai","state":"Tamil Nadu"},{"pinCodeSeq":5858,"postOfficeName":"Chittampatt","pinCode":"625111","city":"Madurai","district":"Madurai","state":"Tamil Nadu"},{"pinCodeSeq":5859,"postOfficeName":"Narasingampatti","pinCode":"625112","city":"Madurai","district":"Madurai","state":"Tamil Nadu"},{"pinCodeSeq":5860,"postOfficeName":"Navinpatti","pinCode":"625113","city":"Madurai","district":"Madurai","state":"Tamil Nadu"},{"pinCodeSeq":5861,"postOfficeName":"Kambur","pinCode":"625114","city":"Madurai","district":"Madurai","state":"Tamil Nadu"},{"pinCodeSeq":5862,"postOfficeName":"Chockalingapuram","pinCode":"625115","city":"Madurai","district":"Madurai","state":"Tamil Nadu"},{"pinCodeSeq":5863,"postOfficeName":"Vanjnagaram","pinCode":"625116","city":"Madurai","district":"Madurai","state":"Tamil Nadu"},{"pinCodeSeq":5865,"postOfficeName":"Kilayur Madurai","pinCode":"625118","city":"Madurai","district":"Madurai","state":"Tamil Nadu"},{"pinCodeSeq":5866,"postOfficeName":"Uranganpatti","pinCode":"625119","city":"Madurai","district":"Madurai","state":"Tamil Nadu"},{"pinCodeSeq":5867,"postOfficeName":"Sarugu Valayapatti","pinCode":"625120","city":"Madurai","district":"Madurai","state":"Tamil Nadu"},{"pinCodeSeq":5868,"postOfficeName":"Taniyamangalam","pinCode":"625121","city":"Madurai","district":"Madurai","state":"Tamil Nadu"},{"pinCodeSeq":5869,"postOfficeName":"Therkutheru","pinCode":"625122","city":"Madurai","district":"Madurai","state":"Tamil Nadu"},{"pinCodeSeq":5870,"postOfficeName":"Ambalakaranpatti","pinCode":"625123","city":"Madurai","district":"Madurai","state":"Tamil Nadu"},{"pinCodeSeq":5871,"postOfficeName":"Kottagudi","pinCode":"625124","city":"Madurai","district":"Madurai","state":"Tamil Nadu"},{"pinCodeSeq":5872,"postOfficeName":"Pottapatti","pinCode":"625125","city":"Madurai","district":"Madurai","state":"Tamil Nadu"},{"pinCodeSeq":5873,"postOfficeName":"Kachirayanpatti","pinCode":"625126","city":"Madurai","district":"Madurai","state":"Tamil Nadu"},{"pinCodeSeq":5874,"postOfficeName":"Pattur","pinCode":"625127","city":"Madurai","district":"Madurai","state":"Tamil Nadu"},{"pinCodeSeq":5875,"postOfficeName":"Silaiman","pinCode":"625201","city":"Madurai","district":"Madurai","state":"Tamil Nadu"},{"pinCodeSeq":5876,"postOfficeName":"Kodai Road R S","pinCode":"625206","city":"Madurai","district":"Madurai","state":"Tamil Nadu"},{"pinCodeSeq":5877,"postOfficeName":"Alagarkoil","pinCode":"625301","city":"Madurai","district":"Madurai","state":"Tamil Nadu"},{"pinCodeSeq":5878,"postOfficeName":"Mangulam","pinCode":"625302","city":"Madurai","district":"Madurai","state":"Tamil Nadu"},{"pinCodeSeq":5879,"postOfficeName":"Vellalapatti","pinCode":"625303","city":"Madurai","district":"Madurai","state":"Tamil Nadu"},{"pinCodeSeq":5880,"postOfficeName":"Kidaripatti","pinCode":"625304","city":"Madurai","district":"Madurai","state":"Tamil Nadu"},{"pinCodeSeq":5881,"postOfficeName":"Kallandiri","pinCode":"625305","city":"Madurai","district":"Madurai","state":"Tamil Nadu"},{"pinCodeSeq":5882,"postOfficeName":"Visalakshinagar","pinCode":"625401","city":"Madurai","district":"Madurai","state":"Tamil Nadu"},{"pinCodeSeq":5883,"postOfficeName":"Samayanallur","pinCode":"625402","city":"Madurai","district":"Madurai","state":"Tamil Nadu"},{"pinCodeSeq":5884,"postOfficeName":"Thenur","pinCode":"625403","city":"Madurai","district":"Madurai","state":"Tamil Nadu"},{"pinCodeSeq":5888,"postOfficeName":"Vavimarudur","pinCode":"625504","city":"Madurai","district":"Madurai","state":"Tamil Nadu"},{"pinCodeSeq":5889,"postOfficeName":"Seelayampatti","pinCode":"625577","city":"Madurai","district":"Madurai","state":"Tamil Nadu"},{"pinCodeSeq":5890,"postOfficeName":"Palani R S","pinCode":"625602","city":"Madurai","district":"Madurai","state":"Tamil Nadu"},{"pinCodeSeq":6064,"postOfficeName":"Silamarathupatti","pinCode":"626528","city":"Madurai","district":"Madurai","state":"Tamil Nadu"},{"pinCodeSeq":6037,"postOfficeName":"Periyakulam East","pinCode":"626501","city":"Madurai","district":"Madurai","state":"Tamil Nadu"},{"pinCodeSeq":6038,"postOfficeName":"Periyakulam H O","pinCode":"626501","city":"Madurai","district":"Madurai","state":"Tamil Nadu"},{"pinCodeSeq":6039,"postOfficeName":"Periyakulam Public Office","pinCode":"626501","city":"Madurai","district":"Madurai","state":"Tamil Nadu"},{"pinCodeSeq":6040,"postOfficeName":"Peryakulambazaar","pinCode":"626501","city":"Madurai","district":"Madurai","state":"Tamil Nadu"},{"pinCodeSeq":6041,"postOfficeName":"Vadagarai","pinCode":"626501","city":"Madurai","district":"Madurai","state":"Tamil Nadu"},{"pinCodeSeq":6042,"postOfficeName":"Aundipatti","pinCode":"626512","city":"Madurai","district":"Madurai","state":"Tamil Nadu"},{"pinCodeSeq":6043,"postOfficeName":"Jakkampatti","pinCode":"626512","city":"Madurai","district":"Madurai","state":"Tamil Nadu"},{"pinCodeSeq":6044,"postOfficeName":"Bodinayakkanur H O","pinCode":"626513","city":"Madurai","district":"Madurai","state":"Tamil Nadu"},{"pinCodeSeq":6045,"postOfficeName":"Checkanurani","pinCode":"626514","city":"Madurai","district":"Madurai","state":"Tamil Nadu"},{"pinCodeSeq":6049,"postOfficeName":"Cumbum Madurai Bus Stand","pinCode":"626516","city":"Madurai","district":"Madurai","state":"Tamil Nadu"},{"pinCodeSeq":6050,"postOfficeName":"Cumbum South","pinCode":"626516","city":"Madurai","district":"Madurai","state":"Tamil Nadu"},{"pinCodeSeq":6051,"postOfficeName":"Cumbum West","pinCode":"626516","city":"Madurai","district":"Madurai","state":"Tamil Nadu"},{"pinCodeSeq":6052,"postOfficeName":"Gandhi Nagar Cumbum","pinCode":"626516","city":"Madurai","district":"Madurai","state":"Tamil Nadu"},{"pinCodeSeq":6053,"postOfficeName":"Gandamanayakanur","pinCode":"626517","city":"Madurai","district":"Madurai","state":"Tamil Nadu"},{"pinCodeSeq":6054,"postOfficeName":"Gudalur Madurai","pinCode":"626518","city":"Madurai","district":"Madurai","state":"Tamil Nadu"},{"pinCodeSeq":6056,"postOfficeName":"Kamachipuram","pinCode":"626520","city":"Madurai","district":"Madurai","state":"Tamil Nadu"},{"pinCodeSeq":6059,"postOfficeName":"Periakulam","pinCode":"626523","city":"Madurai","district":"Madurai","state":"Tamil Nadu"},{"pinCodeSeq":6061,"postOfficeName":"Periyar Project","pinCode":"626525","city":"Madurai","district":"Madurai","state":"Tamil Nadu"},{"pinCodeSeq":6062,"postOfficeName":"Royappanpatthi","pinCode":"626526","city":"Madurai","district":"Madurai","state":"Tamil Nadu"},{"pinCodeSeq":6063,"postOfficeName":"Sedapatti","pinCode":"626527","city":"Madurai","district":"Madurai","state":"Tamil Nadu"},{"pinCodeSeq":6065,"postOfficeName":"Sindupatti","pinCode":"626529","city":"Madurai","district":"Madurai","state":"Tamil Nadu"},{"pinCodeSeq":6066,"postOfficeName":"Thavaram","pinCode":"626530","city":"Madurai","district":"Madurai","state":"Tamil Nadu"},{"pinCodeSeq":6067,"postOfficeName":"Alliagaram","pinCode":"626531","city":"Madurai","district":"Madurai","state":"Tamil Nadu"},{"pinCodeSeq":6068,"postOfficeName":"Bangalamedu","pinCode":"626531","city":"Madurai","district":"Madurai","state":"Tamil Nadu"},{"pinCodeSeq":6069,"postOfficeName":"Theni","pinCode":"626531","city":"Madurai","district":"Madurai","state":"Tamil Nadu"},{"pinCodeSeq":6070,"postOfficeName":"Theni South","pinCode":"626531","city":"Madurai","district":"Madurai","state":"Tamil Nadu"},{"pinCodeSeq":6071,"postOfficeName":"Thiagaraja Nagar Theni","pinCode":"626531","city":"Madurai","district":"Madurai","state":"Tamil Nadu"},{"pinCodeSeq":6072,"postOfficeName":"Uslampatti","pinCode":"626532","city":"Madurai","district":"Madurai","state":"Tamil Nadu"},{"pinCodeSeq":6073,"postOfficeName":"Uslampatti Pettai","pinCode":"626532","city":"Madurai","district":"Madurai","state":"Tamil Nadu"},{"pinCodeSeq":6075,"postOfficeName":"Uthamapalayam Bazar","pinCode":"626533","city":"Madurai","district":"Madurai","state":"Tamil Nadu"},{"pinCodeSeq":6077,"postOfficeName":"Yelumalai","pinCode":"626535","city":"Madurai","district":"Madurai","state":"Tamil Nadu"},{"pinCodeSeq":6078,"postOfficeName":"T B Sanatorium","pinCode":"626536","city":"Madurai","district":"Madurai","state":"Tamil Nadu"},{"pinCodeSeq":6079,"postOfficeName":"T Subbalapuram","pinCode":"626536","city":"Madurai","district":"Madurai","state":"Tamil Nadu"},{"pinCodeSeq":6080,"postOfficeName":"Uthappanayakanur","pinCode":"626537","city":"Madurai","district":"Madurai","state":"Tamil Nadu"},{"pinCodeSeq":6081,"postOfficeName":"Venniar Estate","pinCode":"626538","city":"Madurai","district":"Madurai","state":"Tamil Nadu"},{"pinCodeSeq":6082,"postOfficeName":"Suruliar Lower Camp","pinCode":"626539","city":"Madurai","district":"Madurai","state":"Tamil Nadu"},{"pinCodeSeq":6083,"postOfficeName":"Odiapatti","pinCode":"626540","city":"Madurai","district":"Madurai","state":"Tamil Nadu"},{"pinCodeSeq":6085,"postOfficeName":"U Ammapatti","pinCode":"626541","city":"Madurai","district":"Madurai","state":"Tamil Nadu"},{"pinCodeSeq":6086,"postOfficeName":"Chinnaovalapuram","pinCode":"626544","city":"Madurai","district":"Madurai","state":"Tamil Nadu"},{"pinCodeSeq":6087,"postOfficeName":"Kodangipattu","pinCode":"626547","city":"Madurai","district":"Madurai","state":"Tamil Nadu"},{"pinCodeSeq":6089,"postOfficeName":"Palanichettipatti","pinCode":"626553","city":"Madurai","district":"Madurai","state":"Tamil Nadu"},{"pinCodeSeq":6090,"postOfficeName":"Pottipuram","pinCode":"626555","city":"Madurai","district":"Madurai","state":"Tamil Nadu"},{"pinCodeSeq":6092,"postOfficeName":"Tamaraikulam","pinCode":"626562","city":"Madurai","district":"Madurai","state":"Tamil Nadu"},{"pinCodeSeq":6093,"postOfficeName":"Vellayammalpuram","pinCode":"626565","city":"Madurai","district":"Madurai","state":"Tamil Nadu"},{"pinCodeSeq":6094,"postOfficeName":"Chellanpatti","pinCode":"626566","city":"Madurai","district":"Madurai","state":"Tamil Nadu"},{"pinCodeSeq":6095,"postOfficeName":"Kottur","pinCode":"626569","city":"Madurai","district":"Madurai","state":"Tamil Nadu"},{"pinCodeSeq":6096,"postOfficeName":"Uppukottai","pinCode":"626571","city":"Madurai","district":"Madurai","state":"Tamil Nadu"},{"pinCodeSeq":6099,"postOfficeName":"Subbaraja Nagar C P A Co","pinCode":"626582","city":"Madurai","district":"Madurai","state":"Tamil Nadu"},{"pinCodeSeq":6101,"postOfficeName":"Kalligudi","pinCode":"626701","city":"Madurai","district":"Madurai","state":"Tamil Nadu"},{"pinCodeSeq":6102,"postOfficeName":"Kallupatti","pinCode":"626702","city":"Madurai","district":"Madurai","state":"Tamil Nadu"},{"pinCodeSeq":6103,"postOfficeName":"Madurai","pinCode":"626703","city":"Madurai","district":"Madurai","state":"Tamil Nadu"},{"pinCodeSeq":6105,"postOfficeName":"Saptur","pinCode":"626705","city":"Madurai","district":"Madurai","state":"Tamil Nadu"},{"pinCodeSeq":6106,"postOfficeName":"Tirumangalam","pinCode":"626706","city":"Madurai","district":"Madurai","state":"Tamil Nadu"},{"pinCodeSeq":6107,"postOfficeName":"Tirumangalam South","pinCode":"626706","city":"Madurai","district":"Madurai","state":"Tamil Nadu"},{"pinCodeSeq":6108,"postOfficeName":"Tirumani","pinCode":"626706","city":"Madurai","district":"Madurai","state":"Tamil Nadu"},{"pinCodeSeq":6109,"postOfficeName":"Pudunagar","pinCode":"626709","city":"Madurai","district":"Madurai","state":"Tamil Nadu"},{"pinCodeSeq":6110,"postOfficeName":"Tirali","pinCode":"626712","city":"Madurai","district":"Madurai","state":"Tamil Nadu"},{"pinCodeSeq":6112,"postOfficeName":"Sengapadi","pinCode":"626717","city":"Madurai","district":"Madurai","state":"Tamil Nadu"},{"pinCodeSeq":6113,"postOfficeName":"Sathangudi","pinCode":"626719","city":"Madurai","district":"Madurai","state":"Tamil Nadu"},{"pinCodeSeq":7129,"postOfficeName":"Nagamalai","pinCode":"636815","city":"Madurai","district":"Madurai","state":"Tamil Nadu"},{"pinCodeSeq":7216,"postOfficeName":"Periyar","pinCode":"638001","city":"Madurai","district":"Madurai","state":"Tamil Nadu"},{"pinCodeSeq":7217,"postOfficeName":"Erode Railway Colony","pinCode":"638002","city":"Madurai","district":"Madurai","state":"Tamil Nadu"},{"pinCodeSeq":7218,"postOfficeName":"Tirunagar Colony","pinCode":"638003","city":"Madurai","district":"Madurai","state":"Tamil Nadu"},{"pinCodeSeq":7219,"postOfficeName":"Chikkiah Naicker College","pinCode":"638004","city":"Madurai","district":"Madurai","state":"Tamil Nadu"},{"pinCodeSeq":7220,"postOfficeName":"Veerappanchattam","pinCode":"638004","city":"Madurai","district":"Madurai","state":"Tamil Nadu"},{"pinCodeSeq":7221,"postOfficeName":"Peria Agraharam","pinCode":"638005","city":"Madurai","district":"Madurai","state":"Tamil Nadu"},{"pinCodeSeq":7222,"postOfficeName":"Cuvvery R S","pinCode":"638007","city":"Madurai","district":"Madurai","state":"Tamil Nadu"},{"pinCodeSeq":7224,"postOfficeName":"Edayankattu Valasu","pinCode":"638009","city":"Madurai","district":"Madurai","state":"Tamil Nadu"},{"pinCodeSeq":7226,"postOfficeName":"Boards Colony","pinCode":"638010","city":"Madurai","district":"Madurai","state":"Tamil Nadu"},{"pinCodeSeq":7227,"postOfficeName":"Erode Collectorate","pinCode":"638011","city":"Madurai","district":"Madurai","state":"Tamil Nadu"},{"pinCodeSeq":7229,"postOfficeName":"Melapalayam","pinCode":"638051","city":"Madurai","district":"Madurai","state":"Tamil Nadu"},{"pinCodeSeq":7232,"postOfficeName":"Sanatorium","pinCode":"638053","city":"Madurai","district":"Madurai","state":"Tamil Nadu"},{"pinCodeSeq":7233,"postOfficeName":"Siruvalur","pinCode":"638054","city":"Madurai","district":"Madurai","state":"Tamil Nadu"},{"pinCodeSeq":7234,"postOfficeName":"Tingalur","pinCode":"638055","city":"Madurai","district":"Madurai","state":"Tamil Nadu"},{"pinCodeSeq":7235,"postOfficeName":"Vijayamangalam","pinCode":"638056","city":"Madurai","district":"Madurai","state":"Tamil Nadu"},{"pinCodeSeq":7236,"postOfficeName":"Tudipathi","pinCode":"638057","city":"Madurai","district":"Madurai","state":"Tamil Nadu"},{"pinCodeSeq":7237,"postOfficeName":"Ingur","pinCode":"638058","city":"Madurai","district":"Madurai","state":"Tamil Nadu"},{"pinCodeSeq":7238,"postOfficeName":"Vellankoil","pinCode":"638059","city":"Madurai","district":"Madurai","state":"Tamil Nadu"},{"pinCodeSeq":7239,"postOfficeName":"Chittode","pinCode":"638102","city":"Madurai","district":"Madurai","state":"Tamil Nadu"},{"pinCodeSeq":7241,"postOfficeName":"Kunnathur Erode","pinCode":"638103","city":"Madurai","district":"Madurai","state":"Tamil Nadu"},{"pinCodeSeq":7246,"postOfficeName":"Nathakadayur","pinCode":"638108","city":"Madurai","district":"Madurai","state":"Tamil Nadu"},{"pinCodeSeq":7248,"postOfficeName":"Getticheyur","pinCode":"638110","city":"Madurai","district":"Madurai","state":"Tamil Nadu"},{"pinCodeSeq":7251,"postOfficeName":"Vadamugam Vellodu","pinCode":"638112","city":"Madurai","district":"Madurai","state":"Tamil Nadu"},{"pinCodeSeq":7252,"postOfficeName":"Avalpundurai","pinCode":"638115","city":"Madurai","district":"Madurai","state":"Tamil Nadu"},{"pinCodeSeq":7254,"postOfficeName":"Kanagapuram","pinCode":"638117","city":"Madurai","district":"Madurai","state":"Tamil Nadu"},{"pinCodeSeq":7255,"postOfficeName":"Thandampalayam","pinCode":"638118","city":"Madurai","district":"Madurai","state":"Tamil Nadu"},{"pinCodeSeq":7256,"postOfficeName":"Periyar","pinCode":"638129","city":"Madurai","district":"Madurai","state":"Tamil Nadu"},{"pinCodeSeq":7260,"postOfficeName":"Unjalur","pinCode":"638152","city":"Madurai","district":"Madurai","state":"Tamil Nadu"},{"pinCodeSeq":7261,"postOfficeName":"Ganapathipalayam","pinCode":"638153","city":"Madurai","district":"Madurai","state":"Tamil Nadu"},{"pinCodeSeq":7267,"postOfficeName":"Jakkarpalayam","pinCode":"638202","city":"Madurai","district":"Madurai","state":"Tamil Nadu"},{"pinCodeSeq":7270,"postOfficeName":"Peddappampatti","pinCode":"638205","city":"Madurai","district":"Madurai","state":"Tamil Nadu"},{"pinCodeSeq":7271,"postOfficeName":"Pulavadi","pinCode":"638206","city":"Madurai","district":"Madurai","state":"Tamil Nadu"},{"pinCodeSeq":7272,"postOfficeName":"Pungamuthur","pinCode":"638207","city":"Madurai","district":"Madurai","state":"Tamil Nadu"},{"pinCodeSeq":7275,"postOfficeName":"Bhavanikudal","pinCode":"638301","city":"Madurai","district":"Madurai","state":"Tamil Nadu"},{"pinCodeSeq":7276,"postOfficeName":"Bhavani Cutchery","pinCode":"638302","city":"Madurai","district":"Madurai","state":"Tamil Nadu"},{"pinCodeSeq":7277,"postOfficeName":"Ammapettai Bhavani","pinCode":"638311","city":"Madurai","district":"Madurai","state":"Tamil Nadu"},{"pinCodeSeq":7279,"postOfficeName":"Palayam","pinCode":"638312","city":"Madurai","district":"Madurai","state":"Tamil Nadu"},{"pinCodeSeq":7280,"postOfficeName":"Kugalur","pinCode":"638313","city":"Madurai","district":"Madurai","state":"Tamil Nadu"},{"pinCodeSeq":7282,"postOfficeName":"Sakthinagar","pinCode":"638315","city":"Madurai","district":"Madurai","state":"Tamil Nadu"},{"pinCodeSeq":7283,"postOfficeName":"Vasavi College","pinCode":"638316","city":"Madurai","district":"Madurai","state":"Tamil Nadu"},{"pinCodeSeq":7284,"postOfficeName":"Periyar","pinCode":"638319","city":"Madurai","district":"Madurai","state":"Tamil Nadu"},{"pinCodeSeq":7286,"postOfficeName":"Dalavoipettai","pinCode":"638327","city":"Madurai","district":"Madurai","state":"Tamil Nadu"},{"pinCodeSeq":7287,"postOfficeName":"Chinnapallam","pinCode":"638328","city":"Madurai","district":"Madurai","state":"Tamil Nadu"},{"pinCodeSeq":7288,"postOfficeName":"Satyamangalam Bazaar","pinCode":"638401","city":"Madurai","district":"Madurai","state":"Tamil Nadu"},{"pinCodeSeq":7289,"postOfficeName":"Satyamangalam Cbe","pinCode":"638401","city":"Madurai","district":"Madurai","state":"Tamil Nadu"},{"pinCodeSeq":7291,"postOfficeName":"Yavilipalayam","pinCode":"638403","city":"Madurai","district":"Madurai","state":"Tamil Nadu"},{"pinCodeSeq":7292,"postOfficeName":"Ukkaram","pinCode":"638404","city":"Madurai","district":"Madurai","state":"Tamil Nadu"},{"pinCodeSeq":7294,"postOfficeName":"Bharatiyar University","pinCode":"638451","city":"Madurai","district":"Madurai","state":"Tamil Nadu"},{"pinCodeSeq":7296,"postOfficeName":"Gobichettipalayam East","pinCode":"638452","city":"Madurai","district":"Madurai","state":"Tamil Nadu"},{"pinCodeSeq":7297,"postOfficeName":"Gobichettipalayam H O","pinCode":"638452","city":"Madurai","district":"Madurai","state":"Tamil Nadu"},{"pinCodeSeq":7298,"postOfficeName":"Modachur","pinCode":"638452","city":"Madurai","district":"Madurai","state":"Tamil Nadu"},{"pinCodeSeq":7300,"postOfficeName":"Karattadipalayam","pinCode":"638453","city":"Madurai","district":"Madurai","state":"Tamil Nadu"},{"pinCodeSeq":7301,"postOfficeName":"Kasipalayam","pinCode":"638454","city":"Madurai","district":"Madurai","state":"Tamil Nadu"},{"pinCodeSeq":7302,"postOfficeName":"Kolappalure Cbe","pinCode":"638456","city":"Madurai","district":"Madurai","state":"Tamil Nadu"},{"pinCodeSeq":7303,"postOfficeName":"Kurumandur","pinCode":"638457","city":"Madurai","district":"Madurai","state":"Tamil Nadu"},{"pinCodeSeq":7305,"postOfficeName":"Pulimpatti","pinCode":"638459","city":"Madurai","district":"Madurai","state":"Tamil Nadu"},{"pinCodeSeq":7306,"postOfficeName":"Savakattupalayam","pinCode":"638460","city":"Madurai","district":"Madurai","state":"Tamil Nadu"},{"pinCodeSeq":7307,"postOfficeName":"Talavadi","pinCode":"638461","city":"Madurai","district":"Madurai","state":"Tamil Nadu"},{"pinCodeSeq":7308,"postOfficeName":"Vemandanpalayam","pinCode":"638462","city":"Madurai","district":"Madurai","state":"Tamil Nadu"},{"pinCodeSeq":7309,"postOfficeName":"Kadathur Gobi","pinCode":"638466","city":"Madurai","district":"Madurai","state":"Tamil Nadu"},{"pinCodeSeq":7310,"postOfficeName":"Pariyur Vellapalayam","pinCode":"638469","city":"Madurai","district":"Madurai","state":"Tamil Nadu"},{"pinCodeSeq":7311,"postOfficeName":"Periapuliyur","pinCode":"638470","city":"Madurai","district":"Madurai","state":"Tamil Nadu"},{"pinCodeSeq":7312,"postOfficeName":"Selangapalayam","pinCode":"638471","city":"Madurai","district":"Madurai","state":"Tamil Nadu"},{"pinCodeSeq":7313,"postOfficeName":"Gobiohetti Palayam South","pinCode":"638476","city":"Madurai","district":"Madurai","state":"Tamil Nadu"},{"pinCodeSeq":7315,"postOfficeName":"Thavittupalayam","pinCode":"638501","city":"Madurai","district":"Madurai","state":"Tamil Nadu"},{"pinCodeSeq":7317,"postOfficeName":"Dasappagoundanpudur","pinCode":"638503","city":"Madurai","district":"Madurai","state":"Tamil Nadu"},{"pinCodeSeq":7318,"postOfficeName":"Guruvareddiyur","pinCode":"638504","city":"Madurai","district":"Madurai","state":"Tamil Nadu"},{"pinCodeSeq":7319,"postOfficeName":"Kallipatti","pinCode":"638505","city":"Madurai","district":"Madurai","state":"Tamil Nadu"},{"pinCodeSeq":7320,"postOfficeName":"Thuckaickanpalayam","pinCode":"638506","city":"Madurai","district":"Madurai","state":"Tamil Nadu"},{"pinCodeSeq":7321,"postOfficeName":"Brahmadesam","pinCode":"638511","city":"Madurai","district":"Madurai","state":"Tamil Nadu"},{"pinCodeSeq":7322,"postOfficeName":"Tirupur Bazar","pinCode":"638601","city":"Madurai","district":"Madurai","state":"Tamil Nadu"},{"pinCodeSeq":7323,"postOfficeName":"Tirupur H O","pinCode":"638601","city":"Madurai","district":"Madurai","state":"Tamil Nadu"},{"pinCodeSeq":7324,"postOfficeName":"Perumanallur Road","pinCode":"638602","city":"Madurai","district":"Madurai","state":"Tamil Nadu"},{"pinCodeSeq":7325,"postOfficeName":"Tirupur North","pinCode":"638602","city":"Madurai","district":"Madurai","state":"Tamil Nadu"},{"pinCodeSeq":7326,"postOfficeName":"Tirupuvanam","pinCode":"638602","city":"Madurai","district":"Madurai","state":"Tamil Nadu"},{"pinCodeSeq":7327,"postOfficeName":"Gandhi Nagar Tirupur","pinCode":"638603","city":"Madurai","district":"Madurai","state":"Tamil Nadu"},{"pinCodeSeq":7328,"postOfficeName":"Kumaranagar","pinCode":"638603","city":"Madurai","district":"Madurai","state":"Tamil Nadu"},{"pinCodeSeq":7330,"postOfficeName":"Vijayapuram","pinCode":"638606","city":"Madurai","district":"Madurai","state":"Tamil Nadu"},{"pinCodeSeq":7331,"postOfficeName":"Tirupur East","pinCode":"638607","city":"Madurai","district":"Madurai","state":"Tamil Nadu"},{"pinCodeSeq":7332,"postOfficeName":"Anuppapalayam","pinCode":"638652","city":"Madurai","district":"Madurai","state":"Tamil Nadu"},{"pinCodeSeq":7333,"postOfficeName":"Annur","pinCode":"638653","city":"Madurai","district":"Madurai","state":"Tamil Nadu"},{"pinCodeSeq":7335,"postOfficeName":"Renganathapuram","pinCode":"638654","city":"Madurai","district":"Madurai","state":"Tamil Nadu"},{"pinCodeSeq":7336,"postOfficeName":"Cheyur","pinCode":"638655","city":"Madurai","district":"Madurai","state":"Tamil Nadu"},{"pinCodeSeq":7337,"postOfficeName":"Cholakadai Street","pinCode":"638656","city":"Madurai","district":"Madurai","state":"Tamil Nadu"},{"pinCodeSeq":7340,"postOfficeName":"Karadipavi","pinCode":"638658","city":"Madurai","district":"Madurai","state":"Tamil Nadu"},{"pinCodeSeq":7341,"postOfficeName":"Koduvoi","pinCode":"638660","city":"Madurai","district":"Madurai","state":"Tamil Nadu"},{"pinCodeSeq":7343,"postOfficeName":"Kuppuswamynaidupuram","pinCode":"638662","city":"Madurai","district":"Madurai","state":"Tamil Nadu"},{"pinCodeSeq":7344,"postOfficeName":"Mangalam-Cbe","pinCode":"638663","city":"Madurai","district":"Madurai","state":"Tamil Nadu"},{"pinCodeSeq":7346,"postOfficeName":"Pallikalipalayam","pinCode":"638665","city":"Madurai","district":"Madurai","state":"Tamil Nadu"},{"pinCodeSeq":7347,"postOfficeName":"Perumanallur","pinCode":"638666","city":"Madurai","district":"Madurai","state":"Tamil Nadu"},{"pinCodeSeq":7348,"postOfficeName":"Pongalur","pinCode":"638667","city":"Madurai","district":"Madurai","state":"Tamil Nadu"},{"pinCodeSeq":7349,"postOfficeName":"Somanur","pinCode":"638668","city":"Madurai","district":"Madurai","state":"Tamil Nadu"},{"pinCodeSeq":7350,"postOfficeName":"Suleswaranpatti","pinCode":"638669","city":"Madurai","district":"Madurai","state":"Tamil Nadu"},{"pinCodeSeq":7351,"postOfficeName":"Karavalur","pinCode":"638670","city":"Madurai","district":"Madurai","state":"Tamil Nadu"},{"pinCodeSeq":7352,"postOfficeName":"Kettanur","pinCode":"638671","city":"Madurai","district":"Madurai","state":"Tamil Nadu"},{"pinCodeSeq":7353,"postOfficeName":"Dalvoipatnam","pinCode":"638672","city":"Madurai","district":"Madurai","state":"Tamil Nadu"},{"pinCodeSeq":7354,"postOfficeName":"Kolinjivadi","pinCode":"638673","city":"Madurai","district":"Madurai","state":"Tamil Nadu"},{"pinCodeSeq":7355,"postOfficeName":"Jalakarisal","pinCode":"638675","city":"Madurai","district":"Madurai","state":"Tamil Nadu"},{"pinCodeSeq":7356,"postOfficeName":"Virajimangalam","pinCode":"638683","city":"Madurai","district":"Madurai","state":"Tamil Nadu"},{"pinCodeSeq":7357,"postOfficeName":"Karaipudur","pinCode":"638684","city":"Madurai","district":"Madurai","state":"Tamil Nadu"},{"pinCodeSeq":7358,"postOfficeName":"Iduvampalayam","pinCode":"638687","city":"Madurai","district":"Madurai","state":"Tamil Nadu"},{"pinCodeSeq":7359,"postOfficeName":"Thoppanpatti","pinCode":"638696","city":"Madurai","district":"Madurai","state":"Tamil Nadu"},{"pinCodeSeq":7360,"postOfficeName":"Pogalur","pinCode":"638697","city":"Madurai","district":"Madurai","state":"Tamil Nadu"},{"pinCodeSeq":7361,"postOfficeName":"Kanagayam North","pinCode":"638701","city":"Madurai","district":"Madurai","state":"Tamil Nadu"},{"pinCodeSeq":7362,"postOfficeName":"Kangayam","pinCode":"638701","city":"Madurai","district":"Madurai","state":"Tamil Nadu"},{"pinCodeSeq":7363,"postOfficeName":"Kundadam","pinCode":"638702","city":"Madurai","district":"Madurai","state":"Tamil Nadu"},{"pinCodeSeq":7364,"postOfficeName":"Udiyur","pinCode":"638703","city":"Madurai","district":"Madurai","state":"Tamil Nadu"},{"pinCodeSeq":7366,"postOfficeName":"Tayampalayam","pinCode":"638710","city":"Madurai","district":"Madurai","state":"Tamil Nadu"},{"pinCodeSeq":7367,"postOfficeName":"Technical Teachers","pinCode":"638710","city":"Madurai","district":"Madurai","state":"Tamil Nadu"},{"pinCodeSeq":7368,"postOfficeName":"Uttukuli","pinCode":"638751","city":"Madurai","district":"Madurai","state":"Tamil Nadu"},{"pinCodeSeq":7369,"postOfficeName":"Uttukuli R S","pinCode":"638752","city":"Madurai","district":"Madurai","state":"Tamil Nadu"},{"pinCodeSeq":7370,"postOfficeName":"Moperipalayam","pinCode":"638802","city":"Madurai","district":"Madurai","state":"Tamil Nadu"},{"pinCodeSeq":7371,"postOfficeName":"Muperipalayam","pinCode":"638802","city":"Madurai","district":"Madurai","state":"Tamil Nadu"},{"pinCodeSeq":7372,"postOfficeName":"Vadambacheri","pinCode":"638806","city":"Madurai","district":"Madurai","state":"Tamil Nadu"},{"pinCodeSeq":7373,"postOfficeName":"Vellavaripudur","pinCode":"638807","city":"Madurai","district":"Madurai","state":"Tamil Nadu"},{"pinCodeSeq":7374,"postOfficeName":"Chengapalli","pinCode":"638812","city":"Madurai","district":"Madurai","state":"Tamil Nadu"},{"pinCodeSeq":7375,"postOfficeName":"Karur Bazaar","pinCode":"639001","city":"Madurai","district":"Madurai","state":"Tamil Nadu"},{"pinCodeSeq":7376,"postOfficeName":"Karur H O","pinCode":"639001","city":"Madurai","district":"Madurai","state":"Tamil Nadu"},{"pinCodeSeq":7377,"postOfficeName":"Karur R S","pinCode":"639001","city":"Madurai","district":"Madurai","state":"Tamil Nadu"},{"pinCodeSeq":7378,"postOfficeName":"Karur West","pinCode":"639001","city":"Madurai","district":"Madurai","state":"Tamil Nadu"},{"pinCodeSeq":7380,"postOfficeName":"Sengundapuram","pinCode":"639002","city":"Madurai","district":"Madurai","state":"Tamil Nadu"},{"pinCodeSeq":7381,"postOfficeName":"Vaiapurinagar","pinCode":"639002","city":"Madurai","district":"Madurai","state":"Tamil Nadu"},{"pinCodeSeq":7382,"postOfficeName":"Tirumanilayur","pinCode":"639003","city":"Madurai","district":"Madurai","state":"Tamil Nadu"},{"pinCodeSeq":7383,"postOfficeName":"Pasupathipalayam","pinCode":"639004","city":"Madurai","district":"Madurai","state":"Tamil Nadu"},{"pinCodeSeq":7384,"postOfficeName":"Thanthonimalal","pinCode":"639005","city":"Madurai","district":"Madurai","state":"Tamil Nadu"},{"pinCodeSeq":7385,"postOfficeName":"Vengamedue","pinCode":"639006","city":"Madurai","district":"Madurai","state":"Tamil Nadu"},{"pinCodeSeq":7386,"postOfficeName":"Andanallur","pinCode":"639101","city":"Madurai","district":"Madurai","state":"Tamil Nadu"},{"pinCodeSeq":7388,"postOfficeName":"Kulumani","pinCode":"639103","city":"Madurai","district":"Madurai","state":"Tamil Nadu"},{"pinCodeSeq":7389,"postOfficeName":"Kulittalai Bazaar","pinCode":"639104","city":"Madurai","district":"Madurai","state":"Tamil Nadu"},{"pinCodeSeq":7390,"postOfficeName":"Kulittalai H O","pinCode":"639104","city":"Madurai","district":"Madurai","state":"Tamil Nadu"},{"pinCodeSeq":7391,"postOfficeName":"Lalapet","pinCode":"639105","city":"Madurai","district":"Madurai","state":"Tamil Nadu"},{"pinCodeSeq":7392,"postOfficeName":"Mahadanapuram Karur","pinCode":"639106","city":"Madurai","district":"Madurai","state":"Tamil Nadu"},{"pinCodeSeq":7394,"postOfficeName":"Mayanur","pinCode":"639108","city":"Madurai","district":"Madurai","state":"Tamil Nadu"},{"pinCodeSeq":7395,"postOfficeName":"Moolapatti","pinCode":"639109","city":"Madurai","district":"Madurai","state":"Tamil Nadu"},{"pinCodeSeq":7396,"postOfficeName":"Nungavaram","pinCode":"639110","city":"Madurai","district":"Madurai","state":"Tamil Nadu"},{"pinCodeSeq":7398,"postOfficeName":"Pettaivaithalai","pinCode":"639112","city":"Madurai","district":"Madurai","state":"Tamil Nadu"},{"pinCodeSeq":7399,"postOfficeName":"Pugalur Sugar Factory","pinCode":"639113","city":"Madurai","district":"Madurai","state":"Tamil Nadu"},{"pinCodeSeq":7400,"postOfficeName":"Tirupparaithurai","pinCode":"639115","city":"Madurai","district":"Madurai","state":"Tamil Nadu"},{"pinCodeSeq":7401,"postOfficeName":"Vangal","pinCode":"639116","city":"Madurai","district":"Madurai","state":"Tamil Nadu"},{"pinCodeSeq":7402,"postOfficeName":"Velayuthanpalayam","pinCode":"639117","city":"Madurai","district":"Madurai","state":"Tamil Nadu"},{"pinCodeSeq":7403,"postOfficeName":"Velliyanai","pinCode":"639118","city":"Madurai","district":"Madurai","state":"Tamil Nadu"},{"pinCodeSeq":7404,"postOfficeName":"Panjapatti","pinCode":"639119","city":"Madurai","district":"Madurai","state":"Tamil Nadu"},{"pinCodeSeq":7405,"postOfficeName":"Vaigallur","pinCode":"639120","city":"Madurai","district":"Madurai","state":"Tamil Nadu"},{"pinCodeSeq":7406,"postOfficeName":"Vangal East","pinCode":"639121","city":"Madurai","district":"Madurai","state":"Tamil Nadu"},{"pinCodeSeq":7407,"postOfficeName":"Nanjaipugalur","pinCode":"639144","city":"Madurai","district":"Madurai","state":"Tamil Nadu"},{"pinCodeSeq":7408,"postOfficeName":"Timmachipuram","pinCode":"639147","city":"Madurai","district":"Madurai","state":"Tamil Nadu"},{"pinCodeSeq":7410,"postOfficeName":"Chinnadharapuram","pinCode":"639202","city":"Madurai","district":"Madurai","state":"Tamil Nadu"},{"pinCodeSeq":7411,"postOfficeName":"Isanatham","pinCode":"639203","city":"Madurai","district":"Madurai","state":"Tamil Nadu"},{"pinCodeSeq":7414,"postOfficeName":"Tennilai","pinCode":"639206","city":"Madurai","district":"Madurai","state":"Tamil Nadu"},{"pinCodeSeq":7416,"postOfficeName":"Periyar","pinCode":"639210","city":"Madurai","district":"Madurai","state":"Tamil Nadu"},{"pinCodeSeq":7417,"postOfficeName":"Periyar","pinCode":"639212","city":"Madurai","district":"Madurai","state":"Tamil Nadu"},{"pinCodeSeq":7504,"postOfficeName":"Athikadavu","pinCode":"641102","city":"Madurai","district":"Madurai","state":"Tamil Nadu"},{"pinCodeSeq":7516,"postOfficeName":"Seelaiyur","pinCode":"641113","city":"Madurai","district":"Madurai","state":"Tamil Nadu"},{"pinCodeSeq":7533,"postOfficeName":"Akkaraisengapalli","pinCode":"641304","city":"Madurai","district":"Madurai","state":"Tamil Nadu"},{"pinCodeSeq":7534,"postOfficeName":"Mahadevapuram","pinCode":"641305","city":"Madurai","district":"Madurai","state":"Tamil Nadu"}]