[{"pinCodeSeq":4686,"postOfficeName":"Kadavasal","pinCode":"609104","city":"Nagapattinam","district":"Nagapattinam","state":"Tamil Nadu"},{"pinCodeSeq":4690,"postOfficeName":"Sattanathapuram","pinCode":"609109","city":"Nagapattinam","district":"Nagapattinam","state":"Tamil Nadu"},{"pinCodeSeq":4691,"postOfficeName":"Sirkali East","pinCode":"609110","city":"Nagapattinam","district":"Nagapattinam","state":"Tamil Nadu"},{"pinCodeSeq":4692,"postOfficeName":"Sirkali H O","pinCode":"609110","city":"Nagapattinam","district":"Nagapattinam","state":"Tamil Nadu"},{"pinCodeSeq":4698,"postOfficeName":"Valluvakudi","pinCode":"609116","city":"Nagapattinam","district":"Nagapattinam","state":"Tamil Nadu"},{"pinCodeSeq":4702,"postOfficeName":"Pagasalai","pinCode":"609120","city":"Nagapattinam","district":"Nagapattinam","state":"Tamil Nadu"},{"pinCodeSeq":4705,"postOfficeName":"Vanagiri","pinCode":"609123","city":"Nagapattinam","district":"Nagapattinam","state":"Tamil Nadu"},{"pinCodeSeq":4710,"postOfficeName":"Arapallam","pinCode":"609128","city":"Nagapattinam","district":"Nagapattinam","state":"Tamil Nadu"},{"pinCodeSeq":4712,"postOfficeName":"Palayapalayam","pinCode":"609130","city":"Nagapattinam","district":"Nagapattinam","state":"Tamil Nadu"},{"pinCodeSeq":4713,"postOfficeName":"Edamanal","pinCode":"609131","city":"Nagapattinam","district":"Nagapattinam","state":"Tamil Nadu"},{"pinCodeSeq":4815,"postOfficeName":"Nagapattinam Bazaar","pinCode":"611001","city":"Nagapattinam","district":"Nagapattinam","state":"Tamil Nadu"},{"pinCodeSeq":4816,"postOfficeName":"Nagapattinam Beach","pinCode":"611001","city":"Nagapattinam","district":"Nagapattinam","state":"Tamil Nadu"},{"pinCodeSeq":4817,"postOfficeName":"Nagapattinam city","pinCode":"611001","city":"Nagapattinam","district":"Nagapattinam","state":"Tamil Nadu"},{"pinCodeSeq":4818,"postOfficeName":"Nagapattinam H O","pinCode":"611001","city":"Nagapattinam","district":"Nagapattinam","state":"Tamil Nadu"},{"pinCodeSeq":4819,"postOfficeName":"Nagapattinam North","pinCode":"611001","city":"Nagapattinam","district":"Nagapattinam","state":"Tamil Nadu"},{"pinCodeSeq":4820,"postOfficeName":"Nagapattinam Public Offic","pinCode":"611001","city":"Nagapattinam","district":"Nagapattinam","state":"Tamil Nadu"},{"pinCodeSeq":5376,"postOfficeName":"Karaiyur","pinCode":"622054","city":"Nagapattinam","district":"Nagapattinam","state":"Tamil Nadu"},{"pinCodeSeq":5686,"postOfficeName":"Tenkarai","pinCode":"624226","city":"Nagapattinam","district":"Nagapattinam","state":"Tamil Nadu"}]