[{"pinCodeSeq":5051,"postOfficeName":"Arantagi","pinCode":"614616","city":"Pudukottai","district":"Pudukottai","state":"Tamil Nadu"},{"pinCodeSeq":5130,"postOfficeName":"Arasarkulam","pinCode":"614801","city":"Pudukottai","district":"Pudukottai","state":"Tamil Nadu"},{"pinCodeSeq":5321,"postOfficeName":"Viralimalai","pinCode":"621316","city":"Pudukottai","district":"Pudukottai","state":"Tamil Nadu"},{"pinCodeSeq":5356,"postOfficeName":"Ambalpuram","pinCode":"622001","city":"Pudukottai","district":"Pudukottai","state":"Tamil Nadu"},{"pinCodeSeq":5357,"postOfficeName":"Bhuvaneswari Nagar","pinCode":"622001","city":"Pudukottai","district":"Pudukottai","state":"Tamil Nadu"},{"pinCodeSeq":5358,"postOfficeName":"Gandhi Nagar","pinCode":"622001","city":"Pudukottai","district":"Pudukottai","state":"Tamil Nadu"},{"pinCodeSeq":5359,"postOfficeName":"Ganesh Nagar","pinCode":"622001","city":"Pudukottai","district":"Pudukottai","state":"Tamil Nadu"},{"pinCodeSeq":5360,"postOfficeName":"Machuvadi","pinCode":"622001","city":"Pudukottai","district":"Pudukottai","state":"Tamil Nadu"},{"pinCodeSeq":5361,"postOfficeName":"Pillithannerpandal","pinCode":"622001","city":"Pudukottai","district":"Pudukottai","state":"Tamil Nadu"},{"pinCodeSeq":5362,"postOfficeName":"Podukottai","pinCode":"622001","city":"Pudukottai","district":"Pudukottai","state":"Tamil Nadu"},{"pinCodeSeq":5364,"postOfficeName":"Pudukkottai East","pinCode":"622001","city":"Pudukottai","district":"Pudukottai","state":"Tamil Nadu"},{"pinCodeSeq":5365,"postOfficeName":"Pudukkottai Public Office","pinCode":"622001","city":"Pudukottai","district":"Pudukottai","state":"Tamil Nadu"},{"pinCodeSeq":5366,"postOfficeName":"Santhanathapuram","pinCode":"622001","city":"Pudukottai","district":"Pudukottai","state":"Tamil Nadu"},{"pinCodeSeq":5367,"postOfficeName":"Tirugokarnam","pinCode":"622002","city":"Pudukottai","district":"Pudukottai","state":"Tamil Nadu"},{"pinCodeSeq":5368,"postOfficeName":"Rajagopalapuram","pinCode":"622003","city":"Pudukottai","district":"Pudukottai","state":"Tamil Nadu"},{"pinCodeSeq":5369,"postOfficeName":"Tiruvappur","pinCode":"622003","city":"Pudukottai","district":"Pudukottai","state":"Tamil Nadu"},{"pinCodeSeq":5370,"postOfficeName":"Pudukkottai Ind Estate","pinCode":"622004","city":"Pudukottai","district":"Pudukottai","state":"Tamil Nadu"},{"pinCodeSeq":5371,"postOfficeName":"Collectorate","pinCode":"622005","city":"Pudukottai","district":"Pudukottai","state":"Tamil Nadu"},{"pinCodeSeq":5372,"postOfficeName":"Thanjur","pinCode":"622009","city":"Pudukottai","district":"Pudukottai","state":"Tamil Nadu"},{"pinCodeSeq":5373,"postOfficeName":"Tirumayanur","pinCode":"622009","city":"Pudukottai","district":"Pudukottai","state":"Tamil Nadu"},{"pinCodeSeq":5374,"postOfficeName":"Vadavalam","pinCode":"622052","city":"Pudukottai","district":"Pudukottai","state":"Tamil Nadu"},{"pinCodeSeq":5375,"postOfficeName":"Namanasamudram","pinCode":"622053","city":"Pudukottai","district":"Pudukottai","state":"Tamil Nadu"},{"pinCodeSeq":5377,"postOfficeName":"Maravamadurai","pinCode":"622055","city":"Pudukottai","district":"Pudukottai","state":"Tamil Nadu"},{"pinCodeSeq":5378,"postOfficeName":"Melathanjair","pinCode":"622056","city":"Pudukottai","district":"Pudukottai","state":"Tamil Nadu"},{"pinCodeSeq":5380,"postOfficeName":"Illupur","pinCode":"622102","city":"Pudukottai","district":"Pudukottai","state":"Tamil Nadu"},{"pinCodeSeq":5381,"postOfficeName":"Muckanamalaipatti","pinCode":"622103","city":"Pudukottai","district":"Pudukottai","state":"Tamil Nadu"},{"pinCodeSeq":5382,"postOfficeName":"Vayalogam","pinCode":"622104","city":"Pudukottai","district":"Pudukottai","state":"Tamil Nadu"},{"pinCodeSeq":5383,"postOfficeName":"Narthamalai","pinCode":"622105","city":"Pudukottai","district":"Pudukottai","state":"Tamil Nadu"},{"pinCodeSeq":5384,"postOfficeName":"Kudimiamalai","pinCode":"622106","city":"Pudukottai","district":"Pudukottai","state":"Tamil Nadu"},{"pinCodeSeq":5385,"postOfficeName":"Perambur","pinCode":"622107","city":"Pudukottai","district":"Pudukottai","state":"Tamil Nadu"},{"pinCodeSeq":5386,"postOfficeName":"Virapatti","pinCode":"622108","city":"Pudukottai","district":"Pudukottai","state":"Tamil Nadu"},{"pinCodeSeq":5388,"postOfficeName":"Kilanilai","pinCode":"622202","city":"Pudukottai","district":"Pudukottai","state":"Tamil Nadu"},{"pinCodeSeq":5390,"postOfficeName":"Yembal","pinCode":"622204","city":"Pudukottai","district":"Pudukottai","state":"Tamil Nadu"},{"pinCodeSeq":5391,"postOfficeName":"Vennavalkudi","pinCode":"622205","city":"Pudukottai","district":"Pudukottai","state":"Tamil Nadu"},{"pinCodeSeq":5392,"postOfficeName":"Odayalipatti","pinCode":"622206","city":"Pudukottai","district":"Pudukottai","state":"Tamil Nadu"},{"pinCodeSeq":5393,"postOfficeName":"Andakulam","pinCode":"622207","city":"Pudukottai","district":"Pudukottai","state":"Tamil Nadu"},{"pinCodeSeq":5394,"postOfficeName":"Kummangudi","pinCode":"622208","city":"Pudukottai","district":"Pudukottai","state":"Tamil Nadu"},{"pinCodeSeq":5395,"postOfficeName":"Addanakottai","pinCode":"622210","city":"Pudukottai","district":"Pudukottai","state":"Tamil Nadu"},{"pinCodeSeq":5396,"postOfficeName":"Okkur Perundamarai","pinCode":"622211","city":"Pudukottai","district":"Pudukottai","state":"Tamil Nadu"},{"pinCodeSeq":5397,"postOfficeName":"Kulavaipatti","pinCode":"622212","city":"Pudukottai","district":"Pudukottai","state":"Tamil Nadu"},{"pinCodeSeq":5398,"postOfficeName":"Chokkanathapatti","pinCode":"622213","city":"Pudukottai","district":"Pudukottai","state":"Tamil Nadu"},{"pinCodeSeq":5399,"postOfficeName":"Sokknathapatti","pinCode":"622213","city":"Pudukottai","district":"Pudukottai","state":"Tamil Nadu"},{"pinCodeSeq":5401,"postOfficeName":"Karambakudi","pinCode":"622302","city":"Pudukottai","district":"Pudukottai","state":"Tamil Nadu"},{"pinCodeSeq":5402,"postOfficeName":"Tiruvarankulam","pinCode":"622303","city":"Pudukottai","district":"Pudukottai","state":"Tamil Nadu"},{"pinCodeSeq":5403,"postOfficeName":"Vadakadu","pinCode":"622304","city":"Pudukottai","district":"Pudukottai","state":"Tamil Nadu"},{"pinCodeSeq":5404,"postOfficeName":"Vallathirkottai","pinCode":"622305","city":"Pudukottai","district":"Pudukottai","state":"Tamil Nadu"},{"pinCodeSeq":5405,"postOfficeName":"Malaiyur","pinCode":"622306","city":"Pudukottai","district":"Pudukottai","state":"Tamil Nadu"},{"pinCodeSeq":5406,"postOfficeName":"Ponnanviduthi","pinCode":"622307","city":"Pudukottai","district":"Pudukottai","state":"Tamil Nadu"},{"pinCodeSeq":5407,"postOfficeName":"Vambam Colony","pinCode":"622309","city":"Pudukottai","district":"Pudukottai","state":"Tamil Nadu"},{"pinCodeSeq":5408,"postOfficeName":"Venkatakulam","pinCode":"622310","city":"Pudukottai","district":"Pudukottai","state":"Tamil Nadu"},{"pinCodeSeq":5409,"postOfficeName":"Kothakottai","pinCode":"622311","city":"Pudukottai","district":"Pudukottai","state":"Tamil Nadu"},{"pinCodeSeq":5410,"postOfficeName":"Vamban","pinCode":"622312","city":"Pudukottai","district":"Pudukottai","state":"Tamil Nadu"},{"pinCodeSeq":5411,"postOfficeName":"Mangottai","pinCode":"622313","city":"Pudukottai","district":"Pudukottai","state":"Tamil Nadu"},{"pinCodeSeq":5412,"postOfficeName":"Pallavarampatti","pinCode":"622314","city":"Pudukottai","district":"Pudukottai","state":"Tamil Nadu"},{"pinCodeSeq":5413,"postOfficeName":"Sooranviduthi","pinCode":"622315","city":"Pudukottai","district":"Pudukottai","state":"Tamil Nadu"},{"pinCodeSeq":5414,"postOfficeName":"Puvarasakudi","pinCode":"622316","city":"Pudukottai","district":"Pudukottai","state":"Tamil Nadu"},{"pinCodeSeq":5415,"postOfficeName":"Kaikurichi","pinCode":"622317","city":"Pudukottai","district":"Pudukottai","state":"Tamil Nadu"},{"pinCodeSeq":5416,"postOfficeName":"Koppanapatti","pinCode":"622401","city":"Pudukottai","district":"Pudukottai","state":"Tamil Nadu"},{"pinCodeSeq":5417,"postOfficeName":"Kulipirai","pinCode":"622402","city":"Pudukottai","district":"Pudukottai","state":"Tamil Nadu"},{"pinCodeSeq":5418,"postOfficeName":"Melasivapuri","pinCode":"622403","city":"Pudukottai","district":"Pudukottai","state":"Tamil Nadu"},{"pinCodeSeq":5419,"postOfficeName":"Nachandupatti","pinCode":"622404","city":"Pudukottai","district":"Pudukottai","state":"Tamil Nadu"},{"pinCodeSeq":5421,"postOfficeName":"Panayapatti","pinCode":"622406","city":"Pudukottai","district":"Pudukottai","state":"Tamil Nadu"},{"pinCodeSeq":5422,"postOfficeName":"Ponnamaravath","pinCode":"622407","city":"Pudukottai","district":"Pudukottai","state":"Tamil Nadu"},{"pinCodeSeq":5423,"postOfficeName":"Pudupatti Pudukkottai","pinCode":"622408","city":"Pudukottai","district":"Pudukottai","state":"Tamil Nadu"},{"pinCodeSeq":5424,"postOfficeName":"Rangiem","pinCode":"622409","city":"Pudukottai","district":"Pudukottai","state":"Tamil Nadu"},{"pinCodeSeq":5425,"postOfficeName":"Ulagampatti","pinCode":"622410","city":"Pudukottai","district":"Pudukottai","state":"Tamil Nadu"},{"pinCodeSeq":5426,"postOfficeName":"Valayapatti Pdk","pinCode":"622411","city":"Pudukottai","district":"Pudukottai","state":"Tamil Nadu"},{"pinCodeSeq":5427,"postOfficeName":"Virachilai","pinCode":"622412","city":"Pudukottai","district":"Pudukottai","state":"Tamil Nadu"},{"pinCodeSeq":5428,"postOfficeName":"Pulankurichi","pinCode":"622413","city":"Pudukottai","district":"Pudukottai","state":"Tamil Nadu"},{"pinCodeSeq":5429,"postOfficeName":"Tirukalambur","pinCode":"622414","city":"Pudukottai","district":"Pudukottai","state":"Tamil Nadu"},{"pinCodeSeq":5430,"postOfficeName":"Kuruvikondanpatti","pinCode":"622415","city":"Pudukottai","district":"Pudukottai","state":"Tamil Nadu"},{"pinCodeSeq":5431,"postOfficeName":"V Pudur","pinCode":"622416","city":"Pudukottai","district":"Pudukottai","state":"Tamil Nadu"},{"pinCodeSeq":5432,"postOfficeName":"Varapurpudur","pinCode":"622416","city":"Pudukottai","district":"Pudukottai","state":"Tamil Nadu"},{"pinCodeSeq":5433,"postOfficeName":"Sevvur","pinCode":"622417","city":"Pudukottai","district":"Pudukottai","state":"Tamil Nadu"},{"pinCodeSeq":5434,"postOfficeName":"Vendanpatti","pinCode":"622419","city":"Pudukottai","district":"Pudukottai","state":"Tamil Nadu"},{"pinCodeSeq":5435,"postOfficeName":"Melapanaiyur","pinCode":"622420","city":"Pudukottai","district":"Pudukottai","state":"Tamil Nadu"},{"pinCodeSeq":5436,"postOfficeName":"Lambalakudi","pinCode":"622421","city":"Pudukottai","district":"Pudukottai","state":"Tamil Nadu"},{"pinCodeSeq":5437,"postOfficeName":"Cauverynagar","pinCode":"622501","city":"Pudukottai","district":"Pudukottai","state":"Tamil Nadu"},{"pinCodeSeq":5438,"postOfficeName":"Keeranur Pudukottai","pinCode":"622502","city":"Pudukottai","district":"Pudukottai","state":"Tamil Nadu"},{"pinCodeSeq":5439,"postOfficeName":"Konapet","pinCode":"622503","city":"Pudukottai","district":"Pudukottai","state":"Tamil Nadu"},{"pinCodeSeq":5440,"postOfficeName":"Kulathur Pudukkottai","pinCode":"622504","city":"Pudukottai","district":"Pudukottai","state":"Tamil Nadu"},{"pinCodeSeq":5441,"postOfficeName":"Ramachandrapuram","pinCode":"622505","city":"Pudukottai","district":"Pudukottai","state":"Tamil Nadu"},{"pinCodeSeq":5442,"postOfficeName":"Rayavaram","pinCode":"622506","city":"Pudukottai","district":"Pudukottai","state":"Tamil Nadu"},{"pinCodeSeq":5443,"postOfficeName":"Tirumayam","pinCode":"622507","city":"Pudukottai","district":"Pudukottai","state":"Tamil Nadu"},{"pinCodeSeq":5444,"postOfficeName":"Kunnandarkoil","pinCode":"622508","city":"Pudukottai","district":"Pudukottai","state":"Tamil Nadu"},{"pinCodeSeq":5445,"postOfficeName":"Tekkattur","pinCode":"622509","city":"Pudukottai","district":"Pudukottai","state":"Tamil Nadu"},{"pinCodeSeq":5446,"postOfficeName":"Thekkattur","pinCode":"622509","city":"Pudukottai","district":"Pudukottai","state":"Tamil Nadu"},{"pinCodeSeq":5447,"postOfficeName":"Mathur Keeranur","pinCode":"622510","city":"Pudukottai","district":"Pudukottai","state":"Tamil Nadu"},{"pinCodeSeq":5448,"postOfficeName":"Puthambur","pinCode":"622511","city":"Pudukottai","district":"Pudukottai","state":"Tamil Nadu"},{"pinCodeSeq":5449,"postOfficeName":"Vellanur","pinCode":"622512","city":"Pudukottai","district":"Pudukottai","state":"Tamil Nadu"},{"pinCodeSeq":5450,"postOfficeName":"Mandaiyur","pinCode":"622513","city":"Pudukottai","district":"Pudukottai","state":"Tamil Nadu"},{"pinCodeSeq":5451,"postOfficeName":"Hiradayapuram","pinCode":"622514","city":"Pudukottai","district":"Pudukottai","state":"Tamil Nadu"},{"pinCodeSeq":5452,"postOfficeName":"Mathur Ind Est Pudukkotta","pinCode":"622515","city":"Pudukottai","district":"Pudukottai","state":"Tamil Nadu"}]