[{"pinCodeSeq":5520,"postOfficeName":"Nambuthalai","pinCode":"623403","city":"Ramanathapuram","district":"Ramanathapuram","state":"Tamil Nadu"},{"pinCodeSeq":5530,"postOfficeName":"Ramanathapuram Bazaar","pinCode":"623501","city":"Ramanathapuram","district":"Ramanathapuram","state":"Tamil Nadu"},{"pinCodeSeq":5531,"postOfficeName":"Ramanathapuram H O","pinCode":"623501","city":"Ramanathapuram","district":"Ramanathapuram","state":"Tamil Nadu"},{"pinCodeSeq":5532,"postOfficeName":"Ramanathapuram Public Off","pinCode":"623501","city":"Ramanathapuram","district":"Ramanathapuram","state":"Tamil Nadu"},{"pinCodeSeq":5533,"postOfficeName":"Ramanathapuram West","pinCode":"623501","city":"Ramanathapuram","district":"Ramanathapuram","state":"Tamil Nadu"},{"pinCodeSeq":5534,"postOfficeName":"Achunthanvayal","pinCode":"623502","city":"Ramanathapuram","district":"Ramanathapuram","state":"Tamil Nadu"},{"pinCodeSeq":5535,"postOfficeName":"Alangankulam","pinCode":"623512","city":"Ramanathapuram","district":"Ramanathapuram","state":"Tamil Nadu"},{"pinCodeSeq":5536,"postOfficeName":"Chittarkottai","pinCode":"623513","city":"Ramanathapuram","district":"Ramanathapuram","state":"Tamil Nadu"},{"pinCodeSeq":5537,"postOfficeName":"Eruvadi Ramnad","pinCode":"623515","city":"Ramanathapuram","district":"Ramanathapuram","state":"Tamil Nadu"},{"pinCodeSeq":5538,"postOfficeName":"Irumeni","pinCode":"623516","city":"Ramanathapuram","district":"Ramanathapuram","state":"Tamil Nadu"},{"pinCodeSeq":5539,"postOfficeName":"Kilakarai","pinCode":"623517","city":"Ramanathapuram","district":"Ramanathapuram","state":"Tamil Nadu"},{"pinCodeSeq":5540,"postOfficeName":"Kilakarai West","pinCode":"623517","city":"Ramanathapuram","district":"Ramanathapuram","state":"Tamil Nadu"},{"pinCodeSeq":5543,"postOfficeName":"Marine Fisheries","pinCode":"623520","city":"Ramanathapuram","district":"Ramanathapuram","state":"Tamil Nadu"},{"pinCodeSeq":5544,"postOfficeName":"Pamban","pinCode":"623521","city":"Ramanathapuram","district":"Ramanathapuram","state":"Tamil Nadu"},{"pinCodeSeq":5545,"postOfficeName":"Panaikulam","pinCode":"623522","city":"Ramanathapuram","district":"Ramanathapuram","state":"Tamil Nadu"},{"pinCodeSeq":5546,"postOfficeName":"Pudumadam","pinCode":"623524","city":"Ramanathapuram","district":"Ramanathapuram","state":"Tamil Nadu"},{"pinCodeSeq":5547,"postOfficeName":"Rajasingamangalam","pinCode":"623525","city":"Ramanathapuram","district":"Ramanathapuram","state":"Tamil Nadu"},{"pinCodeSeq":5550,"postOfficeName":"Chattirakudi","pinCode":"623527","city":"Ramanathapuram","district":"Ramanathapuram","state":"Tamil Nadu"},{"pinCodeSeq":5551,"postOfficeName":"Sikkal Ramnad","pinCode":"623528","city":"Ramanathapuram","district":"Ramanathapuram","state":"Tamil Nadu"},{"pinCodeSeq":5552,"postOfficeName":"Thangachimadam","pinCode":"623529","city":"Ramanathapuram","district":"Ramanathapuram","state":"Tamil Nadu"},{"pinCodeSeq":5553,"postOfficeName":"Toruvalur","pinCode":"623530","city":"Ramanathapuram","district":"Ramanathapuram","state":"Tamil Nadu"},{"pinCodeSeq":5554,"postOfficeName":"Tirupalakudi","pinCode":"623531","city":"Ramanathapuram","district":"Ramanathapuram","state":"Tamil Nadu"},{"pinCodeSeq":5555,"postOfficeName":"Tiruppapullani","pinCode":"623532","city":"Ramanathapuram","district":"Ramanathapuram","state":"Tamil Nadu"},{"pinCodeSeq":5556,"postOfficeName":"Tiruttarakosamangai","pinCode":"623533","city":"Ramanathapuram","district":"Ramanathapuram","state":"Tamil Nadu"},{"pinCodeSeq":5557,"postOfficeName":"Uchipulli","pinCode":"623534","city":"Ramanathapuram","district":"Ramanathapuram","state":"Tamil Nadu"},{"pinCodeSeq":5558,"postOfficeName":"Kenikarai","pinCode":"623535","city":"Ramanathapuram","district":"Ramanathapuram","state":"Tamil Nadu"},{"pinCodeSeq":5559,"postOfficeName":"Ramanathapuram Bus Stand","pinCode":"623535","city":"Ramanathapuram","district":"Ramanathapuram","state":"Tamil Nadu"},{"pinCodeSeq":5560,"postOfficeName":"Velipatnam","pinCode":"623535","city":"Ramanathapuram","district":"Ramanathapuram","state":"Tamil Nadu"},{"pinCodeSeq":5562,"postOfficeName":"Pottagavayal","pinCode":"623537","city":"Ramanathapuram","district":"Ramanathapuram","state":"Tamil Nadu"},{"pinCodeSeq":5564,"postOfficeName":"Athiyuthu","pinCode":"623539","city":"Ramanathapuram","district":"Ramanathapuram","state":"Tamil Nadu"},{"pinCodeSeq":5565,"postOfficeName":"Valantharavai","pinCode":"623543","city":"Ramanathapuram","district":"Ramanathapuram","state":"Tamil Nadu"},{"pinCodeSeq":5566,"postOfficeName":"Rettaiyurani","pinCode":"623544","city":"Ramanathapuram","district":"Ramanathapuram","state":"Tamil Nadu"},{"pinCodeSeq":5567,"postOfficeName":"Therku Tharavai","pinCode":"623545","city":"Ramanathapuram","district":"Ramanathapuram","state":"Tamil Nadu"},{"pinCodeSeq":5568,"postOfficeName":"Soorankottai","pinCode":"623546","city":"Ramanathapuram","district":"Ramanathapuram","state":"Tamil Nadu"},{"pinCodeSeq":5583,"postOfficeName":"Tamarakki","pinCode":"623562","city":"Ramanathapuram","district":"Ramanathapuram","state":"Tamil Nadu"},{"pinCodeSeq":5585,"postOfficeName":"Ervadi Durga","pinCode":"623566","city":"Ramanathapuram","district":"Ramanathapuram","state":"Tamil Nadu"},{"pinCodeSeq":5598,"postOfficeName":"Tirupuvanam","pinCode":"623611","city":"Ramanathapuram","district":"Ramanathapuram","state":"Tamil Nadu"},{"pinCodeSeq":5602,"postOfficeName":"Emaneswaram","pinCode":"623701","city":"Ramanathapuram","district":"Ramanathapuram","state":"Tamil Nadu"},{"pinCodeSeq":5603,"postOfficeName":"Kadaladi","pinCode":"623703","city":"Ramanathapuram","district":"Ramanathapuram","state":"Tamil Nadu"},{"pinCodeSeq":5605,"postOfficeName":"Mudumalai","pinCode":"623704","city":"Ramanathapuram","district":"Ramanathapuram","state":"Tamil Nadu"},{"pinCodeSeq":5606,"postOfficeName":"Vadakkur","pinCode":"623704","city":"Ramanathapuram","district":"Ramanathapuram","state":"Tamil Nadu"},{"pinCodeSeq":5608,"postOfficeName":"Pambur","pinCode":"623706","city":"Ramanathapuram","district":"Ramanathapuram","state":"Tamil Nadu"},{"pinCodeSeq":5609,"postOfficeName":"Bharathi Nagar","pinCode":"623707","city":"Ramanathapuram","district":"Ramanathapuram","state":"Tamil Nadu"},{"pinCodeSeq":5610,"postOfficeName":"Chinnakadai","pinCode":"623707","city":"Ramanathapuram","district":"Ramanathapuram","state":"Tamil Nadu"},{"pinCodeSeq":5611,"postOfficeName":"Kattuparamakudi","pinCode":"623707","city":"Ramanathapuram","district":"Ramanathapuram","state":"Tamil Nadu"},{"pinCodeSeq":5612,"postOfficeName":"Paramakudi Bazar","pinCode":"623707","city":"Ramanathapuram","district":"Ramanathapuram","state":"Tamil Nadu"},{"pinCodeSeq":5613,"postOfficeName":"Paramakudi H O","pinCode":"623707","city":"Ramanathapuram","district":"Ramanathapuram","state":"Tamil Nadu"},{"pinCodeSeq":5614,"postOfficeName":"Paramakudi R S","pinCode":"623707","city":"Ramanathapuram","district":"Ramanathapuram","state":"Tamil Nadu"},{"pinCodeSeq":5616,"postOfficeName":"Pudur Ramnad","pinCode":"623709","city":"Ramanathapuram","district":"Ramanathapuram","state":"Tamil Nadu"},{"pinCodeSeq":5617,"postOfficeName":"Salaigramam","pinCode":"623710","city":"Ramanathapuram","district":"Ramanathapuram","state":"Tamil Nadu"},{"pinCodeSeq":5618,"postOfficeName":"Teriruveli","pinCode":"623711","city":"Ramanathapuram","district":"Ramanathapuram","state":"Tamil Nadu"},{"pinCodeSeq":5619,"postOfficeName":"Ramnad","pinCode":"623712","city":"Ramanathapuram","district":"Ramanathapuram","state":"Tamil Nadu"},{"pinCodeSeq":5620,"postOfficeName":"Suranam","pinCode":"623713","city":"Ramanathapuram","district":"Ramanathapuram","state":"Tamil Nadu"},{"pinCodeSeq":5621,"postOfficeName":"Melasirupodu","pinCode":"623716","city":"Ramanathapuram","district":"Ramanathapuram","state":"Tamil Nadu"},{"pinCodeSeq":5622,"postOfficeName":"Keelatheoval","pinCode":"623718","city":"Ramanathapuram","district":"Ramanathapuram","state":"Tamil Nadu"},{"pinCodeSeq":5623,"postOfficeName":"Kilathooval","pinCode":"623718","city":"Ramanathapuram","district":"Ramanathapuram","state":"Tamil Nadu"},{"pinCodeSeq":5624,"postOfficeName":"Kamudakudi","pinCode":"623719","city":"Ramanathapuram","district":"Ramanathapuram","state":"Tamil Nadu"},{"pinCodeSeq":5625,"postOfficeName":"Karunchutti","pinCode":"623721","city":"Ramanathapuram","district":"Ramanathapuram","state":"Tamil Nadu"},{"pinCodeSeq":5626,"postOfficeName":"Vadalai","pinCode":"623804","city":"Ramanathapuram","district":"Ramanathapuram","state":"Tamil Nadu"},{"pinCodeSeq":5627,"postOfficeName":"Sathak Salai","pinCode":"623806","city":"Ramanathapuram","district":"Ramanathapuram","state":"Tamil Nadu"},{"pinCodeSeq":6272,"postOfficeName":"Kadalai","pinCode":"627725","city":"Ramanathapuram","district":"Ramanathapuram","state":"Tamil Nadu"}]