[{"pinCodeSeq":6985,"postOfficeName":"Dadubaikuttai","pinCode":"636001","city":"Salem","district":"Salem","state":"Tamil Nadu"},{"pinCodeSeq":6986,"postOfficeName":"Devendrapuram","pinCode":"636001","city":"Salem","district":"Salem","state":"Tamil Nadu"},{"pinCodeSeq":6987,"postOfficeName":"Kitchipalayam","pinCode":"636001","city":"Salem","district":"Salem","state":"Tamil Nadu"},{"pinCodeSeq":6988,"postOfficeName":"Mettu Street","pinCode":"636001","city":"Salem","district":"Salem","state":"Tamil Nadu"},{"pinCodeSeq":6989,"postOfficeName":"Narayananagar","pinCode":"636001","city":"Salem","district":"Salem","state":"Tamil Nadu"},{"pinCodeSeq":6990,"postOfficeName":"Ponnamapettai","pinCode":"636001","city":"Salem","district":"Salem","state":"Tamil Nadu"},{"pinCodeSeq":6991,"postOfficeName":"Salem Bazaar","pinCode":"636001","city":"Salem","district":"Salem","state":"Tamil Nadu"},{"pinCodeSeq":6992,"postOfficeName":"Salem Collectorate","pinCode":"636001","city":"Salem","district":"Salem","state":"Tamil Nadu"},{"pinCodeSeq":6993,"postOfficeName":"Salem district Board Bldg","pinCode":"636001","city":"Salem","district":"Salem","state":"Tamil Nadu"},{"pinCodeSeq":6994,"postOfficeName":"Salem East","pinCode":"636001","city":"Salem","district":"Salem","state":"Tamil Nadu"},{"pinCodeSeq":6995,"postOfficeName":"Salem Fort","pinCode":"636001","city":"Salem","district":"Salem","state":"Tamil Nadu"},{"pinCodeSeq":6996,"postOfficeName":"Salem H O","pinCode":"636001","city":"Salem","district":"Salem","state":"Tamil Nadu"},{"pinCodeSeq":6997,"postOfficeName":"Salem Second","pinCode":"636001","city":"Salem","district":"Salem","state":"Tamil Nadu"},{"pinCodeSeq":6998,"postOfficeName":"Thillainagar","pinCode":"636001","city":"Salem","district":"Salem","state":"Tamil Nadu"},{"pinCodeSeq":6999,"postOfficeName":"Anandanapatti","pinCode":"636002","city":"Salem","district":"Salem","state":"Tamil Nadu"},{"pinCodeSeq":7000,"postOfficeName":"Marakkadai","pinCode":"636002","city":"Salem","district":"Salem","state":"Tamil Nadu"},{"pinCodeSeq":7001,"postOfficeName":"Nethimedu","pinCode":"636002","city":"Salem","district":"Salem","state":"Tamil Nadu"},{"pinCodeSeq":7002,"postOfficeName":"Shevapet","pinCode":"636002","city":"Salem","district":"Salem","state":"Tamil Nadu"},{"pinCodeSeq":7003,"postOfficeName":"Shevapet Bazaar","pinCode":"636002","city":"Salem","district":"Salem","state":"Tamil Nadu"},{"pinCodeSeq":7004,"postOfficeName":"Ammapettai Bazaar","pinCode":"636003","city":"Salem","district":"Salem","state":"Tamil Nadu"},{"pinCodeSeq":7005,"postOfficeName":"Ammapettai Salem","pinCode":"636003","city":"Salem","district":"Salem","state":"Tamil Nadu"},{"pinCodeSeq":7006,"postOfficeName":"Alagapuram","pinCode":"636004","city":"Salem","district":"Salem","state":"Tamil Nadu"},{"pinCodeSeq":7007,"postOfficeName":"Fair Lands","pinCode":"636004","city":"Salem","district":"Salem","state":"Tamil Nadu"},{"pinCodeSeq":7008,"postOfficeName":"Meyyanur","pinCode":"636004","city":"Salem","district":"Salem","state":"Tamil Nadu"},{"pinCodeSeq":7009,"postOfficeName":"Gugi Salem","pinCode":"636006","city":"Salem","district":"Salem","state":"Tamil Nadu"},{"pinCodeSeq":7010,"postOfficeName":"Salem Pension Lines","pinCode":"636006","city":"Salem","district":"Salem","state":"Tamil Nadu"},{"pinCodeSeq":7011,"postOfficeName":"Salem South","pinCode":"636006","city":"Salem","district":"Salem","state":"Tamil Nadu"},{"pinCodeSeq":7012,"postOfficeName":"Sanjeevarayanpettai","pinCode":"636006","city":"Salem","district":"Salem","state":"Tamil Nadu"},{"pinCodeSeq":7013,"postOfficeName":"Hastampatti","pinCode":"636007","city":"Salem","district":"Salem","state":"Tamil Nadu"},{"pinCodeSeq":7014,"postOfficeName":"Maravaneri","pinCode":"636007","city":"Salem","district":"Salem","state":"Tamil Nadu"},{"pinCodeSeq":7015,"postOfficeName":"Peramanur","pinCode":"636007","city":"Salem","district":"Salem","state":"Tamil Nadu"},{"pinCodeSeq":7016,"postOfficeName":"Salem A R Lines","pinCode":"636007","city":"Salem","district":"Salem","state":"Tamil Nadu"},{"pinCodeSeq":7017,"postOfficeName":"Salem Extn","pinCode":"636007","city":"Salem","district":"Salem","state":"Tamil Nadu"},{"pinCodeSeq":7018,"postOfficeName":"Salem North","pinCode":"636007","city":"Salem","district":"Salem","state":"Tamil Nadu"},{"pinCodeSeq":7019,"postOfficeName":"Salen Dr Court Building","pinCode":"636007","city":"Salem","district":"Salem","state":"Tamil Nadu"},{"pinCodeSeq":7020,"postOfficeName":"Ayyanthirumaligai","pinCode":"636008","city":"Salem","district":"Salem","state":"Tamil Nadu"},{"pinCodeSeq":7022,"postOfficeName":"Arisipalayam","pinCode":"636009","city":"Salem","district":"Salem","state":"Tamil Nadu"},{"pinCodeSeq":7023,"postOfficeName":"Leigh Bazaar","pinCode":"636009","city":"Salem","district":"Salem","state":"Tamil Nadu"},{"pinCodeSeq":7026,"postOfficeName":"Govt College Of Engg Salem","pinCode":"636011","city":"Salem","district":"Salem","state":"Tamil Nadu"},{"pinCodeSeq":7028,"postOfficeName":"Salem Steel Plant","pinCode":"636013","city":"Salem","district":"Salem","state":"Tamil Nadu"},{"pinCodeSeq":7029,"postOfficeName":"Kamarajar Colony","pinCode":"636014","city":"Salem","district":"Salem","state":"Tamil Nadu"},{"pinCodeSeq":7030,"postOfficeName":"Fairlands","pinCode":"636016","city":"Salem","district":"Salem","state":"Tamil Nadu"},{"pinCodeSeq":7031,"postOfficeName":"Aragalur","pinCode":"636101","city":"Salem","district":"Salem","state":"Tamil Nadu"},{"pinCodeSeq":7034,"postOfficeName":"Gandhi Nagar","pinCode":"636102","city":"Salem","district":"Salem","state":"Tamil Nadu"},{"pinCodeSeq":7035,"postOfficeName":"Pudupet Attur","pinCode":"636102","city":"Salem","district":"Salem","state":"Tamil Nadu"},{"pinCodeSeq":7037,"postOfficeName":"Ayodhyapattinam","pinCode":"636103","city":"Salem","district":"Salem","state":"Tamil Nadu"},{"pinCodeSeq":7038,"postOfficeName":"Belur Salem","pinCode":"636104","city":"Salem","district":"Salem","state":"Tamil Nadu"},{"pinCodeSeq":7040,"postOfficeName":"Karipatti","pinCode":"636106","city":"Salem","district":"Salem","state":"Tamil Nadu"},{"pinCodeSeq":7041,"postOfficeName":"Mallikarai","pinCode":"636107","city":"Salem","district":"Salem","state":"Tamil Nadu"},{"pinCodeSeq":7043,"postOfficeName":"Pethanmickenpalayam","pinCode":"636109","city":"Salem","district":"Salem","state":"Tamil Nadu"},{"pinCodeSeq":7044,"postOfficeName":"Sendarapatti","pinCode":"636110","city":"Salem","district":"Salem","state":"Tamil Nadu"},{"pinCodeSeq":7045,"postOfficeName":"Seshanchavadi","pinCode":"636111","city":"Salem","district":"Salem","state":"Tamil Nadu"},{"pinCodeSeq":7046,"postOfficeName":"Seshasayee Paper","pinCode":"636111","city":"Salem","district":"Salem","state":"Tamil Nadu"},{"pinCodeSeq":7047,"postOfficeName":"Talaivasal","pinCode":"636112","city":"Salem","district":"Salem","state":"Tamil Nadu"},{"pinCodeSeq":7049,"postOfficeName":"Thumbai","pinCode":"636114","city":"Salem","district":"Salem","state":"Tamil Nadu"},{"pinCodeSeq":7050,"postOfficeName":"Valapady","pinCode":"636115","city":"Salem","district":"Salem","state":"Tamil Nadu"},{"pinCodeSeq":7051,"postOfficeName":"Viragalur","pinCode":"636116","city":"Salem","district":"Salem","state":"Tamil Nadu"},{"pinCodeSeq":7052,"postOfficeName":"Yethapur","pinCode":"636117","city":"Salem","district":"Salem","state":"Tamil Nadu"},{"pinCodeSeq":7053,"postOfficeName":"Ulipuram","pinCode":"636118","city":"Salem","district":"Salem","state":"Tamil Nadu"},{"pinCodeSeq":7054,"postOfficeName":"Puthiragoundenpalayam","pinCode":"636119","city":"Salem","district":"Salem","state":"Tamil Nadu"},{"pinCodeSeq":7055,"postOfficeName":"Vadachennimalai","pinCode":"636121","city":"Salem","district":"Salem","state":"Tamil Nadu"},{"pinCodeSeq":7056,"postOfficeName":"Sukkampatti","pinCode":"636122","city":"Salem","district":"Salem","state":"Tamil Nadu"},{"pinCodeSeq":7058,"postOfficeName":"Kondayampalli","pinCode":"636130","city":"Salem","district":"Salem","state":"Tamil Nadu"},{"pinCodeSeq":7059,"postOfficeName":"Thadavur","pinCode":"636137","city":"Salem","district":"Salem","state":"Tamil Nadu"},{"pinCodeSeq":7060,"postOfficeName":"Karumanthurai","pinCode":"636138","city":"Salem","district":"Salem","state":"Tamil Nadu"},{"pinCodeSeq":7061,"postOfficeName":"Koottathupatti","pinCode":"636139","city":"Salem","district":"Salem","state":"Tamil Nadu"},{"pinCodeSeq":7062,"postOfficeName":"Salem H O","pinCode":"636139","city":"Salem","district":"Salem","state":"Tamil Nadu"},{"pinCodeSeq":7063,"postOfficeName":"Odayapatti","pinCode":"636140","city":"Salem","district":"Salem","state":"Tamil Nadu"},{"pinCodeSeq":7064,"postOfficeName":"Pudupet","pinCode":"636141","city":"Salem","district":"Salem","state":"Tamil Nadu"},{"pinCodeSeq":7065,"postOfficeName":"Mangalapuram","pinCode":"636202","city":"Salem","district":"Salem","state":"Tamil Nadu"},{"pinCodeSeq":7066,"postOfficeName":"Mullur-Salem","pinCode":"636203","city":"Salem","district":"Salem","state":"Tamil Nadu"},{"pinCodeSeq":7067,"postOfficeName":"Panamarathupatti","pinCode":"636204","city":"Salem","district":"Salem","state":"Tamil Nadu"},{"pinCodeSeq":7069,"postOfficeName":"Jagir Ammapalayam","pinCode":"636302","city":"Salem","district":"Salem","state":"Tamil Nadu"},{"pinCodeSeq":7071,"postOfficeName":"Muthunaickenpatti","pinCode":"636304","city":"Salem","district":"Salem","state":"Tamil Nadu"},{"pinCodeSeq":7073,"postOfficeName":"Sivathapuram","pinCode":"636307","city":"Salem","district":"Salem","state":"Tamil Nadu"},{"pinCodeSeq":7074,"postOfficeName":"Virapandi Slm","pinCode":"636308","city":"Salem","district":"Salem","state":"Tamil Nadu"},{"pinCodeSeq":7075,"postOfficeName":"Thenalpalayam","pinCode":"636318","city":"Salem","district":"Salem","state":"Tamil Nadu"},{"pinCodeSeq":7076,"postOfficeName":"Karavalli","pinCode":"636319","city":"Salem","district":"Salem","state":"Tamil Nadu"},{"pinCodeSeq":7077,"postOfficeName":"Kadyampatti","pinCode":"636351","city":"Salem","district":"Salem","state":"Tamil Nadu"},{"pinCodeSeq":7078,"postOfficeName":"Toppur","pinCode":"636352","city":"Salem","district":"Salem","state":"Tamil Nadu"},{"pinCodeSeq":7079,"postOfficeName":"Salem","pinCode":"636354","city":"Salem","district":"Salem","state":"Tamil Nadu"},{"pinCodeSeq":7080,"postOfficeName":"Mettur Dam H O","pinCode":"636401","city":"Salem","district":"Salem","state":"Tamil Nadu"},{"pinCodeSeq":7081,"postOfficeName":"Mettur Dam North","pinCode":"636401","city":"Salem","district":"Salem","state":"Tamil Nadu"},{"pinCodeSeq":7082,"postOfficeName":"Mettur Dam South","pinCode":"636401","city":"Salem","district":"Salem","state":"Tamil Nadu"},{"pinCodeSeq":7083,"postOfficeName":"Mettur Dam R S","pinCode":"636402","city":"Salem","district":"Salem","state":"Tamil Nadu"},{"pinCodeSeq":7084,"postOfficeName":"Thangamapuripattinam","pinCode":"636402","city":"Salem","district":"Salem","state":"Tamil Nadu"},{"pinCodeSeq":7085,"postOfficeName":"Ramannagar","pinCode":"636403","city":"Salem","district":"Salem","state":"Tamil Nadu"},{"pinCodeSeq":7086,"postOfficeName":"Gonur","pinCode":"636404","city":"Salem","district":"Salem","state":"Tamil Nadu"},{"pinCodeSeq":7087,"postOfficeName":"Chamarajpet","pinCode":"636451","city":"Salem","district":"Salem","state":"Tamil Nadu"},{"pinCodeSeq":7088,"postOfficeName":"Madayankuttai","pinCode":"636452","city":"Salem","district":"Salem","state":"Tamil Nadu"},{"pinCodeSeq":7093,"postOfficeName":"Salem","pinCode":"636456","city":"Salem","district":"Salem","state":"Tamil Nadu"},{"pinCodeSeq":7094,"postOfficeName":"Vanavasi Slm","pinCode":"636457","city":"Salem","district":"Salem","state":"Tamil Nadu"},{"pinCodeSeq":7095,"postOfficeName":"Mallikundam","pinCode":"636458","city":"Salem","district":"Salem","state":"Tamil Nadu"},{"pinCodeSeq":7096,"postOfficeName":"Navapatti","pinCode":"636462","city":"Salem","district":"Salem","state":"Tamil Nadu"},{"pinCodeSeq":7097,"postOfficeName":"Virudasampatti","pinCode":"636463","city":"Salem","district":"Salem","state":"Tamil Nadu"},{"pinCodeSeq":7098,"postOfficeName":"Jalakantapuram","pinCode":"636501","city":"Salem","district":"Salem","state":"Tamil Nadu"},{"pinCodeSeq":7100,"postOfficeName":"Tholasampatti","pinCode":"636503","city":"Salem","district":"Salem","state":"Tamil Nadu"},{"pinCodeSeq":7101,"postOfficeName":"Yercaud","pinCode":"636601","city":"Salem","district":"Salem","state":"Tamil Nadu"},{"pinCodeSeq":7102,"postOfficeName":"Ondikadai","pinCode":"636602","city":"Salem","district":"Salem","state":"Tamil Nadu"},{"pinCodeSeq":7103,"postOfficeName":"Nagalur-Salem","pinCode":"636604","city":"Salem","district":"Salem","state":"Tamil Nadu"},{"pinCodeSeq":7122,"postOfficeName":"Nallampalli","pinCode":"636807","city":"Salem","district":"Salem","state":"Tamil Nadu"},{"pinCodeSeq":7123,"postOfficeName":"Palacode","pinCode":"636808","city":"Salem","district":"Salem","state":"Tamil Nadu"},{"pinCodeSeq":7133,"postOfficeName":"Echambadi","pinCode":"636902","city":"Salem","district":"Salem","state":"Tamil Nadu"},{"pinCodeSeq":7136,"postOfficeName":"Tirthamalai","pinCode":"636906","city":"Salem","district":"Salem","state":"Tamil Nadu"},{"pinCodeSeq":7139,"postOfficeName":"Namakkal Bazaar","pinCode":"637001","city":"Salem","district":"Salem","state":"Tamil Nadu"},{"pinCodeSeq":7140,"postOfficeName":"Namakkal Fort","pinCode":"637001","city":"Salem","district":"Salem","state":"Tamil Nadu"},{"pinCodeSeq":7141,"postOfficeName":"Namakkal H O","pinCode":"637001","city":"Salem","district":"Salem","state":"Tamil Nadu"},{"pinCodeSeq":7143,"postOfficeName":"Ramapurampdur","pinCode":"637001","city":"Salem","district":"Salem","state":"Tamil Nadu"},{"pinCodeSeq":7144,"postOfficeName":"Ganesapuram","pinCode":"637002","city":"Salem","district":"Salem","state":"Tamil Nadu"},{"pinCodeSeq":7145,"postOfficeName":"Santhiapettipudur","pinCode":"637002","city":"Salem","district":"Salem","state":"Tamil Nadu"},{"pinCodeSeq":7146,"postOfficeName":"Thillaipuram","pinCode":"637002","city":"Salem","district":"Salem","state":"Tamil Nadu"},{"pinCodeSeq":7147,"postOfficeName":"Nallipalayam","pinCode":"637003","city":"Salem","district":"Salem","state":"Tamil Nadu"},{"pinCodeSeq":7148,"postOfficeName":"Eranipatti","pinCode":"637013","city":"Salem","district":"Salem","state":"Tamil Nadu"},{"pinCodeSeq":7149,"postOfficeName":"Karakurichi","pinCode":"637014","city":"Salem","district":"Salem","state":"Tamil Nadu"},{"pinCodeSeq":7152,"postOfficeName":"Palalpatti","pinCode":"637017","city":"Salem","district":"Salem","state":"Tamil Nadu"},{"pinCodeSeq":7153,"postOfficeName":"Puduchatram","pinCode":"637018","city":"Salem","district":"Salem","state":"Tamil Nadu"},{"pinCodeSeq":7154,"postOfficeName":"Sellappampatti","pinCode":"637019","city":"Salem","district":"Salem","state":"Tamil Nadu"},{"pinCodeSeq":7155,"postOfficeName":"Valayapatti Slem","pinCode":"637020","city":"Salem","district":"Salem","state":"Tamil Nadu"},{"pinCodeSeq":7157,"postOfficeName":"Pachal","pinCode":"637023","city":"Salem","district":"Salem","state":"Tamil Nadu"},{"pinCodeSeq":7158,"postOfficeName":"Pottireddipatti","pinCode":"637024","city":"Salem","district":"Salem","state":"Tamil Nadu"},{"pinCodeSeq":7159,"postOfficeName":"N Pundupatti","pinCode":"637026","city":"Salem","district":"Salem","state":"Tamil Nadu"},{"pinCodeSeq":7160,"postOfficeName":"Idappadi","pinCode":"637101","city":"Salem","district":"Salem","state":"Tamil Nadu"},{"pinCodeSeq":7161,"postOfficeName":"Idappadi Bazaar","pinCode":"637101","city":"Salem","district":"Salem","state":"Tamil Nadu"},{"pinCodeSeq":7163,"postOfficeName":"Mc Donalds Choultry","pinCode":"637103","city":"Salem","district":"Salem","state":"Tamil Nadu"},{"pinCodeSeq":7164,"postOfficeName":"Thevur Salem","pinCode":"637104","city":"Salem","district":"Salem","state":"Tamil Nadu"},{"pinCodeSeq":7166,"postOfficeName":"Chittoor","pinCode":"637109","city":"Salem","district":"Salem","state":"Tamil Nadu"},{"pinCodeSeq":7167,"postOfficeName":"Chittalandur","pinCode":"637201","city":"Salem","district":"Salem","state":"Tamil Nadu"},{"pinCodeSeq":7168,"postOfficeName":"Elachipalayam","pinCode":"637202","city":"Salem","district":"Salem","state":"Tamil Nadu"},{"pinCodeSeq":7169,"postOfficeName":"Kadampalayam","pinCode":"637203","city":"Salem","district":"Salem","state":"Tamil Nadu"},{"pinCodeSeq":7170,"postOfficeName":"Kapilamalai","pinCode":"637204","city":"Salem","district":"Salem","state":"Tamil Nadu"},{"pinCodeSeq":7172,"postOfficeName":"Nadandai","pinCode":"637206","city":"Salem","district":"Salem","state":"Tamil Nadu"},{"pinCodeSeq":7173,"postOfficeName":"Paramathi","pinCode":"637207","city":"Salem","district":"Salem","state":"Tamil Nadu"},{"pinCodeSeq":7174,"postOfficeName":"Paundamangalam","pinCode":"637208","city":"Salem","district":"Salem","state":"Tamil Nadu"},{"pinCodeSeq":7175,"postOfficeName":"Seetharamapalayam","pinCode":"637209","city":"Salem","district":"Salem","state":"Tamil Nadu"},{"pinCodeSeq":7176,"postOfficeName":"Solasitamani","pinCode":"637210","city":"Salem","district":"Salem","state":"Tamil Nadu"},{"pinCodeSeq":7177,"postOfficeName":"Tiruchengodu H O","pinCode":"637211","city":"Salem","district":"Salem","state":"Tamil Nadu"},{"pinCodeSeq":7178,"postOfficeName":"Tiruchengodu North","pinCode":"637211","city":"Salem","district":"Salem","state":"Tamil Nadu"},{"pinCodeSeq":7179,"postOfficeName":"Tiruchengodu West","pinCode":"637211","city":"Salem","district":"Salem","state":"Tamil Nadu"},{"pinCodeSeq":7180,"postOfficeName":"Velagoundanpatti","pinCode":"637212","city":"Salem","district":"Salem","state":"Tamil Nadu"},{"pinCodeSeq":7181,"postOfficeName":"Jadarpalayam","pinCode":"637213","city":"Salem","district":"Salem","state":"Tamil Nadu"},{"pinCodeSeq":7182,"postOfficeName":"Vattur","pinCode":"637217","city":"Salem","district":"Salem","state":"Tamil Nadu"},{"pinCodeSeq":7183,"postOfficeName":"Sankaridurg","pinCode":"637301","city":"Salem","district":"Salem","state":"Tamil Nadu"},{"pinCodeSeq":7184,"postOfficeName":"Sankaridurg East","pinCode":"637301","city":"Salem","district":"Salem","state":"Tamil Nadu"},{"pinCodeSeq":7185,"postOfficeName":"Sankaridrug R S","pinCode":"637302","city":"Salem","district":"Salem","state":"Tamil Nadu"},{"pinCodeSeq":7186,"postOfficeName":"Sankaridurg West","pinCode":"637303","city":"Salem","district":"Salem","state":"Tamil Nadu"},{"pinCodeSeq":7187,"postOfficeName":"Thannirpandalpayalam","pinCode":"637304","city":"Salem","district":"Salem","state":"Tamil Nadu"},{"pinCodeSeq":7189,"postOfficeName":"Andagalur","pinCode":"637401","city":"Salem","district":"Salem","state":"Tamil Nadu"},{"pinCodeSeq":7190,"postOfficeName":"Belukurichi","pinCode":"637402","city":"Salem","district":"Salem","state":"Tamil Nadu"},{"pinCodeSeq":7191,"postOfficeName":"Guruswamipalayam","pinCode":"637403","city":"Salem","district":"Salem","state":"Tamil Nadu"},{"pinCodeSeq":7193,"postOfficeName":"Muthugapatti","pinCode":"637405","city":"Salem","district":"Salem","state":"Tamil Nadu"},{"pinCodeSeq":7194,"postOfficeName":"Namagiribettai","pinCode":"637406","city":"Salem","district":"Salem","state":"Tamil Nadu"},{"pinCodeSeq":7201,"postOfficeName":"Sendamangalam","pinCode":"637409","city":"Salem","district":"Salem","state":"Tamil Nadu"},{"pinCodeSeq":7206,"postOfficeName":"Thirumalaipatti","pinCode":"637416","city":"Salem","district":"Salem","state":"Tamil Nadu"},{"pinCodeSeq":7207,"postOfficeName":"Tirumalaipatti","pinCode":"637416","city":"Salem","district":"Salem","state":"Tamil Nadu"},{"pinCodeSeq":7208,"postOfficeName":"Peria Manali","pinCode":"637418","city":"Salem","district":"Salem","state":"Tamil Nadu"},{"pinCodeSeq":7209,"postOfficeName":"T Jedarpalayam","pinCode":"637420","city":"Salem","district":"Salem","state":"Tamil Nadu"},{"pinCodeSeq":7211,"postOfficeName":"Elampillai","pinCode":"637502","city":"Salem","district":"Salem","state":"Tamil Nadu"},{"pinCodeSeq":7213,"postOfficeName":"Vembadithalam","pinCode":"637504","city":"Salem","district":"Salem","state":"Tamil Nadu"},{"pinCodeSeq":7214,"postOfficeName":"Vennandur","pinCode":"637505","city":"Salem","district":"Salem","state":"Tamil Nadu"},{"pinCodeSeq":7215,"postOfficeName":"Edangansalai","pinCode":"637508","city":"Salem","district":"Salem","state":"Tamil Nadu"},{"pinCodeSeq":7263,"postOfficeName":"Pothanur Salem","pinCode":"638181","city":"Salem","district":"Salem","state":"Tamil Nadu"}]