[{"pinCodeSeq":5453,"postOfficeName":"Kallukatti","pinCode":"623001","city":"Sivaganga","district":"Sivaganga","state":"Tamil Nadu"},{"pinCodeSeq":5454,"postOfficeName":"Muthupattinam","pinCode":"623001","city":"Sivaganga","district":"Sivaganga","state":"Tamil Nadu"},{"pinCodeSeq":5455,"postOfficeName":"Senjai","pinCode":"623001","city":"Sivaganga","district":"Sivaganga","state":"Tamil Nadu"},{"pinCodeSeq":5456,"postOfficeName":"Sekkalai","pinCode":"623002","city":"Sivaganga","district":"Sivaganga","state":"Tamil Nadu"},{"pinCodeSeq":5457,"postOfficeName":"Alagappapuram H O","pinCode":"623003","city":"Sivaganga","district":"Sivaganga","state":"Tamil Nadu"},{"pinCodeSeq":5458,"postOfficeName":"Alagappa Engg College","pinCode":"623004","city":"Sivaganga","district":"Sivaganga","state":"Tamil Nadu"},{"pinCodeSeq":5459,"postOfficeName":"Devakottai Road","pinCode":"623005","city":"Sivaganga","district":"Sivaganga","state":"Tamil Nadu"},{"pinCodeSeq":5460,"postOfficeName":"Cecri Campus","pinCode":"623006","city":"Sivaganga","district":"Sivaganga","state":"Tamil Nadu"},{"pinCodeSeq":5461,"postOfficeName":"Athangudi","pinCode":"623101","city":"Sivaganga","district":"Sivaganga","state":"Tamil Nadu"},{"pinCodeSeq":5462,"postOfficeName":"Chettinad","pinCode":"623102","city":"Sivaganga","district":"Sivaganga","state":"Tamil Nadu"},{"pinCodeSeq":5464,"postOfficeName":"Kadanur","pinCode":"623104","city":"Sivaganga","district":"Sivaganga","state":"Tamil Nadu"},{"pinCodeSeq":5466,"postOfficeName":"Kothamangalam","pinCode":"623105","city":"Sivaganga","district":"Sivaganga","state":"Tamil Nadu"},{"pinCodeSeq":5469,"postOfficeName":"Poduvayal","pinCode":"623108","city":"Sivaganga","district":"Sivaganga","state":"Tamil Nadu"},{"pinCodeSeq":5470,"postOfficeName":"Peerkalaikadu","pinCode":"623109","city":"Sivaganga","district":"Sivaganga","state":"Tamil Nadu"},{"pinCodeSeq":5471,"postOfficeName":"Mitravayal","pinCode":"623110","city":"Sivaganga","district":"Sivaganga","state":"Tamil Nadu"},{"pinCodeSeq":5472,"postOfficeName":"Nemthanpatti","pinCode":"623111","city":"Sivaganga","district":"Sivaganga","state":"Tamil Nadu"},{"pinCodeSeq":5473,"postOfficeName":"Athikadu Thekkur","pinCode":"623201","city":"Sivaganga","district":"Sivaganga","state":"Tamil Nadu"},{"pinCodeSeq":5474,"postOfficeName":"Ariyakudi","pinCode":"623202","city":"Sivaganga","district":"Sivaganga","state":"Tamil Nadu"},{"pinCodeSeq":5475,"postOfficeName":"Kandavarayanpatti","pinCode":"623203","city":"Sivaganga","district":"Sivaganga","state":"Tamil Nadu"},{"pinCodeSeq":5476,"postOfficeName":"Kandramanickam","pinCode":"623204","city":"Sivaganga","district":"Sivaganga","state":"Tamil Nadu"},{"pinCodeSeq":5477,"postOfficeName":"Kilasevalpatti","pinCode":"623205","city":"Sivaganga","district":"Sivaganga","state":"Tamil Nadu"},{"pinCodeSeq":5478,"postOfficeName":"Kunnakudi","pinCode":"623206","city":"Sivaganga","district":"Sivaganga","state":"Tamil Nadu"},{"pinCodeSeq":5479,"postOfficeName":"Nachiapuram","pinCode":"623207","city":"Sivaganga","district":"Sivaganga","state":"Tamil Nadu"},{"pinCodeSeq":5480,"postOfficeName":"O Siruvayal","pinCode":"623208","city":"Sivaganga","district":"Sivaganga","state":"Tamil Nadu"},{"pinCodeSeq":5481,"postOfficeName":"S M Hospital","pinCode":"623209","city":"Sivaganga","district":"Sivaganga","state":"Tamil Nadu"},{"pinCodeSeq":5482,"postOfficeName":"Tirukkoshiyur","pinCode":"623210","city":"Sivaganga","district":"Sivaganga","state":"Tamil Nadu"},{"pinCodeSeq":5483,"postOfficeName":"Arumuga Nagar","pinCode":"623211","city":"Sivaganga","district":"Sivaganga","state":"Tamil Nadu"},{"pinCodeSeq":5484,"postOfficeName":"Tirupattur Bus Stand","pinCode":"623211","city":"Sivaganga","district":"Sivaganga","state":"Tamil Nadu"},{"pinCodeSeq":5485,"postOfficeName":"Tiruppattur Ramnad","pinCode":"623211","city":"Sivaganga","district":"Sivaganga","state":"Tamil Nadu"},{"pinCodeSeq":5486,"postOfficeName":"Viramathi","pinCode":"623212","city":"Sivaganga","district":"Sivaganga","state":"Tamil Nadu"},{"pinCodeSeq":5487,"postOfficeName":"Sathurusankarakottai","pinCode":"623213","city":"Sivaganga","district":"Sivaganga","state":"Tamil Nadu"},{"pinCodeSeq":5488,"postOfficeName":"Siravayal","pinCode":"623214","city":"Sivaganga","district":"Sivaganga","state":"Tamil Nadu"},{"pinCodeSeq":5489,"postOfficeName":"Sirukundalpatti","pinCode":"623215","city":"Sivaganga","district":"Sivaganga","state":"Tamil Nadu"},{"pinCodeSeq":5490,"postOfficeName":"Kottaiyiruppu","pinCode":"623216","city":"Sivaganga","district":"Sivaganga","state":"Tamil Nadu"},{"pinCodeSeq":5491,"postOfficeName":"Mahibalanpatti","pinCode":"623217","city":"Sivaganga","district":"Sivaganga","state":"Tamil Nadu"},{"pinCodeSeq":5492,"postOfficeName":"Amaravathi Pudur","pinCode":"623301","city":"Sivaganga","district":"Sivaganga","state":"Tamil Nadu"},{"pinCodeSeq":5493,"postOfficeName":"Devakkottai Palace","pinCode":"623302","city":"Sivaganga","district":"Sivaganga","state":"Tamil Nadu"},{"pinCodeSeq":5494,"postOfficeName":"Devakottai H O","pinCode":"623302","city":"Sivaganga","district":"Sivaganga","state":"Tamil Nadu"},{"pinCodeSeq":5495,"postOfficeName":"Devakottai South","pinCode":"623302","city":"Sivaganga","district":"Sivaganga","state":"Tamil Nadu"},{"pinCodeSeq":5496,"postOfficeName":"Devakottai West","pinCode":"623302","city":"Sivaganga","district":"Sivaganga","state":"Tamil Nadu"},{"pinCodeSeq":5497,"postOfficeName":"Karudavoorani","pinCode":"623302","city":"Sivaganga","district":"Sivaganga","state":"Tamil Nadu"},{"pinCodeSeq":5498,"postOfficeName":"Silambani","pinCode":"623302","city":"Sivaganga","district":"Sivaganga","state":"Tamil Nadu"},{"pinCodeSeq":5499,"postOfficeName":"Devakottai Extn","pinCode":"623303","city":"Sivaganga","district":"Sivaganga","state":"Tamil Nadu"},{"pinCodeSeq":5500,"postOfficeName":"Eriyur","pinCode":"623304","city":"Sivaganga","district":"Sivaganga","state":"Tamil Nadu"},{"pinCodeSeq":5501,"postOfficeName":"Kallal","pinCode":"623305","city":"Sivaganga","district":"Sivaganga","state":"Tamil Nadu"},{"pinCodeSeq":5502,"postOfficeName":"Kallupatti","pinCode":"623306","city":"Sivaganga","district":"Sivaganga","state":"Tamil Nadu"},{"pinCodeSeq":5503,"postOfficeName":"Managiri","pinCode":"623307","city":"Sivaganga","district":"Sivaganga","state":"Tamil Nadu"},{"pinCodeSeq":5504,"postOfficeName":"Mangalakudi","pinCode":"623308","city":"Sivaganga","district":"Sivaganga","state":"Tamil Nadu"},{"pinCodeSeq":5505,"postOfficeName":"Oriyur","pinCode":"623309","city":"Sivaganga","district":"Sivaganga","state":"Tamil Nadu"},{"pinCodeSeq":5506,"postOfficeName":"Pattamangalam R","pinCode":"623310","city":"Sivaganga","district":"Sivaganga","state":"Tamil Nadu"},{"pinCodeSeq":5507,"postOfficeName":"Periuakarai","pinCode":"623311","city":"Sivaganga","district":"Sivaganga","state":"Tamil Nadu"},{"pinCodeSeq":5508,"postOfficeName":"Puliyal","pinCode":"623312","city":"Sivaganga","district":"Sivaganga","state":"Tamil Nadu"},{"pinCodeSeq":5509,"postOfficeName":"Sambanur","pinCode":"623313","city":"Sivaganga","district":"Sivaganga","state":"Tamil Nadu"},{"pinCodeSeq":5510,"postOfficeName":"Shanmuganathapuram","pinCode":"623314","city":"Sivaganga","district":"Sivaganga","state":"Tamil Nadu"},{"pinCodeSeq":5511,"postOfficeName":"Vellayapuram","pinCode":"623315","city":"Sivaganga","district":"Sivaganga","state":"Tamil Nadu"},{"pinCodeSeq":5512,"postOfficeName":"Hanumanthakuddi","pinCode":"623317","city":"Sivaganga","district":"Sivaganga","state":"Tamil Nadu"},{"pinCodeSeq":5514,"postOfficeName":"Kovilur","pinCode":"623319","city":"Sivaganga","district":"Sivaganga","state":"Tamil Nadu"},{"pinCodeSeq":5515,"postOfficeName":"Kuthalur","pinCode":"623320","city":"Sivaganga","district":"Sivaganga","state":"Tamil Nadu"},{"pinCodeSeq":5516,"postOfficeName":"Nesal","pinCode":"623321","city":"Sivaganga","district":"Sivaganga","state":"Tamil Nadu"},{"pinCodeSeq":5517,"postOfficeName":"Anandur","pinCode":"623401","city":"Sivaganga","district":"Sivaganga","state":"Tamil Nadu"},{"pinCodeSeq":5518,"postOfficeName":"Chinnakeeramangalam","pinCode":"623402","city":"Sivaganga","district":"Sivaganga","state":"Tamil Nadu"},{"pinCodeSeq":5519,"postOfficeName":"Nadambakkam","pinCode":"623403","city":"Sivaganga","district":"Sivaganga","state":"Tamil Nadu"},{"pinCodeSeq":5521,"postOfficeName":"Pandugudi","pinCode":"623404","city":"Sivaganga","district":"Sivaganga","state":"Tamil Nadu"},{"pinCodeSeq":5522,"postOfficeName":"Panickanadar","pinCode":"623404","city":"Sivaganga","district":"Sivaganga","state":"Tamil Nadu"},{"pinCodeSeq":5523,"postOfficeName":"Panickanadar","pinCode":"623404","city":"Sivaganga","district":"Sivaganga","state":"Tamil Nadu"},{"pinCodeSeq":5524,"postOfficeName":"Sarakeni","pinCode":"623405","city":"Sivaganga","district":"Sivaganga","state":"Tamil Nadu"},{"pinCodeSeq":5526,"postOfficeName":"Tiruvadanai","pinCode":"623407","city":"Sivaganga","district":"Sivaganga","state":"Tamil Nadu"},{"pinCodeSeq":5527,"postOfficeName":"Tiruvegampet","pinCode":"623408","city":"Sivaganga","district":"Sivaganga","state":"Tamil Nadu"},{"pinCodeSeq":5528,"postOfficeName":"Tondi","pinCode":"623409","city":"Sivaganga","district":"Sivaganga","state":"Tamil Nadu"},{"pinCodeSeq":5529,"postOfficeName":"Anjukottai","pinCode":"623410","city":"Sivaganga","district":"Sivaganga","state":"Tamil Nadu"},{"pinCodeSeq":5563,"postOfficeName":"Sanaveli","pinCode":"623538","city":"Sivaganga","district":"Sivaganga","state":"Tamil Nadu"},{"pinCodeSeq":5569,"postOfficeName":"Kaliyarkoil","pinCode":"623551","city":"Sivaganga","district":"Sivaganga","state":"Tamil Nadu"},{"pinCodeSeq":5570,"postOfficeName":"Kilapungudi","pinCode":"623552","city":"Sivaganga","district":"Sivaganga","state":"Tamil Nadu"},{"pinCodeSeq":5571,"postOfficeName":"Madagupattu","pinCode":"623553","city":"Sivaganga","district":"Sivaganga","state":"Tamil Nadu"},{"pinCodeSeq":5572,"postOfficeName":"Mangalam-Ramnad","pinCode":"623554","city":"Sivaganga","district":"Sivaganga","state":"Tamil Nadu"},{"pinCodeSeq":5575,"postOfficeName":"Okkur","pinCode":"623557","city":"Sivaganga","district":"Sivaganga","state":"Tamil Nadu"},{"pinCodeSeq":5576,"postOfficeName":"Paganeri","pinCode":"623558","city":"Sivaganga","district":"Sivaganga","state":"Tamil Nadu"},{"pinCodeSeq":5577,"postOfficeName":"Periyakottai","pinCode":"623559","city":"Sivaganga","district":"Sivaganga","state":"Tamil Nadu"},{"pinCodeSeq":5578,"postOfficeName":"Jawahar Bazaar","pinCode":"623560","city":"Sivaganga","district":"Sivaganga","state":"Tamil Nadu"},{"pinCodeSeq":5579,"postOfficeName":"Sivaganga","pinCode":"623560","city":"Sivaganga","district":"Sivaganga","state":"Tamil Nadu"},{"pinCodeSeq":5580,"postOfficeName":"Sivaganga Courts","pinCode":"623560","city":"Sivaganga","district":"Sivaganga","state":"Tamil Nadu"},{"pinCodeSeq":5581,"postOfficeName":"Sivaganga North","pinCode":"623560","city":"Sivaganga","district":"Sivaganga","state":"Tamil Nadu"},{"pinCodeSeq":5582,"postOfficeName":"Bosenagar","pinCode":"623561","city":"Sivaganga","district":"Sivaganga","state":"Tamil Nadu"},{"pinCodeSeq":5584,"postOfficeName":"Vembarpatti","pinCode":"623565","city":"Sivaganga","district":"Sivaganga","state":"Tamil Nadu"},{"pinCodeSeq":5587,"postOfficeName":"Idaikaatur","pinCode":"623602","city":"Sivaganga","district":"Sivaganga","state":"Tamil Nadu"},{"pinCodeSeq":5588,"postOfficeName":"Kamudi","pinCode":"623603","city":"Sivaganga","district":"Sivaganga","state":"Tamil Nadu"},{"pinCodeSeq":5589,"postOfficeName":"Kottaimedu","pinCode":"623604","city":"Sivaganga","district":"Sivaganga","state":"Tamil Nadu"},{"pinCodeSeq":5590,"postOfficeName":"Mandalamanickam","pinCode":"623605","city":"Sivaganga","district":"Sivaganga","state":"Tamil Nadu"},{"pinCodeSeq":5591,"postOfficeName":"Kannar Street","pinCode":"623606","city":"Sivaganga","district":"Sivaganga","state":"Tamil Nadu"},{"pinCodeSeq":5592,"postOfficeName":"Manamadurai Town","pinCode":"623606","city":"Sivaganga","district":"Sivaganga","state":"Tamil Nadu"},{"pinCodeSeq":5593,"postOfficeName":"Manamadural H O","pinCode":"623606","city":"Sivaganga","district":"Sivaganga","state":"Tamil Nadu"},{"pinCodeSeq":5594,"postOfficeName":"Narikudi","pinCode":"623607","city":"Sivaganga","district":"Sivaganga","state":"Tamil Nadu"},{"pinCodeSeq":5595,"postOfficeName":"Parthibanur","pinCode":"623608","city":"Sivaganga","district":"Sivaganga","state":"Tamil Nadu"},{"pinCodeSeq":5596,"postOfficeName":"Rajagambiram","pinCode":"623609","city":"Sivaganga","district":"Sivaganga","state":"Tamil Nadu"},{"pinCodeSeq":5597,"postOfficeName":"Tiruppachetty","pinCode":"623610","city":"Sivaganga","district":"Sivaganga","state":"Tamil Nadu"},{"pinCodeSeq":5599,"postOfficeName":"Viracholam","pinCode":"623612","city":"Sivaganga","district":"Sivaganga","state":"Tamil Nadu"},{"pinCodeSeq":5600,"postOfficeName":"Manamadurai R S","pinCode":"623613","city":"Sivaganga","district":"Sivaganga","state":"Tamil Nadu"},{"pinCodeSeq":5601,"postOfficeName":"Kilaperungarai","pinCode":"623617","city":"Sivaganga","district":"Sivaganga","state":"Tamil Nadu"},{"pinCodeSeq":5718,"postOfficeName":"Chaturvedamangalam","pinCode":"624501","city":"Sivaganga","district":"Sivaganga","state":"Tamil Nadu"},{"pinCodeSeq":5722,"postOfficeName":"Muraiyur","pinCode":"624505","city":"Sivaganga","district":"Sivaganga","state":"Tamil Nadu"},{"pinCodeSeq":6919,"postOfficeName":"Vishamangalam","pinCode":"635652","city":"Sivaganga","district":"Sivaganga","state":"Tamil Nadu"},{"pinCodeSeq":6921,"postOfficeName":"Sundarampalli","pinCode":"635654","city":"Sivaganga","district":"Sivaganga","state":"Tamil Nadu"},{"pinCodeSeq":6922,"postOfficeName":"Adiyur","pinCode":"635655","city":"Sivaganga","district":"Sivaganga","state":"Tamil Nadu"},{"pinCodeSeq":6923,"postOfficeName":"Paniyandapalli","pinCode":"635656","city":"Sivaganga","district":"Sivaganga","state":"Tamil Nadu"},{"pinCodeSeq":6981,"postOfficeName":"Mandalavadi","pinCode":"635856","city":"Sivaganga","district":"Sivaganga","state":"Tamil Nadu"},{"pinCodeSeq":6983,"postOfficeName":"Kandili","pinCode":"635901","city":"Sivaganga","district":"Sivaganga","state":"Tamil Nadu"}]