[{"pinCodeSeq":4669,"postOfficeName":"Kavarapalayam","pinCode":"608901","city":"Thanjavur","district":"Thanjavur","state":"Tamil Nadu"},{"pinCodeSeq":4670,"postOfficeName":"Lalbahadur Nagar","pinCode":"609001","city":"Thanjavur","district":"Thanjavur","state":"Tamil Nadu"},{"pinCodeSeq":4671,"postOfficeName":"Mayiladuthrai Bazaar","pinCode":"609001","city":"Thanjavur","district":"Thanjavur","state":"Tamil Nadu"},{"pinCodeSeq":4672,"postOfficeName":"Mayiladuthurai Cutcherry","pinCode":"609001","city":"Thanjavur","district":"Thanjavur","state":"Tamil Nadu"},{"pinCodeSeq":4673,"postOfficeName":"Mayiladuthurai H O","pinCode":"609001","city":"Thanjavur","district":"Thanjavur","state":"Tamil Nadu"},{"pinCodeSeq":4674,"postOfficeName":"Mayiladuthurai South","pinCode":"609001","city":"Thanjavur","district":"Thanjavur","state":"Tamil Nadu"},{"pinCodeSeq":4675,"postOfficeName":"Pattamangulam","pinCode":"609001","city":"Thanjavur","district":"Thanjavur","state":"Tamil Nadu"},{"pinCodeSeq":4676,"postOfficeName":"Tharamapuram","pinCode":"609001","city":"Thanjavur","district":"Thanjavur","state":"Tamil Nadu"},{"pinCodeSeq":4677,"postOfficeName":"Koranad","pinCode":"609002","city":"Thanjavur","district":"Thanjavur","state":"Tamil Nadu"},{"pinCodeSeq":4678,"postOfficeName":"Chittakadu","pinCode":"609003","city":"Thanjavur","district":"Thanjavur","state":"Tamil Nadu"},{"pinCodeSeq":4679,"postOfficeName":"Koothanur","pinCode":"609003","city":"Thanjavur","district":"Thanjavur","state":"Tamil Nadu"},{"pinCodeSeq":4680,"postOfficeName":"Mayiladuthurai R S","pinCode":"609003","city":"Thanjavur","district":"Thanjavur","state":"Tamil Nadu"},{"pinCodeSeq":4682,"postOfficeName":"Anaikaranchatram","pinCode":"609102","city":"Thanjavur","district":"Thanjavur","state":"Tamil Nadu"},{"pinCodeSeq":4683,"postOfficeName":"Kiliyanur Thanjavur","pinCode":"609102","city":"Thanjavur","district":"Thanjavur","state":"Tamil Nadu"},{"pinCodeSeq":4684,"postOfficeName":"Anandatandavapuram","pinCode":"609103","city":"Thanjavur","district":"Thanjavur","state":"Tamil Nadu"},{"pinCodeSeq":4685,"postOfficeName":"Mayiladuthurcai","pinCode":"609103","city":"Thanjavur","district":"Thanjavur","state":"Tamil Nadu"},{"pinCodeSeq":4687,"postOfficeName":"Kaveripattinam Thanjavur","pinCode":"609105","city":"Thanjavur","district":"Thanjavur","state":"Tamil Nadu"},{"pinCodeSeq":4688,"postOfficeName":"Mangamadam","pinCode":"609106","city":"Thanjavur","district":"Thanjavur","state":"Tamil Nadu"},{"pinCodeSeq":4689,"postOfficeName":"Melaiyur","pinCode":"609107","city":"Thanjavur","district":"Thanjavur","state":"Tamil Nadu"},{"pinCodeSeq":4693,"postOfficeName":"Thenpathi","pinCode":"609111","city":"Thanjavur","district":"Thanjavur","state":"Tamil Nadu"},{"pinCodeSeq":4694,"postOfficeName":"Tirupangur","pinCode":"609112","city":"Thanjavur","district":"Thanjavur","state":"Tamil Nadu"},{"pinCodeSeq":4695,"postOfficeName":"Tirumullavasal","pinCode":"609113","city":"Thanjavur","district":"Thanjavur","state":"Tamil Nadu"},{"pinCodeSeq":4696,"postOfficeName":"Tiruvengadu","pinCode":"609114","city":"Thanjavur","district":"Thanjavur","state":"Tamil Nadu"},{"pinCodeSeq":4697,"postOfficeName":"Varsaipattu Vadagal","pinCode":"609115","city":"Thanjavur","district":"Thanjavur","state":"Tamil Nadu"},{"pinCodeSeq":4699,"postOfficeName":"Vaitheeswaran Koil","pinCode":"609117","city":"Thanjavur","district":"Thanjavur","state":"Tamil Nadu"},{"pinCodeSeq":4700,"postOfficeName":"Solasakkaranallur","pinCode":"609118","city":"Thanjavur","district":"Thanjavur","state":"Tamil Nadu"},{"pinCodeSeq":4701,"postOfficeName":"Kunnam Mayiladutwai","pinCode":"609119","city":"Thanjavur","district":"Thanjavur","state":"Tamil Nadu"},{"pinCodeSeq":4703,"postOfficeName":"Madanam","pinCode":"609121","city":"Thanjavur","district":"Thanjavur","state":"Tamil Nadu"},{"pinCodeSeq":4704,"postOfficeName":"Tirunagari","pinCode":"609122","city":"Thanjavur","district":"Thanjavur","state":"Tamil Nadu"},{"pinCodeSeq":4707,"postOfficeName":"Annaperumal Koil","pinCode":"609125","city":"Thanjavur","district":"Thanjavur","state":"Tamil Nadu"},{"pinCodeSeq":4708,"postOfficeName":"Vettangudi","pinCode":"609126","city":"Thanjavur","district":"Thanjavur","state":"Tamil Nadu"},{"pinCodeSeq":4709,"postOfficeName":"Madervelur","pinCode":"609127","city":"Thanjavur","district":"Thanjavur","state":"Tamil Nadu"},{"pinCodeSeq":4711,"postOfficeName":"Alakudi","pinCode":"609129","city":"Thanjavur","district":"Thanjavur","state":"Tamil Nadu"},{"pinCodeSeq":4714,"postOfficeName":"Ilanthope","pinCode":"609201","city":"Thanjavur","district":"Thanjavur","state":"Tamil Nadu"},{"pinCodeSeq":4716,"postOfficeName":"Nidur","pinCode":"609203","city":"Thanjavur","district":"Thanjavur","state":"Tamil Nadu"},{"pinCodeSeq":4717,"postOfficeName":"Tirumenir Koil","pinCode":"609204","city":"Thanjavur","district":"Thanjavur","state":"Tamil Nadu"},{"pinCodeSeq":4718,"postOfficeName":"Akkur","pinCode":"609301","city":"Thanjavur","district":"Thanjavur","state":"Tamil Nadu"},{"pinCodeSeq":4719,"postOfficeName":"Arangakudi","pinCode":"609302","city":"Thanjavur","district":"Thanjavur","state":"Tamil Nadu"},{"pinCodeSeq":4720,"postOfficeName":"Thovala","pinCode":"609302","city":"Thanjavur","district":"Thanjavur","state":"Tamil Nadu"},{"pinCodeSeq":4721,"postOfficeName":"Ayappadi","pinCode":"609303","city":"Thanjavur","district":"Thanjavur","state":"Tamil Nadu"},{"pinCodeSeq":4722,"postOfficeName":"Kilaiyur Mayiladuthuai","pinCode":"609304","city":"Thanjavur","district":"Thanjavur","state":"Tamil Nadu"},{"pinCodeSeq":4723,"postOfficeName":"Mannampandal","pinCode":"609305","city":"Thanjavur","district":"Thanjavur","state":"Tamil Nadu"},{"pinCodeSeq":4724,"postOfficeName":"Nalladai","pinCode":"609306","city":"Thanjavur","district":"Thanjavur","state":"Tamil Nadu"},{"pinCodeSeq":4725,"postOfficeName":"Porayar","pinCode":"609307","city":"Thanjavur","district":"Thanjavur","state":"Tamil Nadu"},{"pinCodeSeq":4726,"postOfficeName":"Sankaranpandal","pinCode":"609308","city":"Thanjavur","district":"Thanjavur","state":"Tamil Nadu"},{"pinCodeSeq":4727,"postOfficeName":"Sembanarkoil","pinCode":"609309","city":"Thanjavur","district":"Thanjavur","state":"Tamil Nadu"},{"pinCodeSeq":4728,"postOfficeName":"Thillayadi","pinCode":"609310","city":"Thanjavur","district":"Thanjavur","state":"Tamil Nadu"},{"pinCodeSeq":4729,"postOfficeName":"Tirucadaiyur","pinCode":"609311","city":"Thanjavur","district":"Thanjavur","state":"Tamil Nadu"},{"pinCodeSeq":4730,"postOfficeName":"Tirukkalacheri","pinCode":"609312","city":"Thanjavur","district":"Thanjavur","state":"Tamil Nadu"},{"pinCodeSeq":4731,"postOfficeName":"Tranuebar","pinCode":"609313","city":"Thanjavur","district":"Thanjavur","state":"Tamil Nadu"},{"pinCodeSeq":4733,"postOfficeName":"Elanthangudi","pinCode":"609401","city":"Thanjavur","district":"Thanjavur","state":"Tamil Nadu"},{"pinCodeSeq":4734,"postOfficeName":"Kollumangudi","pinCode":"609403","city":"Thanjavur","district":"Thanjavur","state":"Tamil Nadu"},{"pinCodeSeq":4735,"postOfficeName":"Manganallur Bazaar","pinCode":"609404","city":"Thanjavur","district":"Thanjavur","state":"Tamil Nadu"},{"pinCodeSeq":4737,"postOfficeName":"Perambur Mayiladuthurai","pinCode":"609406","city":"Thanjavur","district":"Thanjavur","state":"Tamil Nadu"},{"pinCodeSeq":4738,"postOfficeName":"Eravancheri","pinCode":"609501","city":"Thanjavur","district":"Thanjavur","state":"Tamil Nadu"},{"pinCodeSeq":4739,"postOfficeName":"Mudikondan","pinCode":"609502","city":"Thanjavur","district":"Thanjavur","state":"Tamil Nadu"},{"pinCodeSeq":4740,"postOfficeName":"Punthottam","pinCode":"609503","city":"Thanjavur","district":"Thanjavur","state":"Tamil Nadu"},{"pinCodeSeq":4741,"postOfficeName":"Sannanallur","pinCode":"609504","city":"Thanjavur","district":"Thanjavur","state":"Tamil Nadu"},{"pinCodeSeq":4742,"postOfficeName":"Tiruvizhimazhalai","pinCode":"609505","city":"Thanjavur","district":"Thanjavur","state":"Tamil Nadu"},{"pinCodeSeq":4743,"postOfficeName":"Vishnupuram","pinCode":"609506","city":"Thanjavur","district":"Thanjavur","state":"Tamil Nadu"},{"pinCodeSeq":4744,"postOfficeName":"Manandakudi","pinCode":"609507","city":"Thanjavur","district":"Thanjavur","state":"Tamil Nadu"},{"pinCodeSeq":4745,"postOfficeName":"Marudavancheri","pinCode":"609508","city":"Thanjavur","district":"Thanjavur","state":"Tamil Nadu"},{"pinCodeSeq":4746,"postOfficeName":"Ambagarathur","pinCode":"609601","city":"Thanjavur","district":"Thanjavur","state":"Tamil Nadu"},{"pinCodeSeq":4747,"postOfficeName":"Karikal","pinCode":"609602","city":"Thanjavur","district":"Thanjavur","state":"Tamil Nadu"},{"pinCodeSeq":4748,"postOfficeName":"Karikal Bazaar","pinCode":"609602","city":"Thanjavur","district":"Thanjavur","state":"Tamil Nadu"},{"pinCodeSeq":4749,"postOfficeName":"Karikal Bus Stand","pinCode":"609602","city":"Thanjavur","district":"Thanjavur","state":"Tamil Nadu"},{"pinCodeSeq":4750,"postOfficeName":"Karikal South","pinCode":"609602","city":"Thanjavur","district":"Thanjavur","state":"Tamil Nadu"},{"pinCodeSeq":4751,"postOfficeName":"Chittakadu","pinCode":"609603","city":"Thanjavur","district":"Thanjavur","state":"Tamil Nadu"},{"pinCodeSeq":4752,"postOfficeName":"Nedungadu","pinCode":"609603","city":"Thanjavur","district":"Thanjavur","state":"Tamil Nadu"},{"pinCodeSeq":4753,"postOfficeName":"Neravy","pinCode":"609604","city":"Thanjavur","district":"Thanjavur","state":"Tamil Nadu"},{"pinCodeSeq":4754,"postOfficeName":"Thalatheru","pinCode":"609605","city":"Thanjavur","district":"Thanjavur","state":"Tamil Nadu"},{"pinCodeSeq":4755,"postOfficeName":"Tirumalrayanpattinam","pinCode":"609606","city":"Thanjavur","district":"Thanjavur","state":"Tamil Nadu"},{"pinCodeSeq":4756,"postOfficeName":"Kollapuram","pinCode":"609608","city":"Thanjavur","district":"Thanjavur","state":"Tamil Nadu"},{"pinCodeSeq":4757,"postOfficeName":"Kottucherry","pinCode":"609609","city":"Thanjavur","district":"Thanjavur","state":"Tamil Nadu"},{"pinCodeSeq":4758,"postOfficeName":"Varichikudi","pinCode":"609610","city":"Thanjavur","district":"Thanjavur","state":"Tamil Nadu"},{"pinCodeSeq":4759,"postOfficeName":"Enanguddi","pinCode":"609701","city":"Thanjavur","district":"Thanjavur","state":"Tamil Nadu"},{"pinCodeSeq":4760,"postOfficeName":"Tirumarugal","pinCode":"609702","city":"Thanjavur","district":"Thanjavur","state":"Tamil Nadu"},{"pinCodeSeq":4761,"postOfficeName":"Tittacherry","pinCode":"609703","city":"Thanjavur","district":"Thanjavur","state":"Tamil Nadu"},{"pinCodeSeq":4762,"postOfficeName":"Tirukannapuram","pinCode":"609704","city":"Thanjavur","district":"Thanjavur","state":"Tamil Nadu"},{"pinCodeSeq":4763,"postOfficeName":"Seshamoolai","pinCode":"609705","city":"Thanjavur","district":"Thanjavur","state":"Tamil Nadu"},{"pinCodeSeq":4764,"postOfficeName":"Kuttalam","pinCode":"609801","city":"Thanjavur","district":"Thanjavur","state":"Tamil Nadu"},{"pinCodeSeq":4765,"postOfficeName":"Kuttalam East","pinCode":"609801","city":"Thanjavur","district":"Thanjavur","state":"Tamil Nadu"},{"pinCodeSeq":4766,"postOfficeName":"Narasingamettai","pinCode":"609802","city":"Thanjavur","district":"Thanjavur","state":"Tamil Nadu"},{"pinCodeSeq":4767,"postOfficeName":"Tiruvaduthurai","pinCode":"609803","city":"Thanjavur","district":"Thanjavur","state":"Tamil Nadu"},{"pinCodeSeq":4768,"postOfficeName":"Tuhili","pinCode":"609804","city":"Thanjavur","district":"Thanjavur","state":"Tamil Nadu"},{"pinCodeSeq":4769,"postOfficeName":"Komal","pinCode":"609805","city":"Thanjavur","district":"Thanjavur","state":"Tamil Nadu"},{"pinCodeSeq":4770,"postOfficeName":"Malliam","pinCode":"609806","city":"Thanjavur","district":"Thanjavur","state":"Tamil Nadu"},{"pinCodeSeq":4771,"postOfficeName":"Pandanallur","pinCode":"609807","city":"Thanjavur","district":"Thanjavur","state":"Tamil Nadu"},{"pinCodeSeq":4772,"postOfficeName":"Teizhandur","pinCode":"609808","city":"Thanjavur","district":"Thanjavur","state":"Tamil Nadu"},{"pinCodeSeq":4773,"postOfficeName":"Kamakshipuram","pinCode":"609809","city":"Thanjavur","district":"Thanjavur","state":"Tamil Nadu"},{"pinCodeSeq":4774,"postOfficeName":"Tiruvalgadu","pinCode":"609810","city":"Thanjavur","district":"Thanjavur","state":"Tamil Nadu"},{"pinCodeSeq":4775,"postOfficeName":"Kali","pinCode":"609811","city":"Thanjavur","district":"Thanjavur","state":"Tamil Nadu"},{"pinCodeSeq":4776,"postOfficeName":"Vandahirajapuram","pinCode":"609812","city":"Thanjavur","district":"Thanjavur","state":"Tamil Nadu"},{"pinCodeSeq":4777,"postOfficeName":"Tirumancheri","pinCode":"609813","city":"Thanjavur","district":"Thanjavur","state":"Tamil Nadu"},{"pinCodeSeq":4778,"postOfficeName":"Konulampallam","pinCode":"609814","city":"Thanjavur","district":"Thanjavur","state":"Tamil Nadu"},{"pinCodeSeq":4781,"postOfficeName":"Dakshinamurthy Mutt","pinCode":"610002","city":"Thanjavur","district":"Thanjavur","state":"Tamil Nadu"},{"pinCodeSeq":4784,"postOfficeName":"Elavangarkudi","pinCode":"610051","city":"Thanjavur","district":"Thanjavur","state":"Tamil Nadu"},{"pinCodeSeq":4785,"postOfficeName":"Kangalancheri","pinCode":"610101","city":"Thanjavur","district":"Thanjavur","state":"Tamil Nadu"},{"pinCodeSeq":4786,"postOfficeName":"Kamalapuram","pinCode":"610102","city":"Thanjavur","district":"Thanjavur","state":"Tamil Nadu"},{"pinCodeSeq":4787,"postOfficeName":"Mangudi","pinCode":"610103","city":"Thanjavur","district":"Thanjavur","state":"Tamil Nadu"},{"pinCodeSeq":4788,"postOfficeName":"Manakkal Ayyampet","pinCode":"610104","city":"Thanjavur","district":"Thanjavur","state":"Tamil Nadu"},{"pinCodeSeq":4790,"postOfficeName":"Nannilam Cutchery","pinCode":"610105","city":"Thanjavur","district":"Thanjavur","state":"Tamil Nadu"},{"pinCodeSeq":4791,"postOfficeName":"Tappalampuliyur","pinCode":"610106","city":"Thanjavur","district":"Thanjavur","state":"Tamil Nadu"},{"pinCodeSeq":4792,"postOfficeName":"Tiruvidacherry","pinCode":"610107","city":"Thanjavur","district":"Thanjavur","state":"Tamil Nadu"},{"pinCodeSeq":4793,"postOfficeName":"Pulivalam Thanjavur","pinCode":"610109","city":"Thanjavur","district":"Thanjavur","state":"Tamil Nadu"},{"pinCodeSeq":4794,"postOfficeName":"Srivanjiam","pinCode":"610110","city":"Thanjavur","district":"Thanjavur","state":"Tamil Nadu"},{"pinCodeSeq":4795,"postOfficeName":"Suranur","pinCode":"610111","city":"Thanjavur","district":"Thanjavur","state":"Tamil Nadu"},{"pinCodeSeq":4796,"postOfficeName":"Thirukkannamangai","pinCode":"610112","city":"Thanjavur","district":"Thanjavur","state":"Tamil Nadu"},{"pinCodeSeq":4797,"postOfficeName":"Kankoduthavanitham","pinCode":"610113","city":"Thanjavur","district":"Thanjavur","state":"Tamil Nadu"},{"pinCodeSeq":4798,"postOfficeName":"Budamangalam","pinCode":"610114","city":"Thanjavur","district":"Thanjavur","state":"Tamil Nadu"},{"pinCodeSeq":4799,"postOfficeName":"Anaikuppam","pinCode":"610115","city":"Thanjavur","district":"Thanjavur","state":"Tamil Nadu"},{"pinCodeSeq":4800,"postOfficeName":"Vadagudi","pinCode":"610116","city":"Thanjavur","district":"Thanjavur","state":"Tamil Nadu"},{"pinCodeSeq":4801,"postOfficeName":"Kachanam","pinCode":"610201","city":"Thanjavur","district":"Thanjavur","state":"Tamil Nadu"},{"pinCodeSeq":4802,"postOfficeName":"Mavoor","pinCode":"610202","city":"Thanjavur","district":"Thanjavur","state":"Tamil Nadu"},{"pinCodeSeq":4803,"postOfficeName":"Ponnirai","pinCode":"610203","city":"Thanjavur","district":"Thanjavur","state":"Tamil Nadu"},{"pinCodeSeq":4804,"postOfficeName":"Tirukuvalai","pinCode":"610204","city":"Thanjavur","district":"Thanjavur","state":"Tamil Nadu"},{"pinCodeSeq":4805,"postOfficeName":"Tirunellikaval","pinCode":"610205","city":"Thanjavur","district":"Thanjavur","state":"Tamil Nadu"},{"pinCodeSeq":4806,"postOfficeName":"Tiruneveli","pinCode":"610205","city":"Thanjavur","district":"Thanjavur","state":"Tamil Nadu"},{"pinCodeSeq":4807,"postOfficeName":"Vadapathimangalam","pinCode":"610206","city":"Thanjavur","district":"Thanjavur","state":"Tamil Nadu"},{"pinCodeSeq":4808,"postOfficeName":"Valivalam","pinCode":"610207","city":"Thanjavur","district":"Thanjavur","state":"Tamil Nadu"},{"pinCodeSeq":4809,"postOfficeName":"Kolapadu","pinCode":"610208","city":"Thanjavur","district":"Thanjavur","state":"Tamil Nadu"},{"pinCodeSeq":4810,"postOfficeName":"Pullamangalam","pinCode":"610209","city":"Thanjavur","district":"Thanjavur","state":"Tamil Nadu"},{"pinCodeSeq":4812,"postOfficeName":"Alathampadi","pinCode":"610211","city":"Thanjavur","district":"Thanjavur","state":"Tamil Nadu"},{"pinCodeSeq":4813,"postOfficeName":"Ettukudi","pinCode":"610212","city":"Thanjavur","district":"Thanjavur","state":"Tamil Nadu"},{"pinCodeSeq":4814,"postOfficeName":"Melakottaivasal","pinCode":"611001","city":"Thanjavur","district":"Thanjavur","state":"Tamil Nadu"},{"pinCodeSeq":4821,"postOfficeName":"Velipalayam","pinCode":"611001","city":"Thanjavur","district":"Thanjavur","state":"Tamil Nadu"},{"pinCodeSeq":4822,"postOfficeName":"Durga Sheriff","pinCode":"611002","city":"Thanjavur","district":"Thanjavur","state":"Tamil Nadu"},{"pinCodeSeq":4823,"postOfficeName":"Nagore South","pinCode":"611002","city":"Thanjavur","district":"Thanjavur","state":"Tamil Nadu"},{"pinCodeSeq":4824,"postOfficeName":"Nagore-Tnj","pinCode":"611002","city":"Thanjavur","district":"Thanjavur","state":"Tamil Nadu"},{"pinCodeSeq":4825,"postOfficeName":"Vadagudi Chatram","pinCode":"611002","city":"Thanjavur","district":"Thanjavur","state":"Tamil Nadu"},{"pinCodeSeq":4826,"postOfficeName":"Adaikkamangalam","pinCode":"611101","city":"Thanjavur","district":"Thanjavur","state":"Tamil Nadu"},{"pinCodeSeq":4827,"postOfficeName":"Andanapettai","pinCode":"611102","city":"Thanjavur","district":"Thanjavur","state":"Tamil Nadu"},{"pinCodeSeq":4828,"postOfficeName":"Kilayur Nagapattinam","pinCode":"611103","city":"Thanjavur","district":"Thanjavur","state":"Tamil Nadu"},{"pinCodeSeq":4831,"postOfficeName":"Manjakollai","pinCode":"611106","city":"Thanjavur","district":"Thanjavur","state":"Tamil Nadu"},{"pinCodeSeq":4832,"postOfficeName":"Paravachary","pinCode":"611108","city":"Thanjavur","district":"Thanjavur","state":"Tamil Nadu"},{"pinCodeSeq":4833,"postOfficeName":"Sikkal Thanjavur","pinCode":"611108","city":"Thanjavur","district":"Thanjavur","state":"Tamil Nadu"},{"pinCodeSeq":4834,"postOfficeName":"Thevur Thanjavur","pinCode":"611109","city":"Thanjavur","district":"Thanjavur","state":"Tamil Nadu"},{"pinCodeSeq":4835,"postOfficeName":"Tirupandi","pinCode":"611110","city":"Thanjavur","district":"Thanjavur","state":"Tamil Nadu"},{"pinCodeSeq":4836,"postOfficeName":"Vailankanni","pinCode":"611111","city":"Thanjavur","district":"Thanjavur","state":"Tamil Nadu"},{"pinCodeSeq":4837,"postOfficeName":"Vailankanni West","pinCode":"611111","city":"Thanjavur","district":"Thanjavur","state":"Tamil Nadu"},{"pinCodeSeq":4838,"postOfficeName":"Vettaikaraniruppu","pinCode":"611112","city":"Thanjavur","district":"Thanjavur","state":"Tamil Nadu"},{"pinCodeSeq":4839,"postOfficeName":"Prathaparamapuram","pinCode":"611113","city":"Thanjavur","district":"Thanjavur","state":"Tamil Nadu"},{"pinCodeSeq":4840,"postOfficeName":"Therku Pogainallur","pinCode":"611114","city":"Thanjavur","district":"Thanjavur","state":"Tamil Nadu"},{"pinCodeSeq":4841,"postOfficeName":"Vadakku","pinCode":"611115","city":"Thanjavur","district":"Thanjavur","state":"Tamil Nadu"},{"pinCodeSeq":4842,"postOfficeName":"Vadakku Poigainallur","pinCode":"611115","city":"Thanjavur","district":"Thanjavur","state":"Tamil Nadu"},{"pinCodeSeq":4843,"postOfficeName":"Athipuliyur","pinCode":"611116","city":"Thanjavur","district":"Thanjavur","state":"Tamil Nadu"},{"pinCodeSeq":4844,"postOfficeName":"Aliyur","pinCode":"611117","city":"Thanjavur","district":"Thanjavur","state":"Tamil Nadu"},{"pinCodeSeq":4845,"postOfficeName":"Vilundamvadi","pinCode":"611119","city":"Thanjavur","district":"Thanjavur","state":"Tamil Nadu"},{"pinCodeSeq":4846,"postOfficeName":"Banadurai","pinCode":"612001","city":"Thanjavur","district":"Thanjavur","state":"Tamil Nadu"},{"pinCodeSeq":4847,"postOfficeName":"Cutcherry","pinCode":"612001","city":"Thanjavur","district":"Thanjavur","state":"Tamil Nadu"},{"pinCodeSeq":4848,"postOfficeName":"Kombakonam","pinCode":"612001","city":"Thanjavur","district":"Thanjavur","state":"Tamil Nadu"},{"pinCodeSeq":4849,"postOfficeName":"Kumbakonam Bazar","pinCode":"612001","city":"Thanjavur","district":"Thanjavur","state":"Tamil Nadu"},{"pinCodeSeq":4850,"postOfficeName":"Kumbakonam city","pinCode":"612001","city":"Thanjavur","district":"Thanjavur","state":"Tamil Nadu"},{"pinCodeSeq":4851,"postOfficeName":"Kumbakonam East","pinCode":"612001","city":"Thanjavur","district":"Thanjavur","state":"Tamil Nadu"},{"pinCodeSeq":4852,"postOfficeName":"Kumbakonam H O","pinCode":"612001","city":"Thanjavur","district":"Thanjavur","state":"Tamil Nadu"},{"pinCodeSeq":4853,"postOfficeName":"Kumbakonam Market","pinCode":"612001","city":"Thanjavur","district":"Thanjavur","state":"Tamil Nadu"},{"pinCodeSeq":4854,"postOfficeName":"Kumbakonam R S","pinCode":"612001","city":"Thanjavur","district":"Thanjavur","state":"Tamil Nadu"},{"pinCodeSeq":4855,"postOfficeName":"Kumbakonam South","pinCode":"612001","city":"Thanjavur","district":"Thanjavur","state":"Tamil Nadu"},{"pinCodeSeq":4856,"postOfficeName":"Kumbakonam West","pinCode":"612001","city":"Thanjavur","district":"Thanjavur","state":"Tamil Nadu"},{"pinCodeSeq":4857,"postOfficeName":"Melakaveri H O","pinCode":"612002","city":"Thanjavur","district":"Thanjavur","state":"Tamil Nadu"},{"pinCodeSeq":4859,"postOfficeName":"Tirumangalakudi","pinCode":"612102","city":"Thanjavur","district":"Thanjavur","state":"Tamil Nadu"},{"pinCodeSeq":4860,"postOfficeName":"Thanjavur","pinCode":"612103","city":"Thanjavur","district":"Thanjavur","state":"Tamil Nadu"},{"pinCodeSeq":4861,"postOfficeName":"Tiruvidaimarudur","pinCode":"612104","city":"Thanjavur","district":"Thanjavur","state":"Tamil Nadu"},{"pinCodeSeq":4863,"postOfficeName":"Kadiramangalam","pinCode":"612106","city":"Thanjavur","district":"Thanjavur","state":"Tamil Nadu"},{"pinCodeSeq":4864,"postOfficeName":"Avaniapuram","pinCode":"612107","city":"Thanjavur","district":"Thanjavur","state":"Tamil Nadu"},{"pinCodeSeq":4865,"postOfficeName":"Tirunilakudi","pinCode":"612108","city":"Thanjavur","district":"Thanjavur","state":"Tamil Nadu"},{"pinCodeSeq":4866,"postOfficeName":"Palakudi","pinCode":"612109","city":"Thanjavur","district":"Thanjavur","state":"Tamil Nadu"},{"pinCodeSeq":4867,"postOfficeName":"Tiruvesaloor","pinCode":"612110","city":"Thanjavur","district":"Thanjavur","state":"Tamil Nadu"},{"pinCodeSeq":4868,"postOfficeName":"Konerirajapuram","pinCode":"612201","city":"Thanjavur","district":"Thanjavur","state":"Tamil Nadu"},{"pinCodeSeq":4869,"postOfficeName":"Vadamattam","pinCode":"612201","city":"Thanjavur","district":"Thanjavur","state":"Tamil Nadu"},{"pinCodeSeq":4870,"postOfficeName":"Murugangudi","pinCode":"612202","city":"Thanjavur","district":"Thanjavur","state":"Tamil Nadu"},{"pinCodeSeq":4871,"postOfficeName":"Palaiyur","pinCode":"612203","city":"Thanjavur","district":"Thanjavur","state":"Tamil Nadu"},{"pinCodeSeq":4872,"postOfficeName":"Tirunageswaram","pinCode":"612204","city":"Thanjavur","district":"Thanjavur","state":"Tamil Nadu"},{"pinCodeSeq":4873,"postOfficeName":"Sengaramkudipudur","pinCode":"612205","city":"Thanjavur","district":"Thanjavur","state":"Tamil Nadu"},{"pinCodeSeq":4874,"postOfficeName":"Tepperumanallur","pinCode":"612206","city":"Thanjavur","district":"Thanjavur","state":"Tamil Nadu"},{"pinCodeSeq":4875,"postOfficeName":"Pullabudangudi","pinCode":"612301","city":"Thanjavur","district":"Thanjavur","state":"Tamil Nadu"},{"pinCodeSeq":4876,"postOfficeName":"Swammimalai","pinCode":"612302","city":"Thanjavur","district":"Thanjavur","state":"Tamil Nadu"},{"pinCodeSeq":4877,"postOfficeName":"Tiruppirambiyur","pinCode":"612303","city":"Thanjavur","district":"Thanjavur","state":"Tamil Nadu"},{"pinCodeSeq":4878,"postOfficeName":"Tiruvaikavur","pinCode":"612304","city":"Thanjavur","district":"Thanjavur","state":"Tamil Nadu"},{"pinCodeSeq":4879,"postOfficeName":"Sakkottai","pinCode":"612401","city":"Thanjavur","district":"Thanjavur","state":"Tamil Nadu"},{"pinCodeSeq":4880,"postOfficeName":"Tippirajapuram","pinCode":"612402","city":"Thanjavur","district":"Thanjavur","state":"Tamil Nadu"},{"pinCodeSeq":4881,"postOfficeName":"Koranattukaruppur","pinCode":"612501","city":"Thanjavur","district":"Thanjavur","state":"Tamil Nadu"},{"pinCodeSeq":4882,"postOfficeName":"Lower Anaicut","pinCode":"612502","city":"Thanjavur","district":"Thanjavur","state":"Tamil Nadu"},{"pinCodeSeq":4883,"postOfficeName":"Sholapuram","pinCode":"612503","city":"Thanjavur","district":"Thanjavur","state":"Tamil Nadu"},{"pinCodeSeq":4884,"postOfficeName":"Tirupanandal","pinCode":"612504","city":"Thanjavur","district":"Thanjavur","state":"Tamil Nadu"},{"pinCodeSeq":4885,"postOfficeName":"Devanacheri","pinCode":"612505","city":"Thanjavur","district":"Thanjavur","state":"Tamil Nadu"},{"pinCodeSeq":4886,"postOfficeName":"Niraihanallur","pinCode":"612506","city":"Thanjavur","district":"Thanjavur","state":"Tamil Nadu"},{"pinCodeSeq":4888,"postOfficeName":"Nachiarkoil","pinCode":"612602","city":"Thanjavur","district":"Thanjavur","state":"Tamil Nadu"},{"pinCodeSeq":4889,"postOfficeName":"Sembangudi","pinCode":"612603","city":"Thanjavur","district":"Thanjavur","state":"Tamil Nadu"},{"pinCodeSeq":4890,"postOfficeName":"Sengalipuram","pinCode":"612604","city":"Thanjavur","district":"Thanjavur","state":"Tamil Nadu"},{"pinCodeSeq":4891,"postOfficeName":"Tiruchirai","pinCode":"612605","city":"Thanjavur","district":"Thanjavur","state":"Tamil Nadu"},{"pinCodeSeq":4892,"postOfficeName":"Vidayal Karuppur","pinCode":"612606","city":"Thanjavur","district":"Thanjavur","state":"Tamil Nadu"},{"pinCodeSeq":4893,"postOfficeName":"Vadaver","pinCode":"612607","city":"Thanjavur","district":"Thanjavur","state":"Tamil Nadu"},{"pinCodeSeq":4894,"postOfficeName":"Pudukudi","pinCode":"612608","city":"Thanjavur","district":"Thanjavur","state":"Tamil Nadu"},{"pinCodeSeq":4895,"postOfficeName":"Kandramanickam","pinCode":"612609","city":"Thanjavur","district":"Thanjavur","state":"Tamil Nadu"},{"pinCodeSeq":4896,"postOfficeName":"Avoor","pinCode":"612701","city":"Thanjavur","district":"Thanjavur","state":"Tamil Nadu"},{"pinCodeSeq":4897,"postOfficeName":"Darasuram","pinCode":"612702","city":"Thanjavur","district":"Thanjavur","state":"Tamil Nadu"},{"pinCodeSeq":4898,"postOfficeName":"Patteeswaram","pinCode":"612703","city":"Thanjavur","district":"Thanjavur","state":"Tamil Nadu"},{"pinCodeSeq":4899,"postOfficeName":"Govindakudi","pinCode":"612704","city":"Thanjavur","district":"Thanjavur","state":"Tamil Nadu"},{"pinCodeSeq":4900,"postOfficeName":"Alangudi","pinCode":"612801","city":"Thanjavur","district":"Thanjavur","state":"Tamil Nadu"},{"pinCodeSeq":4901,"postOfficeName":"Haridwaramangalam","pinCode":"612802","city":"Thanjavur","district":"Thanjavur","state":"Tamil Nadu"},{"pinCodeSeq":4902,"postOfficeName":"Puvanur","pinCode":"612803","city":"Thanjavur","district":"Thanjavur","state":"Tamil Nadu"},{"pinCodeSeq":4903,"postOfficeName":"Valangaman","pinCode":"612804","city":"Thanjavur","district":"Thanjavur","state":"Tamil Nadu"},{"pinCodeSeq":4904,"postOfficeName":"Valangaman West","pinCode":"612804","city":"Thanjavur","district":"Thanjavur","state":"Tamil Nadu"},{"pinCodeSeq":4905,"postOfficeName":"Chandrasekarapuram","pinCode":"612805","city":"Thanjavur","district":"Thanjavur","state":"Tamil Nadu"},{"pinCodeSeq":4906,"postOfficeName":"Odayalur","pinCode":"612806","city":"Thanjavur","district":"Thanjavur","state":"Tamil Nadu"},{"pinCodeSeq":4907,"postOfficeName":"Rayapuram Tnj","pinCode":"612807","city":"Thanjavur","district":"Thanjavur","state":"Tamil Nadu"},{"pinCodeSeq":4908,"postOfficeName":"Gangaikondapuram","pinCode":"612901","city":"Thanjavur","district":"Thanjavur","state":"Tamil Nadu"},{"pinCodeSeq":4910,"postOfficeName":"Minsurutti","pinCode":"612903","city":"Thanjavur","district":"Thanjavur","state":"Tamil Nadu"},{"pinCodeSeq":4911,"postOfficeName":"Thattanpettaipalur","pinCode":"612904","city":"Thanjavur","district":"Thanjavur","state":"Tamil Nadu"},{"pinCodeSeq":4912,"postOfficeName":"Ulkottai","pinCode":"612905","city":"Thanjavur","district":"Thanjavur","state":"Tamil Nadu"},{"pinCodeSeq":4913,"postOfficeName":"Irudhayapuram","pinCode":"613001","city":"Thanjavur","district":"Thanjavur","state":"Tamil Nadu"},{"pinCodeSeq":4914,"postOfficeName":"Manambu Chavadi","pinCode":"613001","city":"Thanjavur","district":"Thanjavur","state":"Tamil Nadu"},{"pinCodeSeq":4915,"postOfficeName":"Thanjauvur South","pinCode":"613001","city":"Thanjavur","district":"Thanjavur","state":"Tamil Nadu"},{"pinCodeSeq":4916,"postOfficeName":"Thanjavur Bazar","pinCode":"613001","city":"Thanjavur","district":"Thanjavur","state":"Tamil Nadu"},{"pinCodeSeq":4917,"postOfficeName":"Thanjavur Bus Stand","pinCode":"613001","city":"Thanjavur","district":"Thanjavur","state":"Tamil Nadu"},{"pinCodeSeq":4918,"postOfficeName":"Thanjavur city","pinCode":"613001","city":"Thanjavur","district":"Thanjavur","state":"Tamil Nadu"},{"pinCodeSeq":4919,"postOfficeName":"Thanjavur Collectorate","pinCode":"613001","city":"Thanjavur","district":"Thanjavur","state":"Tamil Nadu"},{"pinCodeSeq":4920,"postOfficeName":"Thanjavur East","pinCode":"613001","city":"Thanjavur","district":"Thanjavur","state":"Tamil Nadu"},{"pinCodeSeq":4921,"postOfficeName":"Thanjavur East Gate","pinCode":"613001","city":"Thanjavur","district":"Thanjavur","state":"Tamil Nadu"},{"pinCodeSeq":4922,"postOfficeName":"Thanjavur H O","pinCode":"613001","city":"Thanjavur","district":"Thanjavur","state":"Tamil Nadu"},{"pinCodeSeq":4923,"postOfficeName":"Thanjavur Irwin Bridge","pinCode":"613001","city":"Thanjavur","district":"Thanjavur","state":"Tamil Nadu"},{"pinCodeSeq":4924,"postOfficeName":"Karunthattangudi","pinCode":"613002","city":"Thanjavur","district":"Thanjavur","state":"Tamil Nadu"},{"pinCodeSeq":4925,"postOfficeName":"Vannar Bank","pinCode":"613003","city":"Thanjavur","district":"Thanjavur","state":"Tamil Nadu"},{"pinCodeSeq":4926,"postOfficeName":"Thanjavur Medical College","pinCode":"613004","city":"Thanjavur","district":"Thanjavur","state":"Tamil Nadu"},{"pinCodeSeq":4927,"postOfficeName":"Raja Serfoji Govt College","pinCode":"613005","city":"Thanjavur","district":"Thanjavur","state":"Tamil Nadu"},{"pinCodeSeq":4928,"postOfficeName":"Thanjavur P&T Colony","pinCode":"613006","city":"Thanjavur","district":"Thanjavur","state":"Tamil Nadu"},{"pinCodeSeq":4929,"postOfficeName":"Rajappanagar","pinCode":"613007","city":"Thanjavur","district":"Thanjavur","state":"Tamil Nadu"},{"pinCodeSeq":4930,"postOfficeName":"Thanjavur Coop Hsg Colony","pinCode":"613007","city":"Thanjavur","district":"Thanjavur","state":"Tamil Nadu"},{"pinCodeSeq":4931,"postOfficeName":"V O C Nagar","pinCode":"613007","city":"Thanjavur","district":"Thanjavur","state":"Tamil Nadu"},{"pinCodeSeq":4932,"postOfficeName":"Thanjavur North Gate","pinCode":"613008","city":"Thanjavur","district":"Thanjavur","state":"Tamil Nadu"},{"pinCodeSeq":4933,"postOfficeName":"Co Operative Buildings","pinCode":"613009","city":"Thanjavur","district":"Thanjavur","state":"Tamil Nadu"},{"pinCodeSeq":4934,"postOfficeName":"Thanjavur","pinCode":"613009","city":"Thanjavur","district":"Thanjavur","state":"Tamil Nadu"},{"pinCodeSeq":4935,"postOfficeName":"Thanjavur North","pinCode":"613009","city":"Thanjavur","district":"Thanjavur","state":"Tamil Nadu"},{"pinCodeSeq":4936,"postOfficeName":"Thanjavur West","pinCode":"613009","city":"Thanjavur","district":"Thanjavur","state":"Tamil Nadu"},{"pinCodeSeq":4937,"postOfficeName":"Ramanathapuram Tnj","pinCode":"613051","city":"Thanjavur","district":"Thanjavur","state":"Tamil Nadu"},{"pinCodeSeq":4938,"postOfficeName":"Vilar","pinCode":"613052","city":"Thanjavur","district":"Thanjavur","state":"Tamil Nadu"},{"pinCodeSeq":4939,"postOfficeName":"Palliagraharam","pinCode":"613053","city":"Thanjavur","district":"Thanjavur","state":"Tamil Nadu"},{"pinCodeSeq":4940,"postOfficeName":"Inayuthukkanpatti","pinCode":"613054","city":"Thanjavur","district":"Thanjavur","state":"Tamil Nadu"},{"pinCodeSeq":4941,"postOfficeName":"Nadukaveri","pinCode":"613101","city":"Thanjavur","district":"Thanjavur","state":"Tamil Nadu"},{"pinCodeSeq":4942,"postOfficeName":"Thogur","pinCode":"613102","city":"Thanjavur","district":"Thanjavur","state":"Tamil Nadu"},{"pinCodeSeq":4943,"postOfficeName":"Tirupanthuruthi","pinCode":"613103","city":"Thanjavur","district":"Thanjavur","state":"Tamil Nadu"},{"pinCodeSeq":4944,"postOfficeName":"Tirukattupalli","pinCode":"613104","city":"Thanjavur","district":"Thanjavur","state":"Tamil Nadu"},{"pinCodeSeq":4945,"postOfficeName":"Tirukattupalli East","pinCode":"613104","city":"Thanjavur","district":"Thanjavur","state":"Tamil Nadu"},{"pinCodeSeq":4946,"postOfficeName":"Poondi Tirukattupalli","pinCode":"613105","city":"Thanjavur","district":"Thanjavur","state":"Tamil Nadu"},{"pinCodeSeq":4947,"postOfficeName":"Koviladi","pinCode":"613106","city":"Thanjavur","district":"Thanjavur","state":"Tamil Nadu"},{"pinCodeSeq":4948,"postOfficeName":"Renganathapuram","pinCode":"613107","city":"Thanjavur","district":"Thanjavur","state":"Tamil Nadu"},{"pinCodeSeq":4949,"postOfficeName":"Konerirajapuram","pinCode":"613108","city":"Thanjavur","district":"Thanjavur","state":"Tamil Nadu"},{"pinCodeSeq":4951,"postOfficeName":"Kachamangalam","pinCode":"613110","city":"Thanjavur","district":"Thanjavur","state":"Tamil Nadu"},{"pinCodeSeq":4952,"postOfficeName":"Kalyanapuram","pinCode":"613201","city":"Thanjavur","district":"Thanjavur","state":"Tamil Nadu"},{"pinCodeSeq":4953,"postOfficeName":"Kandiyur","pinCode":"613202","city":"Thanjavur","district":"Thanjavur","state":"Tamil Nadu"},{"pinCodeSeq":4954,"postOfficeName":"Thillaisthanam","pinCode":"613203","city":"Thanjavur","district":"Thanjavur","state":"Tamil Nadu"},{"pinCodeSeq":4955,"postOfficeName":"Tiruvaiyaru","pinCode":"613204","city":"Thanjavur","district":"Thanjavur","state":"Tamil Nadu"},{"pinCodeSeq":4956,"postOfficeName":"Tiruvaiyura North","pinCode":"613204","city":"Thanjavur","district":"Thanjavur","state":"Tamil Nadu"},{"pinCodeSeq":4957,"postOfficeName":"Vediapuram","pinCode":"613205","city":"Thanjavur","district":"Thanjavur","state":"Tamil Nadu"},{"pinCodeSeq":4958,"postOfficeName":"Maharajapuram","pinCode":"613206","city":"Thanjavur","district":"Thanjavur","state":"Tamil Nadu"},{"pinCodeSeq":4959,"postOfficeName":"Ponavasal","pinCode":"613207","city":"Thanjavur","district":"Thanjavur","state":"Tamil Nadu"},{"pinCodeSeq":4960,"postOfficeName":"Gandharvakottai","pinCode":"613301","city":"Thanjavur","district":"Thanjavur","state":"Tamil Nadu"},{"pinCodeSeq":4961,"postOfficeName":"Kovilur Thanjavur","pinCode":"613302","city":"Thanjavur","district":"Thanjavur","state":"Tamil Nadu"},{"pinCodeSeq":4962,"postOfficeName":"Karungalpalayam","pinCode":"613303","city":"Thanjavur","district":"Thanjavur","state":"Tamil Nadu"},{"pinCodeSeq":4963,"postOfficeName":"Karungulammelpatti","pinCode":"613303","city":"Thanjavur","district":"Thanjavur","state":"Tamil Nadu"},{"pinCodeSeq":4964,"postOfficeName":"Kurungulam Melpathi","pinCode":"613303","city":"Thanjavur","district":"Thanjavur","state":"Tamil Nadu"},{"pinCodeSeq":4965,"postOfficeName":"Raghunathapuram Tnj","pinCode":"613304","city":"Thanjavur","district":"Thanjavur","state":"Tamil Nadu"},{"pinCodeSeq":4966,"postOfficeName":"Kadampatti","pinCode":"613305","city":"Thanjavur","district":"Thanjavur","state":"Tamil Nadu"},{"pinCodeSeq":4967,"postOfficeName":"Tirukanur Patti","pinCode":"613307","city":"Thanjavur","district":"Thanjavur","state":"Tamil Nadu"},{"pinCodeSeq":4968,"postOfficeName":"M G M Sanatorium","pinCode":"613401","city":"Thanjavur","district":"Thanjavur","state":"Tamil Nadu"},{"pinCodeSeq":4969,"postOfficeName":"Sengipatti","pinCode":"613402","city":"Thanjavur","district":"Thanjavur","state":"Tamil Nadu"},{"pinCodeSeq":4972,"postOfficeName":"Mariammankoil","pinCode":"613501","city":"Thanjavur","district":"Thanjavur","state":"Tamil Nadu"},{"pinCodeSeq":4973,"postOfficeName":"Pundi Thanjavur","pinCode":"613502","city":"Thanjavur","district":"Thanjavur","state":"Tamil Nadu"},{"pinCodeSeq":4974,"postOfficeName":"Sir Pushpam College","pinCode":"613503","city":"Thanjavur","district":"Thanjavur","state":"Tamil Nadu"},{"pinCodeSeq":4975,"postOfficeName":"Salimangalam","pinCode":"613504","city":"Thanjavur","district":"Thanjavur","state":"Tamil Nadu"},{"pinCodeSeq":4976,"postOfficeName":"Irumburthalai","pinCode":"613505","city":"Thanjavur","district":"Thanjavur","state":"Tamil Nadu"},{"pinCodeSeq":4977,"postOfficeName":"Kalancheri","pinCode":"613506","city":"Thanjavur","district":"Thanjavur","state":"Tamil Nadu"},{"pinCodeSeq":4978,"postOfficeName":"Alakudi","pinCode":"613601","city":"Thanjavur","district":"Thanjavur","state":"Tamil Nadu"},{"pinCodeSeq":4979,"postOfficeName":"Budalur","pinCode":"613602","city":"Thanjavur","district":"Thanjavur","state":"Tamil Nadu"},{"pinCodeSeq":4980,"postOfficeName":"Kallaperambur","pinCode":"613603","city":"Thanjavur","district":"Thanjavur","state":"Tamil Nadu"},{"pinCodeSeq":4981,"postOfficeName":"Ammayappan","pinCode":"613701","city":"Thanjavur","district":"Thanjavur","state":"Tamil Nadu"},{"pinCodeSeq":4982,"postOfficeName":"Athikadai","pinCode":"613702","city":"Thanjavur","district":"Thanjavur","state":"Tamil Nadu"},{"pinCodeSeq":4984,"postOfficeName":"Kulikarai","pinCode":"613704","city":"Thanjavur","district":"Thanjavur","state":"Tamil Nadu"},{"pinCodeSeq":4985,"postOfficeName":"Sellur","pinCode":"613705","city":"Thanjavur","district":"Thanjavur","state":"Tamil Nadu"},{"pinCodeSeq":4986,"postOfficeName":"Abiviethiswaram","pinCode":"613706","city":"Thanjavur","district":"Thanjavur","state":"Tamil Nadu"},{"pinCodeSeq":4987,"postOfficeName":"Barakadabad","pinCode":"613707","city":"Thanjavur","district":"Thanjavur","state":"Tamil Nadu"},{"pinCodeSeq":4988,"postOfficeName":"Mannaraguid H O","pinCode":"614001","city":"Thanjavur","district":"Thanjavur","state":"Tamil Nadu"},{"pinCodeSeq":4989,"postOfficeName":"Mannargudi Bazaar","pinCode":"614001","city":"Thanjavur","district":"Thanjavur","state":"Tamil Nadu"},{"pinCodeSeq":4990,"postOfficeName":"Mannarguid Cutcherry","pinCode":"614001","city":"Thanjavur","district":"Thanjavur","state":"Tamil Nadu"},{"pinCodeSeq":4991,"postOfficeName":"Handranadi","pinCode":"614012","city":"Thanjavur","district":"Thanjavur","state":"Tamil Nadu"},{"pinCodeSeq":4992,"postOfficeName":"Idangankottai Melaiyur","pinCode":"614013","city":"Thanjavur","district":"Thanjavur","state":"Tamil Nadu"},{"pinCodeSeq":4993,"postOfficeName":"Pamani","pinCode":"614014","city":"Thanjavur","district":"Thanjavur","state":"Tamil Nadu"},{"pinCodeSeq":4994,"postOfficeName":"Pamani","pinCode":"614014","city":"Thanjavur","district":"Thanjavur","state":"Tamil Nadu"},{"pinCodeSeq":4995,"postOfficeName":"Paravakottai","pinCode":"614015","city":"Thanjavur","district":"Thanjavur","state":"Tamil Nadu"},{"pinCodeSeq":4996,"postOfficeName":"Serangoiam","pinCode":"614016","city":"Thanjavur","district":"Thanjavur","state":"Tamil Nadu"},{"pinCodeSeq":4997,"postOfficeName":"Tirumakkottai","pinCode":"614017","city":"Thanjavur","district":"Thanjavur","state":"Tamil Nadu"},{"pinCodeSeq":4998,"postOfficeName":"Vadavur","pinCode":"614019","city":"Thanjavur","district":"Thanjavur","state":"Tamil Nadu"},{"pinCodeSeq":4999,"postOfficeName":"Painganadu","pinCode":"614020","city":"Thanjavur","district":"Thanjavur","state":"Tamil Nadu"},{"pinCodeSeq":5000,"postOfficeName":"Karuvakurichi","pinCode":"614021","city":"Thanjavur","district":"Thanjavur","state":"Tamil Nadu"},{"pinCodeSeq":5001,"postOfficeName":"Koopachikottai","pinCode":"614022","city":"Thanjavur","district":"Thanjavur","state":"Tamil Nadu"},{"pinCodeSeq":5002,"postOfficeName":"Mukkulam Sathanur","pinCode":"614023","city":"Thanjavur","district":"Thanjavur","state":"Tamil Nadu"},{"pinCodeSeq":5003,"postOfficeName":"Serimangalam","pinCode":"614024","city":"Thanjavur","district":"Thanjavur","state":"Tamil Nadu"},{"pinCodeSeq":5004,"postOfficeName":"Solapandi","pinCode":"614025","city":"Thanjavur","district":"Thanjavur","state":"Tamil Nadu"},{"pinCodeSeq":5005,"postOfficeName":"Vandayaniruppu","pinCode":"614026","city":"Thanjavur","district":"Thanjavur","state":"Tamil Nadu"},{"pinCodeSeq":5007,"postOfficeName":"Tirupalakudi","pinCode":"614028","city":"Thanjavur","district":"Thanjavur","state":"Tamil Nadu"},{"pinCodeSeq":5008,"postOfficeName":"Mahadevapattinam","pinCode":"614029","city":"Thanjavur","district":"Thanjavur","state":"Tamil Nadu"},{"pinCodeSeq":5009,"postOfficeName":"Kilakurichi","pinCode":"614030","city":"Thanjavur","district":"Thanjavur","state":"Tamil Nadu"},{"pinCodeSeq":5010,"postOfficeName":"Vallur","pinCode":"614031","city":"Thanjavur","district":"Thanjavur","state":"Tamil Nadu"},{"pinCodeSeq":5011,"postOfficeName":"Koothanallur","pinCode":"614101","city":"Thanjavur","district":"Thanjavur","state":"Tamil Nadu"},{"pinCodeSeq":5012,"postOfficeName":"Lakshmangudi","pinCode":"614102","city":"Thanjavur","district":"Thanjavur","state":"Tamil Nadu"},{"pinCodeSeq":5013,"postOfficeName":"Podakudi","pinCode":"614103","city":"Thanjavur","district":"Thanjavur","state":"Tamil Nadu"},{"pinCodeSeq":5014,"postOfficeName":"Ayyampet","pinCode":"614201","city":"Thanjavur","district":"Thanjavur","state":"Tamil Nadu"},{"pinCodeSeq":5015,"postOfficeName":"Ayyampet Bazaar","pinCode":"614201","city":"Thanjavur","district":"Thanjavur","state":"Tamil Nadu"},{"pinCodeSeq":5016,"postOfficeName":"Kabisthalam","pinCode":"614203","city":"Thanjavur","district":"Thanjavur","state":"Tamil Nadu"},{"pinCodeSeq":5017,"postOfficeName":"Pandaravadai","pinCode":"614204","city":"Thanjavur","district":"Thanjavur","state":"Tamil Nadu"},{"pinCodeSeq":5018,"postOfficeName":"Papanasam Bazar","pinCode":"614205","city":"Thanjavur","district":"Thanjavur","state":"Tamil Nadu"},{"pinCodeSeq":5019,"postOfficeName":"Papanasam H O","pinCode":"614205","city":"Thanjavur","district":"Thanjavur","state":"Tamil Nadu"},{"pinCodeSeq":5020,"postOfficeName":"Papanasam North","pinCode":"614205","city":"Thanjavur","district":"Thanjavur","state":"Tamil Nadu"},{"pinCodeSeq":5021,"postOfficeName":"Papanasam Public Offices","pinCode":"614205","city":"Thanjavur","district":"Thanjavur","state":"Tamil Nadu"},{"pinCodeSeq":5022,"postOfficeName":"Pasupathikoil","pinCode":"614206","city":"Thanjavur","district":"Thanjavur","state":"Tamil Nadu"},{"pinCodeSeq":5023,"postOfficeName":"Rajaghiri","pinCode":"614207","city":"Thanjavur","district":"Thanjavur","state":"Tamil Nadu"},{"pinCodeSeq":5025,"postOfficeName":"Umayalpuram","pinCode":"614209","city":"Thanjavur","district":"Thanjavur","state":"Tamil Nadu"},{"pinCodeSeq":5026,"postOfficeName":"Valoothoor T J","pinCode":"614210","city":"Thanjavur","district":"Thanjavur","state":"Tamil Nadu"},{"pinCodeSeq":5027,"postOfficeName":"Chakrapalli","pinCode":"614211","city":"Thanjavur","district":"Thanjavur","state":"Tamil Nadu"},{"pinCodeSeq":5028,"postOfficeName":"Ullikadai","pinCode":"614212","city":"Thanjavur","district":"Thanjavur","state":"Tamil Nadu"},{"pinCodeSeq":5029,"postOfficeName":"Uthamadanapuram","pinCode":"614213","city":"Thanjavur","district":"Thanjavur","state":"Tamil Nadu"},{"pinCodeSeq":5031,"postOfficeName":"Tirukaragavur","pinCode":"614302","city":"Thanjavur","district":"Thanjavur","state":"Tamil Nadu"},{"pinCodeSeq":5032,"postOfficeName":"Vadakku Mangudi","pinCode":"614303","city":"Thanjavur","district":"Thanjavur","state":"Tamil Nadu"},{"pinCodeSeq":5033,"postOfficeName":"Ammapet","pinCode":"614401","city":"Thanjavur","district":"Thanjavur","state":"Tamil Nadu"},{"pinCodeSeq":5034,"postOfficeName":"Kokkeri","pinCode":"614402","city":"Thanjavur","district":"Thanjavur","state":"Tamil Nadu"},{"pinCodeSeq":5035,"postOfficeName":"Kovilvenni","pinCode":"614403","city":"Thanjavur","district":"Thanjavur","state":"Tamil Nadu"},{"pinCodeSeq":5036,"postOfficeName":"Nidamangalam","pinCode":"614404","city":"Thanjavur","district":"Thanjavur","state":"Tamil Nadu"},{"pinCodeSeq":5037,"postOfficeName":"Arundavapuram","pinCode":"614405","city":"Thanjavur","district":"Thanjavur","state":"Tamil Nadu"},{"pinCodeSeq":5038,"postOfficeName":"Peramburnidamangalam","pinCode":"614406","city":"Thanjavur","district":"Thanjavur","state":"Tamil Nadu"},{"pinCodeSeq":5039,"postOfficeName":"Munnavalkollai","pinCode":"614407","city":"Thanjavur","district":"Thanjavur","state":"Tamil Nadu"},{"pinCodeSeq":5040,"postOfficeName":"Pattukottai Bazar","pinCode":"614601","city":"Thanjavur","district":"Thanjavur","state":"Tamil Nadu"},{"pinCodeSeq":5041,"postOfficeName":"Pattukottai H O","pinCode":"614601","city":"Thanjavur","district":"Thanjavur","state":"Tamil Nadu"},{"pinCodeSeq":5042,"postOfficeName":"Pattukottai West","pinCode":"614601","city":"Thanjavur","district":"Thanjavur","state":"Tamil Nadu"},{"pinCodeSeq":5043,"postOfficeName":"Thangavelnagar","pinCode":"614601","city":"Thanjavur","district":"Thanjavur","state":"Tamil Nadu"},{"pinCodeSeq":5044,"postOfficeName":"Nadimuthunagar","pinCode":"614602","city":"Thanjavur","district":"Thanjavur","state":"Tamil Nadu"},{"pinCodeSeq":5045,"postOfficeName":"Srinivasapuram","pinCode":"614602","city":"Thanjavur","district":"Thanjavur","state":"Tamil Nadu"},{"pinCodeSeq":5046,"postOfficeName":"Karaikottai","pinCode":"614612","city":"Thanjavur","district":"Thanjavur","state":"Tamil Nadu"},{"pinCodeSeq":5047,"postOfficeName":"Perimagalur","pinCode":"614612","city":"Thanjavur","district":"Thanjavur","state":"Tamil Nadu"},{"pinCodeSeq":5048,"postOfficeName":"Tamarankottai","pinCode":"614613","city":"Thanjavur","district":"Thanjavur","state":"Tamil Nadu"},{"pinCodeSeq":5049,"postOfficeName":"Tiruvonam","pinCode":"614614","city":"Thanjavur","district":"Thanjavur","state":"Tamil Nadu"},{"pinCodeSeq":5050,"postOfficeName":"Aladikumulai","pinCode":"614615","city":"Thanjavur","district":"Thanjavur","state":"Tamil Nadu"},{"pinCodeSeq":5052,"postOfficeName":"Ammapattinam","pinCode":"614617","city":"Thanjavur","district":"Thanjavur","state":"Tamil Nadu"},{"pinCodeSeq":5053,"postOfficeName":"Avadayarkoil","pinCode":"614618","city":"Thanjavur","district":"Thanjavur","state":"Tamil Nadu"},{"pinCodeSeq":5054,"postOfficeName":"Kottaipattinam","pinCode":"614619","city":"Thanjavur","district":"Thanjavur","state":"Tamil Nadu"},{"pinCodeSeq":5055,"postOfficeName":"Manamelkudi","pinCode":"614620","city":"Thanjavur","district":"Thanjavur","state":"Tamil Nadu"},{"pinCodeSeq":5056,"postOfficeName":"Mimisal","pinCode":"614621","city":"Thanjavur","district":"Thanjavur","state":"Tamil Nadu"},{"pinCodeSeq":5057,"postOfficeName":"Silathur","pinCode":"614622","city":"Thanjavur","district":"Thanjavur","state":"Tamil Nadu"},{"pinCodeSeq":5058,"postOfficeName":"Avanam","pinCode":"614623","city":"Thanjavur","district":"Thanjavur","state":"Tamil Nadu"},{"pinCodeSeq":5059,"postOfficeName":"Mukthambal Chatram","pinCode":"614625","city":"Thanjavur","district":"Thanjavur","state":"Tamil Nadu"},{"pinCodeSeq":5060,"postOfficeName":"Orathanad","pinCode":"614625","city":"Thanjavur","district":"Thanjavur","state":"Tamil Nadu"},{"pinCodeSeq":5061,"postOfficeName":"Orattanad South","pinCode":"614625","city":"Thanjavur","district":"Thanjavur","state":"Tamil Nadu"},{"pinCodeSeq":5063,"postOfficeName":"Pappanad","pinCode":"614626","city":"Thanjavur","district":"Thanjavur","state":"Tamil Nadu"},{"pinCodeSeq":5064,"postOfficeName":"Tirumangalakottai","pinCode":"614627","city":"Thanjavur","district":"Thanjavur","state":"Tamil Nadu"},{"pinCodeSeq":5065,"postOfficeName":"Tiruchitrambalam","pinCode":"614628","city":"Thanjavur","district":"Thanjavur","state":"Tamil Nadu"},{"pinCodeSeq":5066,"postOfficeName":"Ponbethi","pinCode":"614629","city":"Thanjavur","district":"Thanjavur","state":"Tamil Nadu"},{"pinCodeSeq":5067,"postOfficeName":"Attani","pinCode":"614630","city":"Thanjavur","district":"Thanjavur","state":"Tamil Nadu"},{"pinCodeSeq":5068,"postOfficeName":"Uranipuram","pinCode":"614631","city":"Thanjavur","district":"Thanjavur","state":"Tamil Nadu"},{"pinCodeSeq":5069,"postOfficeName":"Okkanad Kilaiyur","pinCode":"614632","city":"Thanjavur","district":"Thanjavur","state":"Tamil Nadu"},{"pinCodeSeq":5070,"postOfficeName":"Chidambaraviduthi","pinCode":"614633","city":"Thanjavur","district":"Thanjavur","state":"Tamil Nadu"},{"pinCodeSeq":5071,"postOfficeName":"Edayathimangalam","pinCode":"614634","city":"Thanjavur","district":"Thanjavur","state":"Tamil Nadu"},{"pinCodeSeq":5072,"postOfficeName":"Jagadapattinam","pinCode":"614635","city":"Thanjavur","district":"Thanjavur","state":"Tamil Nadu"},{"pinCodeSeq":5073,"postOfficeName":"Venkarai East","pinCode":"614636","city":"Thanjavur","district":"Thanjavur","state":"Tamil Nadu"},{"pinCodeSeq":5074,"postOfficeName":"Kallakottai","pinCode":"614637","city":"Thanjavur","district":"Thanjavur","state":"Tamil Nadu"},{"pinCodeSeq":5075,"postOfficeName":"Pattukottai","pinCode":"614638","city":"Thanjavur","district":"Thanjavur","state":"Tamil Nadu"},{"pinCodeSeq":5076,"postOfficeName":"Adambai","pinCode":"614639","city":"Thanjavur","district":"Thanjavur","state":"Tamil Nadu"},{"pinCodeSeq":5077,"postOfficeName":"Krishnarajipattinam","pinCode":"614640","city":"Thanjavur","district":"Thanjavur","state":"Tamil Nadu"},{"pinCodeSeq":5078,"postOfficeName":"Brahmanavayal","pinCode":"614641","city":"Thanjavur","district":"Thanjavur","state":"Tamil Nadu"},{"pinCodeSeq":5079,"postOfficeName":"Tirupunavasal","pinCode":"614642","city":"Thanjavur","district":"Thanjavur","state":"Tamil Nadu"},{"pinCodeSeq":5080,"postOfficeName":"Singavanam","pinCode":"614643","city":"Thanjavur","district":"Thanjavur","state":"Tamil Nadu"},{"pinCodeSeq":5081,"postOfficeName":"Perumarudur","pinCode":"614644","city":"Thanjavur","district":"Thanjavur","state":"Tamil Nadu"},{"pinCodeSeq":5082,"postOfficeName":"Thiyathur","pinCode":"614645","city":"Thanjavur","district":"Thanjavur","state":"Tamil Nadu"},{"pinCodeSeq":5083,"postOfficeName":"Arantangi Fort","pinCode":"614647","city":"Thanjavur","district":"Thanjavur","state":"Tamil Nadu"},{"pinCodeSeq":5084,"postOfficeName":"Adirampattinam","pinCode":"614701","city":"Thanjavur","district":"Thanjavur","state":"Tamil Nadu"},{"pinCodeSeq":5085,"postOfficeName":"Adirampattinam Town","pinCode":"614701","city":"Thanjavur","district":"Thanjavur","state":"Tamil Nadu"},{"pinCodeSeq":5086,"postOfficeName":"Idaiyur","pinCode":"614702","city":"Thanjavur","district":"Thanjavur","state":"Tamil Nadu"},{"pinCodeSeq":5087,"postOfficeName":"Kunnalur","pinCode":"614703","city":"Thanjavur","district":"Thanjavur","state":"Tamil Nadu"},{"pinCodeSeq":5088,"postOfficeName":"Movilur-Mtu","pinCode":"614704","city":"Thanjavur","district":"Thanjavur","state":"Tamil Nadu"},{"pinCodeSeq":5089,"postOfficeName":"Muttupet-Town","pinCode":"614704","city":"Thanjavur","district":"Thanjavur","state":"Tamil Nadu"},{"pinCodeSeq":5090,"postOfficeName":"Mutupet","pinCode":"614704","city":"Thanjavur","district":"Thanjavur","state":"Tamil Nadu"},{"pinCodeSeq":5091,"postOfficeName":"Rettai-Mtu","pinCode":"614704","city":"Thanjavur","district":"Thanjavur","state":"Tamil Nadu"},{"pinCodeSeq":5092,"postOfficeName":"Peruvazhandan","pinCode":"614705","city":"Thanjavur","district":"Thanjavur","state":"Tamil Nadu"},{"pinCodeSeq":5093,"postOfficeName":"Udayamarthandapuram","pinCode":"614706","city":"Thanjavur","district":"Thanjavur","state":"Tamil Nadu"},{"pinCodeSeq":5094,"postOfficeName":"Sethi","pinCode":"614707","city":"Thanjavur","district":"Thanjavur","state":"Tamil Nadu"},{"pinCodeSeq":5096,"postOfficeName":"Manakudi","pinCode":"614709","city":"Thanjavur","district":"Thanjavur","state":"Tamil Nadu"},{"pinCodeSeq":5097,"postOfficeName":"Naduvakalappal","pinCode":"614710","city":"Thanjavur","district":"Thanjavur","state":"Tamil Nadu"},{"pinCodeSeq":5098,"postOfficeName":"Tiruturaipoondi","pinCode":"614711","city":"Thanjavur","district":"Thanjavur","state":"Tamil Nadu"},{"pinCodeSeq":5099,"postOfficeName":"Talanagar Agraharam","pinCode":"614712","city":"Thanjavur","district":"Thanjavur","state":"Tamil Nadu"},{"pinCodeSeq":5100,"postOfficeName":"Tiruthuraipundi Bazar","pinCode":"614713","city":"Thanjavur","district":"Thanjavur","state":"Tamil Nadu"},{"pinCodeSeq":5101,"postOfficeName":"Tiruthuraipundi H O","pinCode":"614713","city":"Thanjavur","district":"Thanjavur","state":"Tamil Nadu"},{"pinCodeSeq":5102,"postOfficeName":"Tiruthuraipundi West","pinCode":"614713","city":"Thanjavur","district":"Thanjavur","state":"Tamil Nadu"},{"pinCodeSeq":5103,"postOfficeName":"Tiruthuraipunndi R S","pinCode":"614713","city":"Thanjavur","district":"Thanjavur","state":"Tamil Nadu"},{"pinCodeSeq":5104,"postOfficeName":"Takattur","pinCode":"614714","city":"Thanjavur","district":"Thanjavur","state":"Tamil Nadu"},{"pinCodeSeq":5105,"postOfficeName":"Vilakudi","pinCode":"614715","city":"Thanjavur","district":"Thanjavur","state":"Tamil Nadu"},{"pinCodeSeq":5106,"postOfficeName":"Kattimodu","pinCode":"614716","city":"Thanjavur","district":"Thanjavur","state":"Tamil Nadu"},{"pinCodeSeq":5107,"postOfficeName":"Adichapuram","pinCode":"614717","city":"Thanjavur","district":"Thanjavur","state":"Tamil Nadu"},{"pinCodeSeq":5108,"postOfficeName":"Mannaragudi","pinCode":"614719","city":"Thanjavur","district":"Thanjavur","state":"Tamil Nadu"},{"pinCodeSeq":5109,"postOfficeName":"Tirukalar","pinCode":"614720","city":"Thanjavur","district":"Thanjavur","state":"Tamil Nadu"},{"pinCodeSeq":5110,"postOfficeName":"Maravakadu","pinCode":"614721","city":"Thanjavur","district":"Thanjavur","state":"Tamil Nadu"},{"pinCodeSeq":5111,"postOfficeName":"Rajamadam","pinCode":"614722","city":"Thanjavur","district":"Thanjavur","state":"Tamil Nadu"},{"pinCodeSeq":5112,"postOfficeName":"Mallipattinam","pinCode":"614723","city":"Thanjavur","district":"Thanjavur","state":"Tamil Nadu"},{"pinCodeSeq":5114,"postOfficeName":"Kadinavayal","pinCode":"614725","city":"Thanjavur","district":"Thanjavur","state":"Tamil Nadu"},{"pinCodeSeq":5115,"postOfficeName":"Kodinavayal","pinCode":"614725","city":"Thanjavur","district":"Thanjavur","state":"Tamil Nadu"},{"pinCodeSeq":5116,"postOfficeName":"Vaduvanchery","pinCode":"614726","city":"Thanjavur","district":"Thanjavur","state":"Tamil Nadu"},{"pinCodeSeq":5117,"postOfficeName":"Thulajapattinam","pinCode":"614727","city":"Thanjavur","district":"Thanjavur","state":"Tamil Nadu"},{"pinCodeSeq":5119,"postOfficeName":"Thillai Vilagam","pinCode":"614729","city":"Thanjavur","district":"Thanjavur","state":"Tamil Nadu"},{"pinCodeSeq":5120,"postOfficeName":"T Nelakadu","pinCode":"614730","city":"Thanjavur","district":"Thanjavur","state":"Tamil Nadu"},{"pinCodeSeq":5121,"postOfficeName":"Tambikottai Melakadu","pinCode":"614730","city":"Thanjavur","district":"Thanjavur","state":"Tamil Nadu"},{"pinCodeSeq":5122,"postOfficeName":"Kilakadu","pinCode":"614731","city":"Thanjavur","district":"Thanjavur","state":"Tamil Nadu"},{"pinCodeSeq":5123,"postOfficeName":"Karuppanpulam","pinCode":"614732","city":"Thanjavur","district":"Thanjavur","state":"Tamil Nadu"},{"pinCodeSeq":5124,"postOfficeName":"Korukkai","pinCode":"614733","city":"Thanjavur","district":"Thanjavur","state":"Tamil Nadu"},{"pinCodeSeq":5125,"postOfficeName":"Adanur Pattukkottai","pinCode":"614734","city":"Thanjavur","district":"Thanjavur","state":"Tamil Nadu"},{"pinCodeSeq":5126,"postOfficeName":"Idumbavanam","pinCode":"614735","city":"Thanjavur","district":"Thanjavur","state":"Tamil Nadu"},{"pinCodeSeq":5127,"postOfficeName":"Keerakalur","pinCode":"614736","city":"Thanjavur","district":"Thanjavur","state":"Tamil Nadu"},{"pinCodeSeq":5128,"postOfficeName":"Tambikottai","pinCode":"614737","city":"Thanjavur","district":"Thanjavur","state":"Tamil Nadu"},{"pinCodeSeq":5129,"postOfficeName":"Jambavanodai","pinCode":"614738","city":"Thanjavur","district":"Thanjavur","state":"Tamil Nadu"},{"pinCodeSeq":5131,"postOfficeName":"Kuruvikarambai","pinCode":"614802","city":"Thanjavur","district":"Thanjavur","state":"Tamil Nadu"},{"pinCodeSeq":5132,"postOfficeName":"Ottangadu","pinCode":"614803","city":"Thanjavur","district":"Thanjavur","state":"Tamil Nadu"},{"pinCodeSeq":5133,"postOfficeName":"Peravurni","pinCode":"614804","city":"Thanjavur","district":"Thanjavur","state":"Tamil Nadu"},{"pinCodeSeq":5134,"postOfficeName":"Peravurni Bazaar","pinCode":"614804","city":"Thanjavur","district":"Thanjavur","state":"Tamil Nadu"},{"pinCodeSeq":5135,"postOfficeName":"Subramaniapuram Tnj","pinCode":"614805","city":"Thanjavur","district":"Thanjavur","state":"Tamil Nadu"},{"pinCodeSeq":5136,"postOfficeName":"Kariyapattinam","pinCode":"614806","city":"Thanjavur","district":"Thanjavur","state":"Tamil Nadu"},{"pinCodeSeq":5137,"postOfficeName":"Kodikarai","pinCode":"614807","city":"Thanjavur","district":"Thanjavur","state":"Tamil Nadu"},{"pinCodeSeq":5138,"postOfficeName":"Kuruvapulam","pinCode":"614808","city":"Thanjavur","district":"Thanjavur","state":"Tamil Nadu"},{"pinCodeSeq":5139,"postOfficeName":"Topputhurai","pinCode":"614809","city":"Thanjavur","district":"Thanjavur","state":"Tamil Nadu"},{"pinCodeSeq":5140,"postOfficeName":"Vedaraniyam","pinCode":"614810","city":"Thanjavur","district":"Thanjavur","state":"Tamil Nadu"},{"pinCodeSeq":5141,"postOfficeName":"Vedarniyam East","pinCode":"614810","city":"Thanjavur","district":"Thanjavur","state":"Tamil Nadu"},{"pinCodeSeq":5142,"postOfficeName":"Sethi","pinCode":"614811","city":"Thanjavur","district":"Thanjavur","state":"Tamil Nadu"},{"pinCodeSeq":5143,"postOfficeName":"Thethakudi Vadakku","pinCode":"614811","city":"Thanjavur","district":"Thanjavur","state":"Tamil Nadu"},{"pinCodeSeq":5144,"postOfficeName":"Katirpulam","pinCode":"614812","city":"Thanjavur","district":"Thanjavur","state":"Tamil Nadu"},{"pinCodeSeq":5145,"postOfficeName":"Arkattuthurai","pinCode":"614813","city":"Thanjavur","district":"Thanjavur","state":"Tamil Nadu"},{"pinCodeSeq":5146,"postOfficeName":"Poonaikuthikadu","pinCode":"614814","city":"Thanjavur","district":"Thanjavur","state":"Tamil Nadu"},{"pinCodeSeq":5147,"postOfficeName":"Chettipulam","pinCode":"614815","city":"Thanjavur","district":"Thanjavur","state":"Tamil Nadu"},{"pinCodeSeq":5148,"postOfficeName":"Kalathur","pinCode":"614816","city":"Thanjavur","district":"Thanjavur","state":"Tamil Nadu"},{"pinCodeSeq":5149,"postOfficeName":"Sethi","pinCode":"614817","city":"Thanjavur","district":"Thanjavur","state":"Tamil Nadu"},{"pinCodeSeq":5150,"postOfficeName":"Sembagarayanallur","pinCode":"614818","city":"Thanjavur","district":"Thanjavur","state":"Tamil Nadu"},{"pinCodeSeq":5151,"postOfficeName":"Thanjavur","pinCode":"614820","city":"Thanjavur","district":"Thanjavur","state":"Tamil Nadu"},{"pinCodeSeq":5152,"postOfficeName":"Kodiyakadu","pinCode":"614821","city":"Thanjavur","district":"Thanjavur","state":"Tamil Nadu"},{"pinCodeSeq":5153,"postOfficeName":"Kudiakkadu","pinCode":"614821","city":"Thanjavur","district":"Thanjavur","state":"Tamil Nadu"},{"pinCodeSeq":5154,"postOfficeName":"Pushpavanam","pinCode":"614822","city":"Thanjavur","district":"Thanjavur","state":"Tamil Nadu"},{"pinCodeSeq":5155,"postOfficeName":"Alathur","pinCode":"614901","city":"Thanjavur","district":"Thanjavur","state":"Tamil Nadu"},{"pinCodeSeq":5156,"postOfficeName":"Kottaitheru","pinCode":"614902","city":"Thanjavur","district":"Thanjavur","state":"Tamil Nadu"},{"pinCodeSeq":5159,"postOfficeName":"Melaulur","pinCode":"614904","city":"Thanjavur","district":"Thanjavur","state":"Tamil Nadu"},{"pinCodeSeq":5160,"postOfficeName":"Vadasseri","pinCode":"614905","city":"Thanjavur","district":"Thanjavur","state":"Tamil Nadu"},{"pinCodeSeq":5161,"postOfficeName":"Nattuchalai","pinCode":"614906","city":"Thanjavur","district":"Thanjavur","state":"Tamil Nadu"},{"pinCodeSeq":5162,"postOfficeName":"Kilaiyur","pinCode":"614908","city":"Thanjavur","district":"Thanjavur","state":"Tamil Nadu"},{"pinCodeSeq":5163,"postOfficeName":"T Kilaiyur","pinCode":"614908","city":"Thanjavur","district":"Thanjavur","state":"Tamil Nadu"},{"pinCodeSeq":5164,"postOfficeName":"Mannanagadu","pinCode":"614909","city":"Thanjavur","district":"Thanjavur","state":"Tamil Nadu"},{"pinCodeSeq":5165,"postOfficeName":"Kasankadu","pinCode":"614910","city":"Thanjavur","district":"Thanjavur","state":"Tamil Nadu"},{"pinCodeSeq":5166,"postOfficeName":"Kasanadupudur","pinCode":"614911","city":"Thanjavur","district":"Thanjavur","state":"Tamil Nadu"},{"pinCodeSeq":5167,"postOfficeName":"Poyyandankottai","pinCode":"614912","city":"Thanjavur","district":"Thanjavur","state":"Tamil Nadu"},{"pinCodeSeq":5168,"postOfficeName":"Pinnaiyur","pinCode":"614913","city":"Thanjavur","district":"Thanjavur","state":"Tamil Nadu"},{"pinCodeSeq":5169,"postOfficeName":"Kalyanaodai","pinCode":"614914","city":"Thanjavur","district":"Thanjavur","state":"Tamil Nadu"},{"pinCodeSeq":5170,"postOfficeName":"Siramelkudi","pinCode":"614915","city":"Thanjavur","district":"Thanjavur","state":"Tamil Nadu"},{"pinCodeSeq":7475,"postOfficeName":"Sundarapuram","pinCode":"641024","city":"Thanjavur","district":"Thanjavur","state":"Tamil Nadu"}]