[{"pinCodeSeq":4213,"postOfficeName":"Saligramam","pinCode":"600093","city":"Tiruvallur","district":"Tiruvallur","state":"Tamil Nadu"},{"pinCodeSeq":4228,"postOfficeName":"Arumbakkam","pinCode":"600106","city":"Tiruvallur","district":"Tiruvallur","state":"Tamil Nadu"},{"pinCodeSeq":4229,"postOfficeName":"D G Vaishnav College","pinCode":"600106","city":"Tiruvallur","district":"Tiruvallur","state":"Tamil Nadu"},{"pinCodeSeq":4232,"postOfficeName":"Railway Car Shed Complex","pinCode":"600109","city":"Tiruvallur","district":"Tiruvallur","state":"Tamil Nadu"},{"pinCodeSeq":4239,"postOfficeName":"Arni Cpt","pinCode":"601101","city":"Tiruvallur","district":"Tiruvallur","state":"Tamil Nadu"},{"pinCodeSeq":4240,"postOfficeName":"Periapoliam","pinCode":"601102","city":"Tiruvallur","district":"Tiruvallur","state":"Tamil Nadu"},{"pinCodeSeq":4241,"postOfficeName":"Vengal C P T","pinCode":"601103","city":"Tiruvallur","district":"Tiruvallur","state":"Tamil Nadu"},{"pinCodeSeq":4242,"postOfficeName":"Kannigaipair","pinCode":"601104","city":"Tiruvallur","district":"Tiruvallur","state":"Tamil Nadu"},{"pinCodeSeq":4243,"postOfficeName":"Tambaram","pinCode":"601105","city":"Tiruvallur","district":"Tiruvallur","state":"Tamil Nadu"},{"pinCodeSeq":4244,"postOfficeName":"Vadamadurai","pinCode":"601105","city":"Tiruvallur","district":"Tiruvallur","state":"Tamil Nadu"},{"pinCodeSeq":4245,"postOfficeName":"Gummidipundi","pinCode":"601201","city":"Tiruvallur","district":"Tiruvallur","state":"Tamil Nadu"},{"pinCodeSeq":4246,"postOfficeName":"Madarpakkam","pinCode":"601202","city":"Tiruvallur","district":"Tiruvallur","state":"Tamil Nadu"},{"pinCodeSeq":4250,"postOfficeName":"Pulicat","pinCode":"601205","city":"Tiruvallur","district":"Tiruvallur","state":"Tamil Nadu"},{"pinCodeSeq":4251,"postOfficeName":"Kavarapettai","pinCode":"601206","city":"Tiruvallur","district":"Tiruvallur","state":"Tamil Nadu"},{"pinCodeSeq":4252,"postOfficeName":"Arambakkam R S","pinCode":"601207","city":"Tiruvallur","district":"Tiruvallur","state":"Tamil Nadu"},{"pinCodeSeq":4253,"postOfficeName":"Tirupalaivanam","pinCode":"601208","city":"Tiruvallur","district":"Tiruvallur","state":"Tamil Nadu"},{"pinCodeSeq":4254,"postOfficeName":"Tiruvellavoyal","pinCode":"601209","city":"Tiruvallur","district":"Tiruvallur","state":"Tamil Nadu"},{"pinCodeSeq":4256,"postOfficeName":"Elavur","pinCode":"601211","city":"Tiruvallur","district":"Tiruvallur","state":"Tamil Nadu"},{"pinCodeSeq":4257,"postOfficeName":"Iguvarpalayam","pinCode":"601212","city":"Tiruvallur","district":"Tiruvallur","state":"Tamil Nadu"},{"pinCodeSeq":4258,"postOfficeName":"Jothinagar","pinCode":"601213","city":"Tiruvallur","district":"Tiruvallur","state":"Tamil Nadu"},{"pinCodeSeq":4259,"postOfficeName":"Devampattu","pinCode":"601214","city":"Tiruvallur","district":"Tiruvallur","state":"Tamil Nadu"},{"pinCodeSeq":4260,"postOfficeName":"Padappai","pinCode":"601301","city":"Tiruvallur","district":"Tiruvallur","state":"Tamil Nadu"},{"pinCodeSeq":4261,"postOfficeName":"Gowrivakkam","pinCode":"601302","city":"Tiruvallur","district":"Tiruvallur","state":"Tamil Nadu"},{"pinCodeSeq":4262,"postOfficeName":"Old Pallavaram","pinCode":"601303","city":"Tiruvallur","district":"Tiruvallur","state":"Tamil Nadu"},{"pinCodeSeq":4263,"postOfficeName":"Manimangalam","pinCode":"601304","city":"Tiruvallur","district":"Tiruvallur","state":"Tamil Nadu"},{"pinCodeSeq":4264,"postOfficeName":"Tiruvallur Bazar","pinCode":"602001","city":"Tiruvallur","district":"Tiruvallur","state":"Tamil Nadu"},{"pinCodeSeq":4265,"postOfficeName":"Tiruvallur H O","pinCode":"602001","city":"Tiruvallur","district":"Tiruvallur","state":"Tamil Nadu"},{"pinCodeSeq":4266,"postOfficeName":"Tiruvallur Netaji Road","pinCode":"602001","city":"Tiruvallur","district":"Tiruvallur","state":"Tamil Nadu"},{"pinCodeSeq":4267,"postOfficeName":"Tiruvallur R S","pinCode":"602001","city":"Tiruvallur","district":"Tiruvallur","state":"Tamil Nadu"},{"pinCodeSeq":4268,"postOfficeName":"Tiruvallur Sannadhi Stree","pinCode":"602001","city":"Tiruvallur","district":"Tiruvallur","state":"Tamil Nadu"},{"pinCodeSeq":4269,"postOfficeName":"Kakalur Ind Estate","pinCode":"602003","city":"Tiruvallur","district":"Tiruvallur","state":"Tamil Nadu"},{"pinCodeSeq":4270,"postOfficeName":"Melnallathur","pinCode":"602004","city":"Tiruvallur","district":"Tiruvallur","state":"Tamil Nadu"},{"pinCodeSeq":4271,"postOfficeName":"Ikkadu","pinCode":"602021","city":"Tiruvallur","district":"Tiruvallur","state":"Tamil Nadu"},{"pinCodeSeq":4272,"postOfficeName":"Pennalurpet","pinCode":"602022","city":"Tiruvallur","district":"Tiruvallur","state":"Tamil Nadu"},{"pinCodeSeq":4273,"postOfficeName":"Poondi Tiruvallur","pinCode":"602023","city":"Tiruvallur","district":"Tiruvallur","state":"Tamil Nadu"},{"pinCodeSeq":4274,"postOfficeName":"Lakshmipuram","pinCode":"602024","city":"Tiruvallur","district":"Tiruvallur","state":"Tamil Nadu"},{"pinCodeSeq":4275,"postOfficeName":"Tiruninravur","pinCode":"602024","city":"Tiruvallur","district":"Tiruvallur","state":"Tamil Nadu"},{"pinCodeSeq":4276,"postOfficeName":"Tiruninravur R S","pinCode":"602024","city":"Tiruvallur","district":"Tiruvallur","state":"Tamil Nadu"},{"pinCodeSeq":4277,"postOfficeName":"Tiruninrvur","pinCode":"602024","city":"Tiruvallur","district":"Tiruvallur","state":"Tamil Nadu"},{"pinCodeSeq":4278,"postOfficeName":"Tirur Cpt","pinCode":"602025","city":"Tiruvallur","district":"Tiruvallur","state":"Tamil Nadu"},{"pinCodeSeq":4279,"postOfficeName":"Uttukottai","pinCode":"602026","city":"Tiruvallur","district":"Tiruvallur","state":"Tamil Nadu"},{"pinCodeSeq":4282,"postOfficeName":"Seethanjeri","pinCode":"602029","city":"Tiruvallur","district":"Tiruvallur","state":"Tamil Nadu"},{"pinCodeSeq":4284,"postOfficeName":"Kalambakkam","pinCode":"602031","city":"Tiruvallur","district":"Tiruvallur","state":"Tamil Nadu"},{"pinCodeSeq":4287,"postOfficeName":"Nazarethpettai","pinCode":"602103","city":"Tiruvallur","district":"Tiruvallur","state":"Tamil Nadu"},{"pinCodeSeq":4289,"postOfficeName":"Postal Training Centre","pinCode":"602104","city":"Tiruvallur","district":"Tiruvallur","state":"Tamil Nadu"},{"pinCodeSeq":4290,"postOfficeName":"Pattunoolchatram","pinCode":"602105","city":"Tiruvallur","district":"Tiruvallur","state":"Tamil Nadu"},{"pinCodeSeq":4292,"postOfficeName":"Sundekuppan","pinCode":"602106","city":"Tiruvallur","district":"Tiruvallur","state":"Tamil Nadu"},{"pinCodeSeq":4293,"postOfficeName":"Tirumuzhi","pinCode":"602107","city":"Tiruvallur","district":"Tiruvallur","state":"Tamil Nadu"},{"pinCodeSeq":4294,"postOfficeName":"Pannur","pinCode":"602108","city":"Tiruvallur","district":"Tiruvallur","state":"Tamil Nadu"},{"pinCodeSeq":4295,"postOfficeName":"Somangalam","pinCode":"602109","city":"Tiruvallur","district":"Tiruvallur","state":"Tamil Nadu"},{"pinCodeSeq":4296,"postOfficeName":"Vavalur","pinCode":"602111","city":"Tiruvallur","district":"Tiruvallur","state":"Tamil Nadu"},{"pinCodeSeq":4297,"postOfficeName":"Mathur Kanchipuram","pinCode":"602112","city":"Tiruvallur","district":"Tiruvallur","state":"Tamil Nadu"},{"pinCodeSeq":4298,"postOfficeName":"Valarpuram","pinCode":"602113","city":"Tiruvallur","district":"Tiruvallur","state":"Tamil Nadu"},{"pinCodeSeq":4299,"postOfficeName":"Maduramangalam","pinCode":"602114","city":"Tiruvallur","district":"Tiruvallur","state":"Tamil Nadu"},{"pinCodeSeq":4300,"postOfficeName":"Kandoor","pinCode":"602115","city":"Tiruvallur","district":"Tiruvallur","state":"Tamil Nadu"},{"pinCodeSeq":4301,"postOfficeName":"Sendamangalam Kanchipuram","pinCode":"602116","city":"Tiruvallur","district":"Tiruvallur","state":"Tamil Nadu"},{"pinCodeSeq":4302,"postOfficeName":"Alagesa Nagar","pinCode":"603001","city":"Tiruvallur","district":"Tiruvallur","state":"Tamil Nadu"},{"pinCodeSeq":4306,"postOfficeName":"Melamaiyur Cpt","pinCode":"603001","city":"Tiruvallur","district":"Tiruvallur","state":"Tamil Nadu"},{"pinCodeSeq":4310,"postOfficeName":"Gundur Cpt","pinCode":"603002","city":"Tiruvallur","district":"Tiruvallur","state":"Tamil Nadu"},{"pinCodeSeq":4311,"postOfficeName":"Natham-Cpt","pinCode":"603002","city":"Tiruvallur","district":"Tiruvallur","state":"Tamil Nadu"},{"pinCodeSeq":4312,"postOfficeName":"Pulipakkam","pinCode":"603011","city":"Tiruvallur","district":"Tiruvallur","state":"Tamil Nadu"},{"pinCodeSeq":4313,"postOfficeName":"Athur Cpt","pinCode":"603101","city":"Tiruvallur","district":"Tiruvallur","state":"Tamil Nadu"},{"pinCodeSeq":4314,"postOfficeName":"Kalpakkam","pinCode":"603102","city":"Tiruvallur","district":"Tiruvallur","state":"Tamil Nadu"},{"pinCodeSeq":4315,"postOfficeName":"Pudupattinam Colony","pinCode":"603102","city":"Tiruvallur","district":"Tiruvallur","state":"Tamil Nadu"},{"pinCodeSeq":4316,"postOfficeName":"Rrc Kalpakkam","pinCode":"603102","city":"Tiruvallur","district":"Tiruvallur","state":"Tamil Nadu"},{"pinCodeSeq":4317,"postOfficeName":"Sadras","pinCode":"603102","city":"Tiruvallur","district":"Tiruvallur","state":"Tamil Nadu"},{"pinCodeSeq":4320,"postOfficeName":"Manambathi","pinCode":"603105","city":"Tiruvallur","district":"Tiruvallur","state":"Tamil Nadu"},{"pinCodeSeq":4321,"postOfficeName":"Orakkatupettai","pinCode":"603106","city":"Tiruvallur","district":"Tiruvallur","state":"Tamil Nadu"},{"pinCodeSeq":4322,"postOfficeName":"Salavakkam","pinCode":"603107","city":"Tiruvallur","district":"Tiruvallur","state":"Tamil Nadu"},{"pinCodeSeq":4324,"postOfficeName":"Tirukalikundaram","pinCode":"603109","city":"Tiruvallur","district":"Tiruvallur","state":"Tamil Nadu"},{"pinCodeSeq":4325,"postOfficeName":"Tirukalikundaram Bazar","pinCode":"603109","city":"Tiruvallur","district":"Tiruvallur","state":"Tamil Nadu"},{"pinCodeSeq":4326,"postOfficeName":"Tiruporur","pinCode":"603110","city":"Tiruvallur","district":"Tiruvallur","state":"Tamil Nadu"},{"pinCodeSeq":4327,"postOfficeName":"Vembakkam","pinCode":"603111","city":"Tiruvallur","district":"Tiruvallur","state":"Tamil Nadu"},{"pinCodeSeq":4328,"postOfficeName":"Kovalam","pinCode":"603112","city":"Tiruvallur","district":"Tiruvallur","state":"Tamil Nadu"},{"pinCodeSeq":4329,"postOfficeName":"Kuzhipanthandalam","pinCode":"603113","city":"Tiruvallur","district":"Tiruvallur","state":"Tamil Nadu"},{"pinCodeSeq":4330,"postOfficeName":"Nemeli","pinCode":"603114","city":"Tiruvallur","district":"Tiruvallur","state":"Tamil Nadu"},{"pinCodeSeq":4331,"postOfficeName":"Nelvoy","pinCode":"603115","city":"Tiruvallur","district":"Tiruvallur","state":"Tamil Nadu"},{"pinCodeSeq":4332,"postOfficeName":"Bukkathurai","pinCode":"603116","city":"Tiruvallur","district":"Tiruvallur","state":"Tamil Nadu"},{"pinCodeSeq":4333,"postOfficeName":"Thimmavaram","pinCode":"603117","city":"Tiruvallur","district":"Tiruvallur","state":"Tamil Nadu"},{"pinCodeSeq":4335,"postOfficeName":"Chengalpattu","pinCode":"603119","city":"Tiruvallur","district":"Tiruvallur","state":"Tamil Nadu"},{"pinCodeSeq":4336,"postOfficeName":"Ozhalur","pinCode":"603120","city":"Tiruvallur","district":"Tiruvallur","state":"Tamil Nadu"},{"pinCodeSeq":4337,"postOfficeName":"Meyyur","pinCode":"603121","city":"Tiruvallur","district":"Tiruvallur","state":"Tamil Nadu"},{"pinCodeSeq":4338,"postOfficeName":"Anambakkam","pinCode":"603122","city":"Tiruvallur","district":"Tiruvallur","state":"Tamil Nadu"},{"pinCodeSeq":4339,"postOfficeName":"Elapakkam","pinCode":"603201","city":"Tiruvallur","district":"Tiruvallur","state":"Tamil Nadu"},{"pinCodeSeq":4340,"postOfficeName":"Guduvancheri","pinCode":"603202","city":"Tiruvallur","district":"Tiruvallur","state":"Tamil Nadu"},{"pinCodeSeq":4341,"postOfficeName":"Kattankolathur","pinCode":"603203","city":"Tiruvallur","district":"Tiruvallur","state":"Tamil Nadu"},{"pinCodeSeq":4342,"postOfficeName":"Singaperumal Koil","pinCode":"603204","city":"Tiruvallur","district":"Tiruvallur","state":"Tamil Nadu"},{"pinCodeSeq":4345,"postOfficeName":"Acharapakkam West","pinCode":"603301","city":"Tiruvallur","district":"Tiruvallur","state":"Tamil Nadu"},{"pinCodeSeq":4346,"postOfficeName":"Cheyur Cpt","pinCode":"603302","city":"Tiruvallur","district":"Tiruvallur","state":"Tamil Nadu"},{"pinCodeSeq":4348,"postOfficeName":"Kuddapakkam","pinCode":"603304","city":"Tiruvallur","district":"Tiruvallur","state":"Tamil Nadu"},{"pinCodeSeq":4349,"postOfficeName":"Kuvathur","pinCode":"603305","city":"Tiruvallur","district":"Tiruvallur","state":"Tamil Nadu"},{"pinCodeSeq":4350,"postOfficeName":"Madurantakam","pinCode":"603306","city":"Tiruvallur","district":"Tiruvallur","state":"Tamil Nadu"},{"pinCodeSeq":4351,"postOfficeName":"Madurantakam East","pinCode":"603306","city":"Tiruvallur","district":"Tiruvallur","state":"Tamil Nadu"},{"pinCodeSeq":4352,"postOfficeName":"Senguntharpettai","pinCode":"603306","city":"Tiruvallur","district":"Tiruvallur","state":"Tamil Nadu"},{"pinCodeSeq":4353,"postOfficeName":"Orathi","pinCode":"603307","city":"Tiruvallur","district":"Tiruvallur","state":"Tamil Nadu"},{"pinCodeSeq":4354,"postOfficeName":"Padalam","pinCode":"603308","city":"Tiruvallur","district":"Tiruvallur","state":"Tamil Nadu"},{"pinCodeSeq":4356,"postOfficeName":"Thozhupedu","pinCode":"603310","city":"Tiruvallur","district":"Tiruvallur","state":"Tamil Nadu"},{"pinCodeSeq":4357,"postOfficeName":"Zamin Endathur","pinCode":"603311","city":"Tiruvallur","district":"Tiruvallur","state":"Tamil Nadu"},{"pinCodeSeq":4358,"postOfficeName":"Pavunjur","pinCode":"603312","city":"Tiruvallur","district":"Tiruvallur","state":"Tamil Nadu"},{"pinCodeSeq":4359,"postOfficeName":"Chithamur","pinCode":"603313","city":"Tiruvallur","district":"Tiruvallur","state":"Tamil Nadu"},{"pinCodeSeq":4360,"postOfficeName":"Vedanthangal","pinCode":"603314","city":"Tiruvallur","district":"Tiruvallur","state":"Tamil Nadu"},{"pinCodeSeq":4361,"postOfficeName":"Koyapakkam","pinCode":"603315","city":"Tiruvallur","district":"Tiruvallur","state":"Tamil Nadu"},{"pinCodeSeq":4362,"postOfficeName":"Murugambakkam","pinCode":"603316","city":"Tiruvallur","district":"Tiruvallur","state":"Tamil Nadu"},{"pinCodeSeq":4363,"postOfficeName":"Vilambur","pinCode":"603317","city":"Tiruvallur","district":"Tiruvallur","state":"Tamil Nadu"},{"pinCodeSeq":4365,"postOfficeName":"Veeranakunnam","pinCode":"603319","city":"Tiruvallur","district":"Tiruvallur","state":"Tamil Nadu"},{"pinCodeSeq":4366,"postOfficeName":"Ananthamangalam","pinCode":"603320","city":"Tiruvallur","district":"Tiruvallur","state":"Tamil Nadu"},{"pinCodeSeq":4368,"postOfficeName":"Kaliyampundi","pinCode":"603402","city":"Tiruvallur","district":"Tiruvallur","state":"Tamil Nadu"},{"pinCodeSeq":4369,"postOfficeName":"Manampathy","pinCode":"603403","city":"Tiruvallur","district":"Tiruvallur","state":"Tamil Nadu"},{"pinCodeSeq":4370,"postOfficeName":"Perunagar","pinCode":"603404","city":"Tiruvallur","district":"Tiruvallur","state":"Tamil Nadu"},{"pinCodeSeq":4371,"postOfficeName":"Ponvilianhakalathur","pinCode":"603405","city":"Tiruvallur","district":"Tiruvallur","state":"Tamil Nadu"},{"pinCodeSeq":4373,"postOfficeName":"Kammalampoondi","pinCode":"603407","city":"Tiruvallur","district":"Tiruvallur","state":"Tamil Nadu"},{"pinCodeSeq":4374,"postOfficeName":"L Endathur","pinCode":"603408","city":"Tiruvallur","district":"Tiruvallur","state":"Tamil Nadu"},{"pinCodeSeq":4406,"postOfficeName":"Hasanamapettai","pinCode":"604402","city":"Tiruvallur","district":"Tiruvallur","state":"Tamil Nadu"},{"pinCodeSeq":6641,"postOfficeName":"Namali","pinCode":"631051","city":"Tiruvallur","district":"Tiruvallur","state":"Tamil Nadu"},{"pinCodeSeq":6651,"postOfficeName":"Kodakkal","pinCode":"631105","city":"Tiruvallur","district":"Tiruvallur","state":"Tamil Nadu"},{"pinCodeSeq":6653,"postOfficeName":"Arungolam","pinCode":"631201","city":"Tiruvallur","district":"Tiruvallur","state":"Tamil Nadu"},{"pinCodeSeq":6654,"postOfficeName":"Kanchipuram Collectorate","pinCode":"631201","city":"Tiruvallur","district":"Tiruvallur","state":"Tamil Nadu"},{"pinCodeSeq":6655,"postOfficeName":"Athimanjeeripet","pinCode":"631202","city":"Tiruvallur","district":"Tiruvallur","state":"Tamil Nadu"},{"pinCodeSeq":6657,"postOfficeName":"Podaturpet","pinCode":"631203","city":"Tiruvallur","district":"Tiruvallur","state":"Tamil Nadu"},{"pinCodeSeq":6658,"postOfficeName":"Kanakammachatram","pinCode":"631204","city":"Tiruvallur","district":"Tiruvallur","state":"Tamil Nadu"},{"pinCodeSeq":6659,"postOfficeName":"K G Kandigai","pinCode":"631205","city":"Tiruvallur","district":"Tiruvallur","state":"Tamil Nadu"},{"pinCodeSeq":6660,"postOfficeName":"Madduru","pinCode":"631206","city":"Tiruvallur","district":"Tiruvallur","state":"Tamil Nadu"},{"pinCodeSeq":6661,"postOfficeName":"Pallipat","pinCode":"631207","city":"Tiruvallur","district":"Tiruvallur","state":"Tamil Nadu"},{"pinCodeSeq":6662,"postOfficeName":"Pallipat Bazaar","pinCode":"631207","city":"Tiruvallur","district":"Tiruvallur","state":"Tamil Nadu"},{"pinCodeSeq":6663,"postOfficeName":"Tiruthani West","pinCode":"631209","city":"Tiruvallur","district":"Tiruvallur","state":"Tamil Nadu"},{"pinCodeSeq":6665,"postOfficeName":"Tiruttani East","pinCode":"631209","city":"Tiruvallur","district":"Tiruvallur","state":"Tamil Nadu"},{"pinCodeSeq":6666,"postOfficeName":"Tiruttani North","pinCode":"631209","city":"Tiruvallur","district":"Tiruvallur","state":"Tamil Nadu"},{"pinCodeSeq":6667,"postOfficeName":"Tiruttani South","pinCode":"631209","city":"Tiruvallur","district":"Tiruvallur","state":"Tamil Nadu"},{"pinCodeSeq":6669,"postOfficeName":"Saraswathinagar","pinCode":"631211","city":"Tiruvallur","district":"Tiruvallur","state":"Tamil Nadu"},{"pinCodeSeq":6670,"postOfficeName":"Ponpadi R S","pinCode":"631213","city":"Tiruvallur","district":"Tiruvallur","state":"Tamil Nadu"},{"pinCodeSeq":6672,"postOfficeName":"Erumbi","pinCode":"631302","city":"Tiruvallur","district":"Tiruvallur","state":"Tamil Nadu"},{"pinCodeSeq":6673,"postOfficeName":"Ramakrishnarajupeta","pinCode":"631303","city":"Tiruvallur","district":"Tiruvallur","state":"Tamil Nadu"},{"pinCodeSeq":6674,"postOfficeName":"Vanganur","pinCode":"631304","city":"Tiruvallur","district":"Tiruvallur","state":"Tamil Nadu"},{"pinCodeSeq":6678,"postOfficeName":"Kanchipuram Cutcherry","pinCode":"631501","city":"Tiruvallur","district":"Tiruvallur","state":"Tamil Nadu"},{"pinCodeSeq":6679,"postOfficeName":"Kanchipuram H O","pinCode":"631501","city":"Tiruvallur","district":"Tiruvallur","state":"Tamil Nadu"},{"pinCodeSeq":6680,"postOfficeName":"Pillayarpalayam","pinCode":"631501","city":"Tiruvallur","district":"Tiruvallur","state":"Tamil Nadu"},{"pinCodeSeq":6681,"postOfficeName":"Thoopul","pinCode":"631501","city":"Tiruvallur","district":"Tiruvallur","state":"Tamil Nadu"},{"pinCodeSeq":6682,"postOfficeName":"Big Kanchipuram","pinCode":"631502","city":"Tiruvallur","district":"Tiruvallur","state":"Tamil Nadu"},{"pinCodeSeq":6683,"postOfficeName":"Kanchipuram Bus Stand","pinCode":"631502","city":"Tiruvallur","district":"Tiruvallur","state":"Tamil Nadu"},{"pinCodeSeq":6684,"postOfficeName":"Kanchpuram R S","pinCode":"631502","city":"Tiruvallur","district":"Tiruvallur","state":"Tamil Nadu"},{"pinCodeSeq":6685,"postOfficeName":"Sivakanchi","pinCode":"631502","city":"Tiruvallur","district":"Tiruvallur","state":"Tamil Nadu"},{"pinCodeSeq":6686,"postOfficeName":"Little Kanchipuram","pinCode":"631503","city":"Tiruvallur","district":"Tiruvallur","state":"Tamil Nadu"},{"pinCodeSeq":6687,"postOfficeName":"Tirukatchinambistreet","pinCode":"631503","city":"Tiruvallur","district":"Tiruvallur","state":"Tamil Nadu"},{"pinCodeSeq":6688,"postOfficeName":"Vishnukanchi","pinCode":"631503","city":"Tiruvallur","district":"Tiruvallur","state":"Tamil Nadu"},{"pinCodeSeq":6689,"postOfficeName":"Balchettichatram","pinCode":"631551","city":"Tiruvallur","district":"Tiruvallur","state":"Tamil Nadu"},{"pinCodeSeq":6692,"postOfficeName":"Damal","pinCode":"631602","city":"Tiruvallur","district":"Tiruvallur","state":"Tamil Nadu"},{"pinCodeSeq":6693,"postOfficeName":"Magaral","pinCode":"631603","city":"Tiruvallur","district":"Tiruvallur","state":"Tamil Nadu"},{"pinCodeSeq":6695,"postOfficeName":"Masilamani Nagar","pinCode":"631605","city":"Tiruvallur","district":"Tiruvallur","state":"Tamil Nadu"},{"pinCodeSeq":6697,"postOfficeName":"Palayaseevaram","pinCode":"631606","city":"Tiruvallur","district":"Tiruvallur","state":"Tamil Nadu"},{"pinCodeSeq":6698,"postOfficeName":"Arpakkam","pinCode":"631609","city":"Tiruvallur","district":"Tiruvallur","state":"Tamil Nadu"}]