[{"pinCodeSeq":5607,"postOfficeName":"Nainarkoil","pinCode":"623705","city":"Tirunelveli","district":"Tirunelveli","state":"Tamil Nadu"},{"pinCodeSeq":6111,"postOfficeName":"M Puliyangulam","pinCode":"626716","city":"Tirunelveli","district":"Tirunelveli","state":"Tamil Nadu"},{"pinCodeSeq":6114,"postOfficeName":"Kailasapuram Tvl","pinCode":"627001","city":"Tirunelveli","district":"Tirunelveli","state":"Tamil Nadu"},{"pinCodeSeq":6115,"postOfficeName":"Madurai Road","pinCode":"627001","city":"Tirunelveli","district":"Tirunelveli","state":"Tamil Nadu"},{"pinCodeSeq":6116,"postOfficeName":"Mandram","pinCode":"627001","city":"Tirunelveli","district":"Tirunelveli","state":"Tamil Nadu"},{"pinCodeSeq":6117,"postOfficeName":"Minatchipuram","pinCode":"627001","city":"Tirunelveli","district":"Tirunelveli","state":"Tamil Nadu"},{"pinCodeSeq":6118,"postOfficeName":"Tirunelveli Ind H O","pinCode":"627001","city":"Tirunelveli","district":"Tirunelveli","state":"Tamil Nadu"},{"pinCodeSeq":6119,"postOfficeName":"Tirunelveli Nagar","pinCode":"627001","city":"Tirunelveli","district":"Tirunelveli","state":"Tamil Nadu"},{"pinCodeSeq":6120,"postOfficeName":"Viraghavapuram","pinCode":"627001","city":"Tirunelveli","district":"Tirunelveli","state":"Tamil Nadu"},{"pinCodeSeq":6121,"postOfficeName":"Kulavanikarpuram","pinCode":"627002","city":"Tirunelveli","district":"Tirunelveli","state":"Tamil Nadu"},{"pinCodeSeq":6122,"postOfficeName":"Murugankurichi","pinCode":"627002","city":"Tirunelveli","district":"Tirunelveli","state":"Tamil Nadu"},{"pinCodeSeq":6123,"postOfficeName":"Palayankottai H O","pinCode":"627002","city":"Tirunelveli","district":"Tirunelveli","state":"Tamil Nadu"},{"pinCodeSeq":6124,"postOfficeName":"Palayankottai Kori","pinCode":"627002","city":"Tirunelveli","district":"Tirunelveli","state":"Tamil Nadu"},{"pinCodeSeq":6125,"postOfficeName":"Palayankottai Vadakku","pinCode":"627002","city":"Tirunelveli","district":"Tirunelveli","state":"Tamil Nadu"},{"pinCodeSeq":6126,"postOfficeName":"Samadanapuram","pinCode":"627002","city":"Tirunelveli","district":"Tirunelveli","state":"Tamil Nadu"},{"pinCodeSeq":6127,"postOfficeName":"Vannarpettai Tvl","pinCode":"627003","city":"Tirunelveli","district":"Tirunelveli","state":"Tamil Nadu"},{"pinCodeSeq":6128,"postOfficeName":"Vannerpettai Bazar","pinCode":"627003","city":"Tirunelveli","district":"Tirunelveli","state":"Tamil Nadu"},{"pinCodeSeq":6129,"postOfficeName":"Tirunelveli Pettai","pinCode":"627004","city":"Tirunelveli","district":"Tirunelveli","state":"Tamil Nadu"},{"pinCodeSeq":6130,"postOfficeName":"Tirunelveli Pettai East","pinCode":"627004","city":"Tirunelveli","district":"Tirunelveli","state":"Tamil Nadu"},{"pinCodeSeq":6131,"postOfficeName":"Melapalayam","pinCode":"627005","city":"Tirunelveli","district":"Tirunelveli","state":"Tamil Nadu"},{"pinCodeSeq":6132,"postOfficeName":"Melapalayam Bazaar","pinCode":"627005","city":"Tirunelveli","district":"Tirunelveli","state":"Tamil Nadu"},{"pinCodeSeq":6133,"postOfficeName":"Tirunelveli East","pinCode":"627006","city":"Tirunelveli","district":"Tirunelveli","state":"Tamil Nadu"},{"pinCodeSeq":6134,"postOfficeName":"Tirunelveli Morku","pinCode":"627006","city":"Tirunelveli","district":"Tirunelveli","state":"Tamil Nadu"},{"pinCodeSeq":6135,"postOfficeName":"Tirunelveli Therku","pinCode":"627006","city":"Tirunelveli","district":"Tirunelveli","state":"Tamil Nadu"},{"pinCodeSeq":6136,"postOfficeName":"Tirunelveli Town","pinCode":"627006","city":"Tirunelveli","district":"Tirunelveli","state":"Tamil Nadu"},{"pinCodeSeq":6137,"postOfficeName":"Tiruneveli Bazar","pinCode":"627006","city":"Tirunelveli","district":"Tirunelveli","state":"Tamil Nadu"},{"pinCodeSeq":6138,"postOfficeName":"Tondar Bazar","pinCode":"627006","city":"Tirunelveli","district":"Tirunelveli","state":"Tamil Nadu"},{"pinCodeSeq":6139,"postOfficeName":"Jawahar Nagar","pinCode":"627007","city":"Tirunelveli","district":"Tirunelveli","state":"Tamil Nadu"},{"pinCodeSeq":6140,"postOfficeName":"Perumalpurm","pinCode":"627007","city":"Tirunelveli","district":"Tirunelveli","state":"Tamil Nadu"},{"pinCodeSeq":6141,"postOfficeName":"Gandhi Nagar Tirunelveli","pinCode":"627008","city":"Tirunelveli","district":"Tirunelveli","state":"Tamil Nadu"},{"pinCodeSeq":6142,"postOfficeName":"Collectorate","pinCode":"627009","city":"Tirunelveli","district":"Tirunelveli","state":"Tamil Nadu"},{"pinCodeSeq":6143,"postOfficeName":"Industrial Colony Pettai","pinCode":"627010","city":"Tirunelveli","district":"Tirunelveli","state":"Tamil Nadu"},{"pinCodeSeq":6144,"postOfficeName":"Maharajanagar","pinCode":"627011","city":"Tirunelveli","district":"Tirunelveli","state":"Tamil Nadu"},{"pinCodeSeq":6145,"postOfficeName":"Reddiarpattti","pinCode":"627051","city":"Tirunelveli","district":"Tirunelveli","state":"Tamil Nadu"},{"pinCodeSeq":6146,"postOfficeName":"Dhalapathisamudram","pinCode":"627101","city":"Tirunelveli","district":"Tirunelveli","state":"Tamil Nadu"},{"pinCodeSeq":6147,"postOfficeName":"Dohnavur","pinCode":"627102","city":"Tirunelveli","district":"Tirunelveli","state":"Tamil Nadu"},{"pinCodeSeq":6148,"postOfficeName":"Eruvadi Tirunelveli","pinCode":"627103","city":"Tirunelveli","district":"Tirunelveli","state":"Tamil Nadu"},{"pinCodeSeq":6149,"postOfficeName":"Idinthakarai","pinCode":"627104","city":"Tirunelveli","district":"Tirunelveli","state":"Tamil Nadu"},{"pinCodeSeq":6150,"postOfficeName":"Kavalkinar","pinCode":"627105","city":"Tirunelveli","district":"Tirunelveli","state":"Tamil Nadu"},{"pinCodeSeq":6151,"postOfficeName":"Kundankulam","pinCode":"627106","city":"Tirunelveli","district":"Tirunelveli","state":"Tamil Nadu"},{"pinCodeSeq":6152,"postOfficeName":"Mavadi","pinCode":"627107","city":"Tirunelveli","district":"Tirunelveli","state":"Tamil Nadu"},{"pinCodeSeq":6153,"postOfficeName":"Nambinagar","pinCode":"627108","city":"Tirunelveli","district":"Tirunelveli","state":"Tamil Nadu"},{"pinCodeSeq":6156,"postOfficeName":"Parappadi","pinCode":"627110","city":"Tirunelveli","district":"Tirunelveli","state":"Tamil Nadu"},{"pinCodeSeq":6157,"postOfficeName":"Radhapuram","pinCode":"627111","city":"Tirunelveli","district":"Tirunelveli","state":"Tamil Nadu"},{"pinCodeSeq":6158,"postOfficeName":"Samugarengapuram","pinCode":"627112","city":"Tirunelveli","district":"Tirunelveli","state":"Tamil Nadu"},{"pinCodeSeq":6159,"postOfficeName":"Terku Kallikulam","pinCode":"627113","city":"Tirunelveli","district":"Tirunelveli","state":"Tamil Nadu"},{"pinCodeSeq":6160,"postOfficeName":"Terku Karungulam","pinCode":"627114","city":"Tirunelveli","district":"Tirunelveli","state":"Tamil Nadu"},{"pinCodeSeq":6161,"postOfficeName":"Tirukarangudi","pinCode":"627115","city":"Tirunelveli","district":"Tirunelveli","state":"Tamil Nadu"},{"pinCodeSeq":6162,"postOfficeName":"Vadakkankulam","pinCode":"627116","city":"Tirunelveli","district":"Tirunelveli","state":"Tamil Nadu"},{"pinCodeSeq":6163,"postOfficeName":"Vallioor","pinCode":"627117","city":"Tirunelveli","district":"Tirunelveli","state":"Tamil Nadu"},{"pinCodeSeq":6164,"postOfficeName":"Vallioor Perundu Nilayam","pinCode":"627117","city":"Tirunelveli","district":"Tirunelveli","state":"Tamil Nadu"},{"pinCodeSeq":6165,"postOfficeName":"Vijayarayanam","pinCode":"627118","city":"Tirunelveli","district":"Tirunelveli","state":"Tamil Nadu"},{"pinCodeSeq":6166,"postOfficeName":"Koliyankulam","pinCode":"627120","city":"Tirunelveli","district":"Tirunelveli","state":"Tamil Nadu"},{"pinCodeSeq":6167,"postOfficeName":"Palavoor","pinCode":"627121","city":"Tirunelveli","district":"Tirunelveli","state":"Tamil Nadu"},{"pinCodeSeq":6168,"postOfficeName":"Vijayapathi","pinCode":"627122","city":"Tirunelveli","district":"Tirunelveli","state":"Tamil Nadu"},{"pinCodeSeq":6169,"postOfficeName":"Kottaikarungulam","pinCode":"627123","city":"Tirunelveli","district":"Tirunelveli","state":"Tamil Nadu"},{"pinCodeSeq":6170,"postOfficeName":"Settikulam","pinCode":"627124","city":"Tirunelveli","district":"Tirunelveli","state":"Tamil Nadu"},{"pinCodeSeq":6171,"postOfficeName":"Anaikulam","pinCode":"627125","city":"Tirunelveli","district":"Tirunelveli","state":"Tamil Nadu"},{"pinCodeSeq":6172,"postOfficeName":"Kannanallur","pinCode":"627126","city":"Tirunelveli","district":"Tirunelveli","state":"Tamil Nadu"},{"pinCodeSeq":6173,"postOfficeName":"Kuttapuli","pinCode":"627127","city":"Tirunelveli","district":"Tirunelveli","state":"Tamil Nadu"},{"pinCodeSeq":6174,"postOfficeName":"Rajakkamangalam","pinCode":"627128","city":"Tirunelveli","district":"Tirunelveli","state":"Tamil Nadu"},{"pinCodeSeq":6176,"postOfficeName":"Tiruvamblapuram","pinCode":"627130","city":"Tirunelveli","district":"Tirunelveli","state":"Tamil Nadu"},{"pinCodeSeq":6177,"postOfficeName":"Veppilankulam","pinCode":"627131","city":"Tirunelveli","district":"Tirunelveli","state":"Tamil Nadu"},{"pinCodeSeq":6178,"postOfficeName":"Koothankul","pinCode":"627132","city":"Tirunelveli","district":"Tirunelveli","state":"Tamil Nadu"},{"pinCodeSeq":6179,"postOfficeName":"Maruthakulam","pinCode":"627151","city":"Tirunelveli","district":"Tirunelveli","state":"Tamil Nadu"},{"pinCodeSeq":6180,"postOfficeName":"Munradaippu","pinCode":"627152","city":"Tirunelveli","district":"Tirunelveli","state":"Tamil Nadu"},{"pinCodeSeq":6181,"postOfficeName":"Karandaneri","pinCode":"627153","city":"Tirunelveli","district":"Tirunelveli","state":"Tamil Nadu"},{"pinCodeSeq":6182,"postOfficeName":"Panankulam","pinCode":"627154","city":"Tirunelveli","district":"Tirunelveli","state":"Tamil Nadu"},{"pinCodeSeq":6183,"postOfficeName":"Manur Tiruneveli","pinCode":"627201","city":"Tirunelveli","district":"Tirunelveli","state":"Tamil Nadu"},{"pinCodeSeq":6184,"postOfficeName":"Ukkiramkottai","pinCode":"627202","city":"Tirunelveli","district":"Tirunelveli","state":"Tamil Nadu"},{"pinCodeSeq":6185,"postOfficeName":"Ellanaickenpatti","pinCode":"627251","city":"Tirunelveli","district":"Tirunelveli","state":"Tamil Nadu"},{"pinCodeSeq":6186,"postOfficeName":"Vallanad","pinCode":"627252","city":"Tirunelveli","district":"Tirunelveli","state":"Tamil Nadu"},{"pinCodeSeq":6187,"postOfficeName":"Kaliavoor","pinCode":"627253","city":"Tirunelveli","district":"Tirunelveli","state":"Tamil Nadu"},{"pinCodeSeq":6188,"postOfficeName":"Murappanad","pinCode":"627254","city":"Tirunelveli","district":"Tirunelveli","state":"Tamil Nadu"},{"pinCodeSeq":6189,"postOfficeName":"Singathakurichi","pinCode":"627255","city":"Tirunelveli","district":"Tirunelveli","state":"Tamil Nadu"},{"pinCodeSeq":6190,"postOfficeName":"Seydunganallur","pinCode":"627301","city":"Tirunelveli","district":"Tirunelveli","state":"Tamil Nadu"},{"pinCodeSeq":6191,"postOfficeName":"Anavaradanallur","pinCode":"627302","city":"Tirunelveli","district":"Tirunelveli","state":"Tamil Nadu"},{"pinCodeSeq":6192,"postOfficeName":"Vasavappapuram","pinCode":"627303","city":"Tirunelveli","district":"Tirunelveli","state":"Tamil Nadu"},{"pinCodeSeq":6193,"postOfficeName":"Kittilapuram","pinCode":"627304","city":"Tirunelveli","district":"Tirunelveli","state":"Tamil Nadu"},{"pinCodeSeq":6194,"postOfficeName":"Vittilapuram","pinCode":"627304","city":"Tirunelveli","district":"Tirunelveli","state":"Tamil Nadu"},{"pinCodeSeq":6196,"postOfficeName":"Burkitmanagaram","pinCode":"627351","city":"Tirunelveli","district":"Tirunelveli","state":"Tamil Nadu"},{"pinCodeSeq":6198,"postOfficeName":"Kizhanatham","pinCode":"627353","city":"Tirunelveli","district":"Tirunelveli","state":"Tamil Nadu"},{"pinCodeSeq":6199,"postOfficeName":"Mulakaripatti","pinCode":"627354","city":"Tirunelveli","district":"Tirunelveli","state":"Tamil Nadu"},{"pinCodeSeq":6200,"postOfficeName":"Munanjipatti","pinCode":"627355","city":"Tirunelveli","district":"Tirunelveli","state":"Tamil Nadu"},{"pinCodeSeq":6201,"postOfficeName":"Munnirpallam","pinCode":"627356","city":"Tirunelveli","district":"Tirunelveli","state":"Tamil Nadu"},{"pinCodeSeq":6202,"postOfficeName":"Snkarnagar","pinCode":"627357","city":"Tirunelveli","district":"Tirunelveli","state":"Tamil Nadu"},{"pinCodeSeq":6203,"postOfficeName":"Tachanallur","pinCode":"627358","city":"Tirunelveli","district":"Tirunelveli","state":"Tamil Nadu"},{"pinCodeSeq":6204,"postOfficeName":"Rajavallipuram","pinCode":"627359","city":"Tirunelveli","district":"Tirunelveli","state":"Tamil Nadu"},{"pinCodeSeq":6205,"postOfficeName":"Taruvai","pinCode":"627360","city":"Tirunelveli","district":"Tirunelveli","state":"Tamil Nadu"},{"pinCodeSeq":6206,"postOfficeName":"Sivalaperi","pinCode":"627361","city":"Tirunelveli","district":"Tirunelveli","state":"Tamil Nadu"},{"pinCodeSeq":6208,"postOfficeName":"Ambasamudram East","pinCode":"627401","city":"Tirunelveli","district":"Tirunelveli","state":"Tamil Nadu"},{"pinCodeSeq":6209,"postOfficeName":"Ambasamudram H O","pinCode":"627401","city":"Tirunelveli","district":"Tirunelveli","state":"Tamil Nadu"},{"pinCodeSeq":6210,"postOfficeName":"Angadi","pinCode":"627401","city":"Tirunelveli","district":"Tirunelveli","state":"Tamil Nadu"},{"pinCodeSeq":6211,"postOfficeName":"Alwar Kurichi","pinCode":"627412","city":"Tirunelveli","district":"Tirunelveli","state":"Tamil Nadu"},{"pinCodeSeq":6212,"postOfficeName":"Brahmadesam","pinCode":"627413","city":"Tirunelveli","district":"Tirunelveli","state":"Tamil Nadu"},{"pinCodeSeq":6213,"postOfficeName":"Cheranmahadevi","pinCode":"627414","city":"Tirunelveli","district":"Tirunelveli","state":"Tamil Nadu"},{"pinCodeSeq":6214,"postOfficeName":"Kadayam","pinCode":"627415","city":"Tirunelveli","district":"Tirunelveli","state":"Tamil Nadu"},{"pinCodeSeq":6215,"postOfficeName":"Kalladaikurichi Market","pinCode":"627416","city":"Tirunelveli","district":"Tirunelveli","state":"Tamil Nadu"},{"pinCodeSeq":6216,"postOfficeName":"Kallidaikurichi","pinCode":"627416","city":"Tirunelveli","district":"Tirunelveli","state":"Tamil Nadu"},{"pinCodeSeq":6218,"postOfficeName":"Kilambur","pinCode":"627418","city":"Tirunelveli","district":"Tirunelveli","state":"Tamil Nadu"},{"pinCodeSeq":6219,"postOfficeName":"Kodayar Melthangal","pinCode":"627419","city":"Tirunelveli","district":"Tirunelveli","state":"Tamil Nadu"},{"pinCodeSeq":6220,"postOfficeName":"Manjolai","pinCode":"627420","city":"Tirunelveli","district":"Tirunelveli","state":"Tamil Nadu"},{"pinCodeSeq":6221,"postOfficeName":"Manimuthar Project","pinCode":"627421","city":"Tirunelveli","district":"Tirunelveli","state":"Tamil Nadu"},{"pinCodeSeq":6222,"postOfficeName":"Papavinasam Mills","pinCode":"627422","city":"Tirunelveli","district":"Tirunelveli","state":"Tamil Nadu"},{"pinCodeSeq":6223,"postOfficeName":"Pottalpudur","pinCode":"627423","city":"Tirunelveli","district":"Tirunelveli","state":"Tamil Nadu"},{"pinCodeSeq":6224,"postOfficeName":"Ravanasamudram","pinCode":"627424","city":"Tirunelveli","district":"Tirunelveli","state":"Tamil Nadu"},{"pinCodeSeq":6225,"postOfficeName":"Ambalavanapuram","pinCode":"627425","city":"Tirunelveli","district":"Tirunelveli","state":"Tamil Nadu"},{"pinCodeSeq":6227,"postOfficeName":"Viravanallur","pinCode":"627426","city":"Tirunelveli","district":"Tirunelveli","state":"Tamil Nadu"},{"pinCodeSeq":6228,"postOfficeName":"Nalumukku","pinCode":"627427","city":"Tirunelveli","district":"Tirunelveli","state":"Tamil Nadu"},{"pinCodeSeq":6229,"postOfficeName":"Sivasailam","pinCode":"627428","city":"Tirunelveli","district":"Tirunelveli","state":"Tamil Nadu"},{"pinCodeSeq":6230,"postOfficeName":"Vellankuli","pinCode":"627430","city":"Tirunelveli","district":"Tirunelveli","state":"Tamil Nadu"},{"pinCodeSeq":6231,"postOfficeName":"Avudayanur","pinCode":"627431","city":"Tirunelveli","district":"Tirunelveli","state":"Tamil Nadu"},{"pinCodeSeq":6232,"postOfficeName":"Ayakkarambalam Ii","pinCode":"627431","city":"Tirunelveli","district":"Tirunelveli","state":"Tamil Nadu"},{"pinCodeSeq":6233,"postOfficeName":"Pappankulam","pinCode":"627432","city":"Tirunelveli","district":"Tirunelveli","state":"Tamil Nadu"},{"pinCodeSeq":6234,"postOfficeName":"Sivandipuram","pinCode":"627433","city":"Tirunelveli","district":"Tirunelveli","state":"Tamil Nadu"},{"pinCodeSeq":6235,"postOfficeName":"Aladiyur","pinCode":"627434","city":"Tirunelveli","district":"Tirunelveli","state":"Tamil Nadu"},{"pinCodeSeq":6236,"postOfficeName":"Podukudu","pinCode":"627435","city":"Tirunelveli","district":"Tirunelveli","state":"Tamil Nadu"},{"pinCodeSeq":6238,"postOfficeName":"Goapalasamudram","pinCode":"627451","city":"Tirunelveli","district":"Tirunelveli","state":"Tamil Nadu"},{"pinCodeSeq":6239,"postOfficeName":"Melaseval","pinCode":"627452","city":"Tirunelveli","district":"Tirunelveli","state":"Tamil Nadu"},{"pinCodeSeq":6240,"postOfficeName":"Pattumadai","pinCode":"627453","city":"Tirunelveli","district":"Tirunelveli","state":"Tamil Nadu"},{"pinCodeSeq":6241,"postOfficeName":"Kalakad","pinCode":"627501","city":"Tirunelveli","district":"Tirunelveli","state":"Tamil Nadu"},{"pinCodeSeq":6242,"postOfficeName":"Devanallur","pinCode":"627502","city":"Tirunelveli","district":"Tirunelveli","state":"Tamil Nadu"},{"pinCodeSeq":6243,"postOfficeName":"Papanasam Project","pinCode":"627551","city":"Tirunelveli","district":"Tirunelveli","state":"Tamil Nadu"},{"pinCodeSeq":6244,"postOfficeName":"Papanasam Pykara Colony","pinCode":"627551","city":"Tirunelveli","district":"Tirunelveli","state":"Tamil Nadu"},{"pinCodeSeq":6246,"postOfficeName":"Papagudi","pinCode":"627602","city":"Tirunelveli","district":"Tirunelveli","state":"Tamil Nadu"},{"pinCodeSeq":6247,"postOfficeName":"Ariyanayagipuram Pettai","pinCode":"627603","city":"Tirunelveli","district":"Tirunelveli","state":"Tamil Nadu"},{"pinCodeSeq":6248,"postOfficeName":"Vadakku","pinCode":"627603","city":"Tirunelveli","district":"Tirunelveli","state":"Tamil Nadu"},{"pinCodeSeq":6249,"postOfficeName":"Vadakku Ariyanayagipuramp","pinCode":"627603","city":"Tirunelveli","district":"Tirunelveli","state":"Tamil Nadu"},{"pinCodeSeq":6250,"postOfficeName":"Suttamally","pinCode":"627604","city":"Tirunelveli","district":"Tirunelveli","state":"Tamil Nadu"},{"pinCodeSeq":6256,"postOfficeName":"Lakshmipuram","pinCode":"627702","city":"Tirunelveli","district":"Tirunelveli","state":"Tamil Nadu"},{"pinCodeSeq":6257,"postOfficeName":"Lakshmipuram Kovilpatti","pinCode":"627702","city":"Tirunelveli","district":"Tirunelveli","state":"Tamil Nadu"},{"pinCodeSeq":6258,"postOfficeName":"Perundunilayam","pinCode":"627702","city":"Tirunelveli","district":"Tirunelveli","state":"Tamil Nadu"},{"pinCodeSeq":6259,"postOfficeName":"Kathur Puvalur","pinCode":"627706","city":"Tirunelveli","district":"Tirunelveli","state":"Tamil Nadu"},{"pinCodeSeq":6260,"postOfficeName":"Eppodumvendran","pinCode":"627712","city":"Tirunelveli","district":"Tirunelveli","state":"Tamil Nadu"},{"pinCodeSeq":6261,"postOfficeName":"Ilayasasanendal","pinCode":"627713","city":"Tirunelveli","district":"Tirunelveli","state":"Tamil Nadu"},{"pinCodeSeq":6263,"postOfficeName":"Nallatinputhur","pinCode":"627716","city":"Tirunelveli","district":"Tirunelveli","state":"Tamil Nadu"},{"pinCodeSeq":6264,"postOfficeName":"Parivallikottai","pinCode":"627717","city":"Tirunelveli","district":"Tirunelveli","state":"Tamil Nadu"},{"pinCodeSeq":6265,"postOfficeName":"Pasuvanthanai","pinCode":"627718","city":"Tirunelveli","district":"Tirunelveli","state":"Tamil Nadu"},{"pinCodeSeq":6266,"postOfficeName":"Tiruvengadam","pinCode":"627719","city":"Tirunelveli","district":"Tirunelveli","state":"Tamil Nadu"},{"pinCodeSeq":6267,"postOfficeName":"Turaiyur Koitpatti","pinCode":"627720","city":"Tirunelveli","district":"Tirunelveli","state":"Tamil Nadu"},{"pinCodeSeq":6268,"postOfficeName":"Vanarmutti","pinCode":"627721","city":"Tirunelveli","district":"Tirunelveli","state":"Tamil Nadu"},{"pinCodeSeq":6269,"postOfficeName":"Kurukkuchalai","pinCode":"627722","city":"Tirunelveli","district":"Tirunelveli","state":"Tamil Nadu"},{"pinCodeSeq":6270,"postOfficeName":"Ilavengal","pinCode":"627723","city":"Tirunelveli","district":"Tirunelveli","state":"Tamil Nadu"},{"pinCodeSeq":6271,"postOfficeName":"Kalingapatti","pinCode":"627724","city":"Tirunelveli","district":"Tirunelveli","state":"Tamil Nadu"},{"pinCodeSeq":6274,"postOfficeName":"East Pandavarmangalam","pinCode":"627727","city":"Tirunelveli","district":"Tirunelveli","state":"Tamil Nadu"},{"pinCodeSeq":6276,"postOfficeName":"Kadayanallur Bazaar","pinCode":"627751","city":"Tirunelveli","district":"Tirunelveli","state":"Tamil Nadu"},{"pinCodeSeq":6277,"postOfficeName":"Kadayanallur Pettai","pinCode":"627751","city":"Tirunelveli","district":"Tirunelveli","state":"Tamil Nadu"},{"pinCodeSeq":6279,"postOfficeName":"Karivalam Vandanallur","pinCode":"627753","city":"Tirunelveli","district":"Tirunelveli","state":"Tamil Nadu"},{"pinCodeSeq":6280,"postOfficeName":"Kuruvikulam","pinCode":"627754","city":"Tirunelveli","district":"Tirunelveli","state":"Tamil Nadu"},{"pinCodeSeq":6282,"postOfficeName":"Chockamppatti","pinCode":"627756","city":"Tirunelveli","district":"Tirunelveli","state":"Tamil Nadu"},{"pinCodeSeq":6283,"postOfficeName":"Sankarankoil Bazaar","pinCode":"627756","city":"Tirunelveli","district":"Tirunelveli","state":"Tamil Nadu"},{"pinCodeSeq":6284,"postOfficeName":"Sankarankoil East","pinCode":"627756","city":"Tirunelveli","district":"Tirunelveli","state":"Tamil Nadu"},{"pinCodeSeq":6285,"postOfficeName":"Sankarankoil H O","pinCode":"627756","city":"Tirunelveli","district":"Tirunelveli","state":"Tamil Nadu"},{"pinCodeSeq":6288,"postOfficeName":"Krishnapuram","pinCode":"627759","city":"Tirunelveli","district":"Tirunelveli","state":"Tamil Nadu"},{"pinCodeSeq":6289,"postOfficeName":"Krishnapuram Tirunelveli","pinCode":"627759","city":"Tirunelveli","district":"Tirunelveli","state":"Tamil Nadu"},{"pinCodeSeq":6290,"postOfficeName":"Mavadikkal","pinCode":"627759","city":"Tirunelveli","district":"Tirunelveli","state":"Tamil Nadu"},{"pinCodeSeq":6291,"postOfficeName":"Melakadayanallur","pinCode":"627759","city":"Tirunelveli","district":"Tirunelveli","state":"Tamil Nadu"},{"pinCodeSeq":6292,"postOfficeName":"Muthukrishnapuram","pinCode":"627759","city":"Tirunelveli","district":"Tirunelveli","state":"Tamil Nadu"},{"pinCodeSeq":6293,"postOfficeName":"Panaiyur","pinCode":"627761","city":"Tirunelveli","district":"Tirunelveli","state":"Tamil Nadu"},{"pinCodeSeq":6294,"postOfficeName":"Pannaiyur","pinCode":"627761","city":"Tirunelveli","district":"Tirunelveli","state":"Tamil Nadu"},{"pinCodeSeq":6297,"postOfficeName":"Royagiri","pinCode":"627764","city":"Tirunelveli","district":"Tirunelveli","state":"Tamil Nadu"},{"pinCodeSeq":6298,"postOfficeName":"Chokkampatti","pinCode":"627765","city":"Tirunelveli","district":"Tirunelveli","state":"Tamil Nadu"},{"pinCodeSeq":6299,"postOfficeName":"Perungottur","pinCode":"627766","city":"Tirunelveli","district":"Tirunelveli","state":"Tamil Nadu"},{"pinCodeSeq":6300,"postOfficeName":"Sokkanathampudur","pinCode":"627767","city":"Tirunelveli","district":"Tirunelveli","state":"Tamil Nadu"},{"pinCodeSeq":6301,"postOfficeName":"Nellakattumseval","pinCode":"627768","city":"Tirunelveli","district":"Tirunelveli","state":"Tamil Nadu"},{"pinCodeSeq":6302,"postOfficeName":"Perumbattur","pinCode":"627769","city":"Tirunelveli","district":"Tirunelveli","state":"Tamil Nadu"},{"pinCodeSeq":6303,"postOfficeName":"Tenmalalai","pinCode":"627770","city":"Tirunelveli","district":"Tirunelveli","state":"Tamil Nadu"},{"pinCodeSeq":6304,"postOfficeName":"Manalur","pinCode":"627771","city":"Tirunelveli","district":"Tirunelveli","state":"Tamil Nadu"},{"pinCodeSeq":6305,"postOfficeName":"Thaiaivankottai","pinCode":"627773","city":"Tirunelveli","district":"Tirunelveli","state":"Tamil Nadu"},{"pinCodeSeq":6306,"postOfficeName":"Sayamalai","pinCode":"627774","city":"Tirunelveli","district":"Tirunelveli","state":"Tamil Nadu"},{"pinCodeSeq":6307,"postOfficeName":"Achanputhur","pinCode":"627801","city":"Tirunelveli","district":"Tirunelveli","state":"Tamil Nadu"},{"pinCodeSeq":6308,"postOfficeName":"Courtallam","pinCode":"627802","city":"Tirunelveli","district":"Tirunelveli","state":"Tamil Nadu"},{"pinCodeSeq":6309,"postOfficeName":"Courtallam Bus Stand","pinCode":"627802","city":"Tirunelveli","district":"Tirunelveli","state":"Tamil Nadu"},{"pinCodeSeq":6310,"postOfficeName":"Kasimajorpuram","pinCode":"627802","city":"Tirunelveli","district":"Tirunelveli","state":"Tamil Nadu"},{"pinCodeSeq":6312,"postOfficeName":"Idaikal","pinCode":"627804","city":"Tirunelveli","district":"Tirunelveli","state":"Tamil Nadu"},{"pinCodeSeq":6314,"postOfficeName":"Kilapavur","pinCode":"627806","city":"Tirunelveli","district":"Tirunelveli","state":"Tamil Nadu"},{"pinCodeSeq":6315,"postOfficeName":"Shencottah","pinCode":"627809","city":"Tirunelveli","district":"Tirunelveli","state":"Tamil Nadu"},{"pinCodeSeq":6316,"postOfficeName":"Shencottah Bus Stand","pinCode":"627809","city":"Tirunelveli","district":"Tirunelveli","state":"Tamil Nadu"},{"pinCodeSeq":6317,"postOfficeName":"Shencottoh Cutchery","pinCode":"627809","city":"Tirunelveli","district":"Tirunelveli","state":"Tamil Nadu"},{"pinCodeSeq":6318,"postOfficeName":"Shencottah R S","pinCode":"627810","city":"Tirunelveli","district":"Tirunelveli","state":"Tamil Nadu"},{"pinCodeSeq":6319,"postOfficeName":"Melapuliyur","pinCode":"627811","city":"Tirunelveli","district":"Tirunelveli","state":"Tamil Nadu"},{"pinCodeSeq":6320,"postOfficeName":"Tenkasi Bus Stand","pinCode":"627811","city":"Tirunelveli","district":"Tirunelveli","state":"Tamil Nadu"},{"pinCodeSeq":6321,"postOfficeName":"Tenkasi East","pinCode":"627811","city":"Tirunelveli","district":"Tirunelveli","state":"Tamil Nadu"},{"pinCodeSeq":6322,"postOfficeName":"Tenkasi H O","pinCode":"627811","city":"Tirunelveli","district":"Tirunelveli","state":"Tamil Nadu"},{"pinCodeSeq":6323,"postOfficeName":"Tenkasi R S","pinCode":"627811","city":"Tirunelveli","district":"Tirunelveli","state":"Tamil Nadu"},{"pinCodeSeq":6324,"postOfficeName":"Vadakarai Koilpatti","pinCode":"627812","city":"Tirunelveli","district":"Tirunelveli","state":"Tamil Nadu"},{"pinCodeSeq":6325,"postOfficeName":"Puliyara","pinCode":"627813","city":"Tirunelveli","district":"Tirunelveli","state":"Tamil Nadu"},{"pinCodeSeq":6326,"postOfficeName":"Kizhapuliyur","pinCode":"627814","city":"Tirunelveli","district":"Tirunelveli","state":"Tamil Nadu"},{"pinCodeSeq":6327,"postOfficeName":"Sivanadanur","pinCode":"627815","city":"Tirunelveli","district":"Tirunelveli","state":"Tamil Nadu"},{"pinCodeSeq":6328,"postOfficeName":"Kanakkapillaivalasi","pinCode":"627816","city":"Tirunelveli","district":"Tirunelveli","state":"Tamil Nadu"},{"pinCodeSeq":6329,"postOfficeName":"Vallam","pinCode":"627817","city":"Tirunelveli","district":"Tirunelveli","state":"Tamil Nadu"},{"pinCodeSeq":6331,"postOfficeName":"Peddanadarpatti","pinCode":"627819","city":"Tirunelveli","district":"Tirunelveli","state":"Tamil Nadu"},{"pinCodeSeq":6332,"postOfficeName":"Nainaragaram","pinCode":"627820","city":"Tirunelveli","district":"Tirunelveli","state":"Tamil Nadu"},{"pinCodeSeq":6333,"postOfficeName":"Idaikal Ambasamudram","pinCode":"627821","city":"Tirunelveli","district":"Tirunelveli","state":"Tamil Nadu"},{"pinCodeSeq":6334,"postOfficeName":"Rajapandi","pinCode":"627822","city":"Tirunelveli","district":"Tirunelveli","state":"Tamil Nadu"},{"pinCodeSeq":6335,"postOfficeName":"Vellakkal","pinCode":"627823","city":"Tirunelveli","district":"Tirunelveli","state":"Tamil Nadu"},{"pinCodeSeq":6337,"postOfficeName":"Ayikudi","pinCode":"627852","city":"Tirunelveli","district":"Tirunelveli","state":"Tamil Nadu"},{"pinCodeSeq":6339,"postOfficeName":"Nettur","pinCode":"627854","city":"Tirunelveli","district":"Tirunelveli","state":"Tamil Nadu"},{"pinCodeSeq":6340,"postOfficeName":"Chintamani","pinCode":"627855","city":"Tirunelveli","district":"Tirunelveli","state":"Tamil Nadu"},{"pinCodeSeq":6341,"postOfficeName":"Pudhukudi","pinCode":"627855","city":"Tirunelveli","district":"Tirunelveli","state":"Tamil Nadu"},{"pinCodeSeq":6342,"postOfficeName":"Puliangudi","pinCode":"627855","city":"Tirunelveli","district":"Tirunelveli","state":"Tamil Nadu"},{"pinCodeSeq":6343,"postOfficeName":"Thirumalanayakkan","pinCode":"627855","city":"Tirunelveli","district":"Tirunelveli","state":"Tamil Nadu"},{"pinCodeSeq":6344,"postOfficeName":"Samburvadakarai","pinCode":"627856","city":"Tirunelveli","district":"Tirunelveli","state":"Tamil Nadu"},{"pinCodeSeq":6345,"postOfficeName":"Serndamangalam","pinCode":"627857","city":"Tirunelveli","district":"Tirunelveli","state":"Tamil Nadu"},{"pinCodeSeq":6348,"postOfficeName":"Uthumalai","pinCode":"627860","city":"Tirunelveli","district":"Tirunelveli","state":"Tamil Nadu"},{"pinCodeSeq":6349,"postOfficeName":"Virrkeralampudur","pinCode":"627861","city":"Tirunelveli","district":"Tirunelveli","state":"Tamil Nadu"},{"pinCodeSeq":6350,"postOfficeName":"Virasigamani","pinCode":"627862","city":"Tirunelveli","district":"Tirunelveli","state":"Tamil Nadu"},{"pinCodeSeq":6351,"postOfficeName":"Pambakovil Shandy","pinCode":"627863","city":"Tirunelveli","district":"Tirunelveli","state":"Tamil Nadu"},{"pinCodeSeq":6352,"postOfficeName":"Punniahpuram","pinCode":"627864","city":"Tirunelveli","district":"Tirunelveli","state":"Tamil Nadu"},{"pinCodeSeq":6353,"postOfficeName":"Veeranam","pinCode":"627866","city":"Tirunelveli","district":"Tirunelveli","state":"Tamil Nadu"},{"pinCodeSeq":6356,"postOfficeName":"Ariyanayagipuram","pinCode":"627901","city":"Tirunelveli","district":"Tirunelveli","state":"Tamil Nadu"},{"pinCodeSeq":6357,"postOfficeName":"Naduvisipatli","pinCode":"627902","city":"Tirunelveli","district":"Tirunelveli","state":"Tamil Nadu"},{"pinCodeSeq":6358,"postOfficeName":"Kulathur Tirunelveli","pinCode":"627903","city":"Tirunelveli","district":"Tirunelveli","state":"Tamil Nadu"},{"pinCodeSeq":6359,"postOfficeName":"Nagalapuram","pinCode":"627904","city":"Tirunelveli","district":"Tirunelveli","state":"Tamil Nadu"},{"pinCodeSeq":6360,"postOfficeName":"Pudur Tirunelveli","pinCode":"627905","city":"Tirunelveli","district":"Tirunelveli","state":"Tamil Nadu"},{"pinCodeSeq":6361,"postOfficeName":"Vembathur","pinCode":"627906","city":"Tirunelveli","district":"Tirunelveli","state":"Tamil Nadu"},{"pinCodeSeq":6363,"postOfficeName":"Kila Iral","pinCode":"627908","city":"Tirunelveli","district":"Tirunelveli","state":"Tamil Nadu"},{"pinCodeSeq":6364,"postOfficeName":"Veppalodai","pinCode":"627909","city":"Tirunelveli","district":"Tirunelveli","state":"Tamil Nadu"},{"pinCodeSeq":6365,"postOfficeName":"Pillayaranatham","pinCode":"627910","city":"Tirunelveli","district":"Tirunelveli","state":"Tamil Nadu"},{"pinCodeSeq":6366,"postOfficeName":"Perilovanpatti","pinCode":"627911","city":"Tirunelveli","district":"Tirunelveli","state":"Tamil Nadu"},{"pinCodeSeq":6367,"postOfficeName":"Ramachandrapuram","pinCode":"627912","city":"Tirunelveli","district":"Tirunelveli","state":"Tamil Nadu"},{"pinCodeSeq":6368,"postOfficeName":"Devarkulam","pinCode":"627951","city":"Tirunelveli","district":"Tirunelveli","state":"Tamil Nadu"},{"pinCodeSeq":6369,"postOfficeName":"Kayatar","pinCode":"627952","city":"Tirunelveli","district":"Tirunelveli","state":"Tamil Nadu"},{"pinCodeSeq":6370,"postOfficeName":"Melanilidanallur","pinCode":"627953","city":"Tirunelveli","district":"Tirunelveli","state":"Tamil Nadu"},{"pinCodeSeq":6371,"postOfficeName":"Vannikonendal","pinCode":"627954","city":"Tirunelveli","district":"Tirunelveli","state":"Tamil Nadu"},{"pinCodeSeq":6372,"postOfficeName":"Karukkalpatti","pinCode":"627955","city":"Tirunelveli","district":"Tirunelveli","state":"Tamil Nadu"},{"pinCodeSeq":6373,"postOfficeName":"Kurukkalpatti","pinCode":"627955","city":"Tirunelveli","district":"Tirunelveli","state":"Tamil Nadu"},{"pinCodeSeq":6374,"postOfficeName":"Panavadalichatram","pinCode":"627956","city":"Tirunelveli","district":"Tirunelveli","state":"Tamil Nadu"},{"pinCodeSeq":6375,"postOfficeName":"Kilnilidanallur","pinCode":"627957","city":"Tirunelveli","district":"Tirunelveli","state":"Tamil Nadu"},{"pinCodeSeq":6376,"postOfficeName":"Turicorin H O","pinCode":"628001","city":"Tirunelveli","district":"Tirunelveli","state":"Tamil Nadu"},{"pinCodeSeq":6377,"postOfficeName":"Tuticorin Harbour","pinCode":"628001","city":"Tirunelveli","district":"Tirunelveli","state":"Tamil Nadu"},{"pinCodeSeq":6378,"postOfficeName":"Tuticorin Kelur","pinCode":"628001","city":"Tirunelveli","district":"Tirunelveli","state":"Tamil Nadu"},{"pinCodeSeq":6379,"postOfficeName":"Vedakkur Tuticorin","pinCode":"628001","city":"Tirunelveli","district":"Tirunelveli","state":"Tamil Nadu"},{"pinCodeSeq":6380,"postOfficeName":"Vetrivelpuram","pinCode":"628001","city":"Tirunelveli","district":"Tirunelveli","state":"Tamil Nadu"},{"pinCodeSeq":6381,"postOfficeName":"Alagesapuram","pinCode":"628002","city":"Tirunelveli","district":"Tirunelveli","state":"Tamil Nadu"},{"pinCodeSeq":6382,"postOfficeName":"Gibbsonpuram","pinCode":"628002","city":"Tirunelveli","district":"Tirunelveli","state":"Tamil Nadu"},{"pinCodeSeq":6383,"postOfficeName":"Great Cotton Road","pinCode":"628002","city":"Tirunelveli","district":"Tirunelveli","state":"Tamil Nadu"},{"pinCodeSeq":6384,"postOfficeName":"Kilashanmugapuram","pinCode":"628002","city":"Tirunelveli","district":"Tirunelveli","state":"Tamil Nadu"},{"pinCodeSeq":6385,"postOfficeName":"Melur Tuticorin","pinCode":"628002","city":"Tirunelveli","district":"Tirunelveli","state":"Tamil Nadu"},{"pinCodeSeq":6386,"postOfficeName":"Polenaickenpettai","pinCode":"628002","city":"Tirunelveli","district":"Tirunelveli","state":"Tamil Nadu"},{"pinCodeSeq":6387,"postOfficeName":"Victoria Extn Road","pinCode":"628002","city":"Tirunelveli","district":"Tirunelveli","state":"Tamil Nadu"},{"pinCodeSeq":6388,"postOfficeName":"Central Govt Servants Cly","pinCode":"628003","city":"Tirunelveli","district":"Tirunelveli","state":"Tamil Nadu"},{"pinCodeSeq":6389,"postOfficeName":"Chidambaranagar","pinCode":"628003","city":"Tirunelveli","district":"Tirunelveli","state":"Tamil Nadu"},{"pinCodeSeq":6390,"postOfficeName":"Millerpuram","pinCode":"628003","city":"Tirunelveli","district":"Tirunelveli","state":"Tamil Nadu"},{"pinCodeSeq":6391,"postOfficeName":"New Colony","pinCode":"628003","city":"Tirunelveli","district":"Tirunelveli","state":"Tamil Nadu"},{"pinCodeSeq":6392,"postOfficeName":"Estate","pinCode":"628004","city":"Tirunelveli","district":"Tirunelveli","state":"Tamil Nadu"},{"pinCodeSeq":6393,"postOfficeName":"Power Plant","pinCode":"628004","city":"Tirunelveli","district":"Tirunelveli","state":"Tamil Nadu"},{"pinCodeSeq":6394,"postOfficeName":"Tuticorin Thermal","pinCode":"628004","city":"Tirunelveli","district":"Tirunelveli","state":"Tamil Nadu"},{"pinCodeSeq":6395,"postOfficeName":"Muthiahpuram","pinCode":"628005","city":"Tirunelveli","district":"Tirunelveli","state":"Tamil Nadu"},{"pinCodeSeq":6396,"postOfficeName":"Thermalngar","pinCode":"628006","city":"Tirunelveli","district":"Tirunelveli","state":"Tamil Nadu"},{"pinCodeSeq":6397,"postOfficeName":"Thethakudi Therku","pinCode":"628006","city":"Tirunelveli","district":"Tirunelveli","state":"Tamil Nadu"},{"pinCodeSeq":6398,"postOfficeName":"Heavy Water Project Colony","pinCode":"628007","city":"Tirunelveli","district":"Tirunelveli","state":"Tamil Nadu"},{"pinCodeSeq":6399,"postOfficeName":"Chidambaranagar","pinCode":"628008","city":"Tirunelveli","district":"Tirunelveli","state":"Tamil Nadu"},{"pinCodeSeq":6400,"postOfficeName":"Athimarathupatti","pinCode":"628051","city":"Tirunelveli","district":"Tirunelveli","state":"Tamil Nadu"},{"pinCodeSeq":6401,"postOfficeName":"Korampallam","pinCode":"628101","city":"Tirunelveli","district":"Tirunelveli","state":"Tamil Nadu"},{"pinCodeSeq":6402,"postOfficeName":"Mudittanendal","pinCode":"628102","city":"Tirunelveli","district":"Tirunelveli","state":"Tamil Nadu"},{"pinCodeSeq":6404,"postOfficeName":"Seekarakudi","pinCode":"628104","city":"Tirunelveli","district":"Tirunelveli","state":"Tamil Nadu"},{"pinCodeSeq":6405,"postOfficeName":"Taruvaikulam","pinCode":"628105","city":"Tirunelveli","district":"Tirunelveli","state":"Tamil Nadu"},{"pinCodeSeq":6406,"postOfficeName":"Autoor","pinCode":"628151","city":"Tirunelveli","district":"Tirunelveli","state":"Tamil Nadu"},{"pinCodeSeq":6407,"postOfficeName":"Pazhayakayal","pinCode":"628152","city":"Tirunelveli","district":"Tirunelveli","state":"Tamil Nadu"},{"pinCodeSeq":6408,"postOfficeName":"Melautoor","pinCode":"628153","city":"Tirunelveli","district":"Tirunelveli","state":"Tamil Nadu"},{"pinCodeSeq":6409,"postOfficeName":"Mukkani","pinCode":"628154","city":"Tirunelveli","district":"Tirunelveli","state":"Tamil Nadu"},{"pinCodeSeq":6410,"postOfficeName":"Punnakayal","pinCode":"628155","city":"Tirunelveli","district":"Tirunelveli","state":"Tamil Nadu"},{"pinCodeSeq":6411,"postOfficeName":"Ammanpuram","pinCode":"628201","city":"Tirunelveli","district":"Tirunelveli","state":"Tamil Nadu"},{"pinCodeSeq":6413,"postOfficeName":"Christianagaram","pinCode":"628203","city":"Tirunelveli","district":"Tirunelveli","state":"Tamil Nadu"},{"pinCodeSeq":6414,"postOfficeName":"Kayalpatnam","pinCode":"628204","city":"Tirunelveli","district":"Tirunelveli","state":"Tamil Nadu"},{"pinCodeSeq":6415,"postOfficeName":"Kayamoli","pinCode":"628205","city":"Tirunelveli","district":"Tirunelveli","state":"Tamil Nadu"},{"pinCodeSeq":6416,"postOfficeName":"Kulasekharapatnam","pinCode":"628206","city":"Tirunelveli","district":"Tirunelveli","state":"Tamil Nadu"},{"pinCodeSeq":6418,"postOfficeName":"Manadu Thandupattu","pinCode":"628208","city":"Tirunelveli","district":"Tirunelveli","state":"Tamil Nadu"},{"pinCodeSeq":6419,"postOfficeName":"Manappad","pinCode":"628209","city":"Tirunelveli","district":"Tirunelveli","state":"Tamil Nadu"},{"pinCodeSeq":6420,"postOfficeName":"Megnanapuram","pinCode":"628210","city":"Tirunelveli","district":"Tirunelveli","state":"Tamil Nadu"},{"pinCodeSeq":6421,"postOfficeName":"Nalumavadi","pinCode":"628211","city":"Tirunelveli","district":"Tirunelveli","state":"Tamil Nadu"},{"pinCodeSeq":6422,"postOfficeName":"Paramankurichi","pinCode":"628213","city":"Tirunelveli","district":"Tirunelveli","state":"Tamil Nadu"},{"pinCodeSeq":6423,"postOfficeName":"Puraiyur","pinCode":"628214","city":"Tirunelveli","district":"Tirunelveli","state":"Tamil Nadu"},{"pinCodeSeq":6424,"postOfficeName":"Devasthanam","pinCode":"628215","city":"Tirunelveli","district":"Tirunelveli","state":"Tamil Nadu"},{"pinCodeSeq":6428,"postOfficeName":"Virapandianpattinam","pinCode":"628216","city":"Tirunelveli","district":"Tirunelveli","state":"Tamil Nadu"},{"pinCodeSeq":6429,"postOfficeName":"Adaikalapuram","pinCode":"628217","city":"Tirunelveli","district":"Tirunelveli","state":"Tamil Nadu"},{"pinCodeSeq":6430,"postOfficeName":"Mannanvilai","pinCode":"628218","city":"Tirunelveli","district":"Tirunelveli","state":"Tamil Nadu"},{"pinCodeSeq":6431,"postOfficeName":"Vellalanvilai","pinCode":"628219","city":"Tirunelveli","district":"Tirunelveli","state":"Tamil Nadu"},{"pinCodeSeq":6432,"postOfficeName":"Nathankinar","pinCode":"628220","city":"Tirunelveli","district":"Tirunelveli","state":"Tamil Nadu"},{"pinCodeSeq":6433,"postOfficeName":"Alantalai","pinCode":"628221","city":"Tirunelveli","district":"Tirunelveli","state":"Tamil Nadu"},{"pinCodeSeq":6434,"postOfficeName":"Melatiruchendur","pinCode":"628222","city":"Tirunelveli","district":"Tirunelveli","state":"Tamil Nadu"},{"pinCodeSeq":6435,"postOfficeName":"Peyanvilai","pinCode":"628223","city":"Tirunelveli","district":"Tirunelveli","state":"Tamil Nadu"},{"pinCodeSeq":6436,"postOfficeName":"Sonaganvilai","pinCode":"628224","city":"Tirunelveli","district":"Tirunelveli","state":"Tamil Nadu"},{"pinCodeSeq":6439,"postOfficeName":"Viramanickam","pinCode":"628227","city":"Tirunelveli","district":"Tirunelveli","state":"Tamil Nadu"},{"pinCodeSeq":6440,"postOfficeName":"Theri Kudiyiruppu","pinCode":"628228","city":"Tirunelveli","district":"Tirunelveli","state":"Tamil Nadu"},{"pinCodeSeq":6441,"postOfficeName":"Sawyerpuram","pinCode":"628251","city":"Tirunelveli","district":"Tirunelveli","state":"Tamil Nadu"},{"pinCodeSeq":6442,"postOfficeName":"Subramaniapuram Tvl","pinCode":"628252","city":"Tirunelveli","district":"Tirunelveli","state":"Tamil Nadu"},{"pinCodeSeq":6443,"postOfficeName":"Kalisapuram","pinCode":"628301","city":"Tirunelveli","district":"Tirunelveli","state":"Tamil Nadu"},{"pinCodeSeq":6444,"postOfficeName":"Ottanatham","pinCode":"628302","city":"Tirunelveli","district":"Tirunelveli","state":"Tamil Nadu"},{"pinCodeSeq":6445,"postOfficeName":"Naraikinar","pinCode":"628303","city":"Tirunelveli","district":"Tirunelveli","state":"Tamil Nadu"},{"pinCodeSeq":6446,"postOfficeName":"Tattaparai","pinCode":"628304","city":"Tirunelveli","district":"Tirunelveli","state":"Tamil Nadu"},{"pinCodeSeq":6447,"postOfficeName":"Maniyachi R S","pinCode":"628305","city":"Tirunelveli","district":"Tirunelveli","state":"Tamil Nadu"},{"pinCodeSeq":6448,"postOfficeName":"Puliampatti","pinCode":"628306","city":"Tirunelveli","district":"Tirunelveli","state":"Tamil Nadu"},{"pinCodeSeq":6449,"postOfficeName":"Marudanvalavoo","pinCode":"628307","city":"Tirunelveli","district":"Tirunelveli","state":"Tamil Nadu"},{"pinCodeSeq":6451,"postOfficeName":"Akkanaickenpatti","pinCode":"628309","city":"Tirunelveli","district":"Tirunelveli","state":"Tamil Nadu"},{"pinCodeSeq":6452,"postOfficeName":"Ottapidaram","pinCode":"628401","city":"Tirunelveli","district":"Tirunelveli","state":"Tamil Nadu"},{"pinCodeSeq":6453,"postOfficeName":"Pudiyamputhur","pinCode":"628402","city":"Tirunelveli","district":"Tirunelveli","state":"Tamil Nadu"},{"pinCodeSeq":6454,"postOfficeName":"Puthiamputhur","pinCode":"628402","city":"Tirunelveli","district":"Tirunelveli","state":"Tamil Nadu"},{"pinCodeSeq":6455,"postOfficeName":"Murli","pinCode":"628513","city":"Tirunelveli","district":"Tirunelveli","state":"Tamil Nadu"},{"pinCodeSeq":6456,"postOfficeName":"Shrivaikuntam H O","pinCode":"628601","city":"Tirunelveli","district":"Tirunelveli","state":"Tamil Nadu"},{"pinCodeSeq":6457,"postOfficeName":"Alwar Tinunagari","pinCode":"628612","city":"Tirunelveli","district":"Tirunelveli","state":"Tamil Nadu"},{"pinCodeSeq":6458,"postOfficeName":"Asirvadhapuram","pinCode":"628613","city":"Tirunelveli","district":"Tirunelveli","state":"Tamil Nadu"},{"pinCodeSeq":6459,"postOfficeName":"Campellabad","pinCode":"628614","city":"Tirunelveli","district":"Tirunelveli","state":"Tamil Nadu"},{"pinCodeSeq":6460,"postOfficeName":"Karunkulam","pinCode":"628615","city":"Tirunelveli","district":"Tirunelveli","state":"Tamil Nadu"},{"pinCodeSeq":6461,"postOfficeName":"Mukuperi","pinCode":"628616","city":"Tirunelveli","district":"Tirunelveli","state":"Tamil Nadu"},{"pinCodeSeq":6462,"postOfficeName":"Nazareth","pinCode":"628617","city":"Tirunelveli","district":"Tirunelveli","state":"Tamil Nadu"},{"pinCodeSeq":6463,"postOfficeName":"Neivilai","pinCode":"628618","city":"Tirunelveli","district":"Tirunelveli","state":"Tamil Nadu"},{"pinCodeSeq":6464,"postOfficeName":"Padmanabhamangalam","pinCode":"628619","city":"Tirunelveli","district":"Tirunelveli","state":"Tamil Nadu"},{"pinCodeSeq":6465,"postOfficeName":"Patemangaram","pinCode":"628620","city":"Tirunelveli","district":"Tirunelveli","state":"Tamil Nadu"},{"pinCodeSeq":6466,"postOfficeName":"Puthukudi","pinCode":"628621","city":"Tirunelveli","district":"Tirunelveli","state":"Tamil Nadu"},{"pinCodeSeq":6467,"postOfficeName":"Ththankulam","pinCode":"628622","city":"Tirunelveli","district":"Tirunelveli","state":"Tamil Nadu"},{"pinCodeSeq":6469,"postOfficeName":"Kongarayakurichi","pinCode":"628624","city":"Tirunelveli","district":"Tirunelveli","state":"Tamil Nadu"},{"pinCodeSeq":6470,"postOfficeName":"Arampannai","pinCode":"628625","city":"Tirunelveli","district":"Tirunelveli","state":"Tamil Nadu"},{"pinCodeSeq":6471,"postOfficeName":"Kachanvilai","pinCode":"628626","city":"Tirunelveli","district":"Tirunelveli","state":"Tamil Nadu"},{"pinCodeSeq":6472,"postOfficeName":"Katchanvilai","pinCode":"628626","city":"Tirunelveli","district":"Tirunelveli","state":"Tamil Nadu"},{"pinCodeSeq":6473,"postOfficeName":"Cherakulam","pinCode":"628627","city":"Tirunelveli","district":"Tirunelveli","state":"Tamil Nadu"},{"pinCodeSeq":6474,"postOfficeName":"Pattakarai","pinCode":"628628","city":"Tirunelveli","district":"Tirunelveli","state":"Tamil Nadu"},{"pinCodeSeq":6475,"postOfficeName":"Karunkadal","pinCode":"628629","city":"Tirunelveli","district":"Tirunelveli","state":"Tamil Nadu"},{"pinCodeSeq":6476,"postOfficeName":"Mirankulam","pinCode":"628630","city":"Tirunelveli","district":"Tirunelveli","state":"Tamil Nadu"},{"pinCodeSeq":6477,"postOfficeName":"Vallakulam","pinCode":"628631","city":"Tirunelveli","district":"Tirunelveli","state":"Tamil Nadu"},{"pinCodeSeq":6478,"postOfficeName":"Idaiyankudi","pinCode":"628651","city":"Tirunelveli","district":"Tirunelveli","state":"Tamil Nadu"},{"pinCodeSeq":6479,"postOfficeName":"Ittamozhi","pinCode":"628652","city":"Tirunelveli","district":"Tirunelveli","state":"Tamil Nadu"},{"pinCodeSeq":6481,"postOfficeName":"Pettaikulam","pinCode":"628654","city":"Tirunelveli","district":"Tirunelveli","state":"Tamil Nadu"},{"pinCodeSeq":6482,"postOfficeName":"Puchikadu","pinCode":"628655","city":"Tirunelveli","district":"Tirunelveli","state":"Tamil Nadu"},{"pinCodeSeq":6483,"postOfficeName":"Puthanharuvai","pinCode":"628656","city":"Tirunelveli","district":"Tirunelveli","state":"Tamil Nadu"},{"pinCodeSeq":6484,"postOfficeName":"Tisaiyanvilai","pinCode":"628657","city":"Tirunelveli","district":"Tirunelveli","state":"Tamil Nadu"},{"pinCodeSeq":6485,"postOfficeName":"Uvari","pinCode":"628658","city":"Tirunelveli","district":"Tirunelveli","state":"Tamil Nadu"},{"pinCodeSeq":6486,"postOfficeName":"Karaichittupudur","pinCode":"628659","city":"Tirunelveli","district":"Tirunelveli","state":"Tamil Nadu"},{"pinCodeSeq":6487,"postOfficeName":"Kuttam","pinCode":"628660","city":"Tirunelveli","district":"Tirunelveli","state":"Tamil Nadu"},{"pinCodeSeq":6488,"postOfficeName":"Polayarpuram","pinCode":"628661","city":"Tirunelveli","district":"Tirunelveli","state":"Tamil Nadu"},{"pinCodeSeq":6489,"postOfficeName":"Thattarmadam","pinCode":"628662","city":"Tirunelveli","district":"Tirunelveli","state":"Tamil Nadu"},{"pinCodeSeq":6490,"postOfficeName":"Naduvakurichi","pinCode":"628663","city":"Tirunelveli","district":"Tirunelveli","state":"Tamil Nadu"},{"pinCodeSeq":6491,"postOfficeName":"Anandapuram","pinCode":"628701","city":"Tirunelveli","district":"Tirunelveli","state":"Tamil Nadu"},{"pinCodeSeq":6492,"postOfficeName":"Mudalur","pinCode":"628702","city":"Tirunelveli","district":"Tirunelveli","state":"Tamil Nadu"},{"pinCodeSeq":6493,"postOfficeName":"Padukapattu","pinCode":"628703","city":"Tirunelveli","district":"Tirunelveli","state":"Tamil Nadu"},{"pinCodeSeq":6494,"postOfficeName":"Sattankulam","pinCode":"628704","city":"Tirunelveli","district":"Tirunelveli","state":"Tamil Nadu"},{"pinCodeSeq":6495,"postOfficeName":"Peroua Thalai","pinCode":"628705","city":"Tirunelveli","district":"Tirunelveli","state":"Tamil Nadu"},{"pinCodeSeq":6497,"postOfficeName":"Ambinagaram","pinCode":"628707","city":"Tirunelveli","district":"Tirunelveli","state":"Tamil Nadu"},{"pinCodeSeq":6498,"postOfficeName":"Pannaivilai","pinCode":"628751","city":"Tirunelveli","district":"Tirunelveli","state":"Tamil Nadu"},{"pinCodeSeq":6500,"postOfficeName":"Sivagalali","pinCode":"628753","city":"Tirunelveli","district":"Tirunelveli","state":"Tamil Nadu"},{"pinCodeSeq":6502,"postOfficeName":"Siruthondanallur","pinCode":"628802","city":"Tirunelveli","district":"Tirunelveli","state":"Tamil Nadu"},{"pinCodeSeq":6503,"postOfficeName":"Valavallam","pinCode":"628803","city":"Tirunelveli","district":"Tirunelveli","state":"Tamil Nadu"},{"pinCodeSeq":6524,"postOfficeName":"Alancholai","pinCode":"629103","city":"Tirunelveli","district":"Tirunelveli","state":"Tamil Nadu"}]