[{"pinCodeSeq":4529,"postOfficeName":"Somasopadi","pinCode":"606611","city":"Tiruchirappalli","district":"Tiruchirappalli","state":"Tamil Nadu"},{"pinCodeSeq":5171,"postOfficeName":"Bheema Nagar","pinCode":"620001","city":"Tiruchirappalli","district":"Tiruchirappalli","state":"Tamil Nadu"},{"pinCodeSeq":5172,"postOfficeName":"Collectorate","pinCode":"620001","city":"Tiruchirappalli","district":"Tiruchirappalli","state":"Tamil Nadu"},{"pinCodeSeq":5174,"postOfficeName":"Ponniah School Building","pinCode":"620001","city":"Tiruchirappalli","district":"Tiruchirappalli","state":"Tamil Nadu"},{"pinCodeSeq":5175,"postOfficeName":"Pushpa Nagar","pinCode":"620001","city":"Tiruchirappalli","district":"Tiruchirappalli","state":"Tamil Nadu"},{"pinCodeSeq":5176,"postOfficeName":"Tiruchirappalli","pinCode":"620001","city":"Tiruchirappalli","district":"Tiruchirappalli","state":"Tamil Nadu"},{"pinCodeSeq":5177,"postOfficeName":"Tiruchirappalli Cantt","pinCode":"620001","city":"Tiruchirappalli","district":"Tiruchirappalli","state":"Tamil Nadu"},{"pinCodeSeq":5178,"postOfficeName":"Tiruchirappalli H O","pinCode":"620001","city":"Tiruchirappalli","district":"Tiruchirappalli","state":"Tamil Nadu"},{"pinCodeSeq":5179,"postOfficeName":"Tiruchirappalli R S","pinCode":"620001","city":"Tiruchirappalli","district":"Tiruchirappalli","state":"Tamil Nadu"},{"pinCodeSeq":5180,"postOfficeName":"Chinnakadai Street","pinCode":"620002","city":"Tiruchirappalli","district":"Tiruchirappalli","state":"Tamil Nadu"},{"pinCodeSeq":5181,"postOfficeName":"Ramaswamy College","pinCode":"620002","city":"Tiruchirappalli","district":"Tiruchirappalli","state":"Tamil Nadu"},{"pinCodeSeq":5182,"postOfficeName":"Rock Fort","pinCode":"620002","city":"Tiruchirappalli","district":"Tiruchirappalli","state":"Tamil Nadu"},{"pinCodeSeq":5183,"postOfficeName":"Seethalakshmi","pinCode":"620002","city":"Tiruchirappalli","district":"Tiruchirappalli","state":"Tamil Nadu"},{"pinCodeSeq":5184,"postOfficeName":"Teppakulam","pinCode":"620002","city":"Tiruchirappalli","district":"Tiruchirappalli","state":"Tamil Nadu"},{"pinCodeSeq":5185,"postOfficeName":"Tiruchirapalli Town Hall","pinCode":"620002","city":"Tiruchirappalli","district":"Tiruchirappalli","state":"Tamil Nadu"},{"pinCodeSeq":5186,"postOfficeName":"West Chintamani","pinCode":"620002","city":"Tiruchirappalli","district":"Tiruchirappalli","state":"Tamil Nadu"},{"pinCodeSeq":5187,"postOfficeName":"Salainagar","pinCode":"620003","city":"Tiruchirappalli","district":"Tiruchirappalli","state":"Tamil Nadu"},{"pinCodeSeq":5188,"postOfficeName":"Woriyur","pinCode":"620003","city":"Tiruchirappalli","district":"Tiruchirappalli","state":"Tamil Nadu"},{"pinCodeSeq":5189,"postOfficeName":"Woriyur Bazar","pinCode":"620003","city":"Tiruchirappalli","district":"Tiruchirappalli","state":"Tamil Nadu"},{"pinCodeSeq":5190,"postOfficeName":"Golden Rock","pinCode":"620004","city":"Tiruchirappalli","district":"Tiruchirappalli","state":"Tamil Nadu"},{"pinCodeSeq":5191,"postOfficeName":"Golden Rock Market","pinCode":"620004","city":"Tiruchirappalli","district":"Tiruchirappalli","state":"Tamil Nadu"},{"pinCodeSeq":5192,"postOfficeName":"Golden Rock North","pinCode":"620004","city":"Tiruchirappalli","district":"Tiruchirappalli","state":"Tamil Nadu"},{"pinCodeSeq":5193,"postOfficeName":"Kondayanpatti","pinCode":"620005","city":"Tiruchirappalli","district":"Tiruchirappalli","state":"Tamil Nadu"},{"pinCodeSeq":5194,"postOfficeName":"Srinivasa Nagar","pinCode":"620005","city":"Tiruchirappalli","district":"Tiruchirappalli","state":"Tamil Nadu"},{"pinCodeSeq":5195,"postOfficeName":"Thiruvanaikoil","pinCode":"620005","city":"Tiruchirappalli","district":"Tiruchirappalli","state":"Tamil Nadu"},{"pinCodeSeq":5196,"postOfficeName":"Annamandapam","pinCode":"620006","city":"Tiruchirappalli","district":"Tiruchirappalli","state":"Tamil Nadu"},{"pinCodeSeq":5197,"postOfficeName":"Ranganagar","pinCode":"620006","city":"Tiruchirappalli","district":"Tiruchirappalli","state":"Tamil Nadu"},{"pinCodeSeq":5198,"postOfficeName":"Srirangam H O","pinCode":"620006","city":"Tiruchirappalli","district":"Tiruchirappalli","state":"Tamil Nadu"},{"pinCodeSeq":5199,"postOfficeName":"Srirangam North","pinCode":"620006","city":"Tiruchirappalli","district":"Tiruchirappalli","state":"Tamil Nadu"},{"pinCodeSeq":5200,"postOfficeName":"Srirangam West","pinCode":"620006","city":"Tiruchirappalli","district":"Tiruchirappalli","state":"Tamil Nadu"},{"pinCodeSeq":5201,"postOfficeName":"Tiruchi Air Port","pinCode":"620007","city":"Tiruchirappalli","district":"Tiruchirappalli","state":"Tamil Nadu"},{"pinCodeSeq":5202,"postOfficeName":"Clock Tower","pinCode":"620008","city":"Tiruchirappalli","district":"Tiruchirappalli","state":"Tamil Nadu"},{"pinCodeSeq":5203,"postOfficeName":"Senkulam","pinCode":"620008","city":"Tiruchirappalli","district":"Tiruchirappalli","state":"Tamil Nadu"},{"pinCodeSeq":5204,"postOfficeName":"Tiruchi East","pinCode":"620008","city":"Tiruchirappalli","district":"Tiruchirappalli","state":"Tamil Nadu"},{"pinCodeSeq":5205,"postOfficeName":"Tiruchi Fort","pinCode":"620008","city":"Tiruchirappalli","district":"Tiruchirappalli","state":"Tamil Nadu"},{"pinCodeSeq":5206,"postOfficeName":"Varaganeri","pinCode":"620008","city":"Tiruchirappalli","district":"Tiruchirappalli","state":"Tamil Nadu"},{"pinCodeSeq":5207,"postOfficeName":"Ramjeenagar","pinCode":"620009","city":"Tiruchirappalli","district":"Tiruchirappalli","state":"Tamil Nadu"},{"pinCodeSeq":5208,"postOfficeName":"Industrial Colony Trichy","pinCode":"620010","city":"Tiruchirappalli","district":"Tiruchirappalli","state":"Tamil Nadu"},{"pinCodeSeq":5209,"postOfficeName":"Melakalkandarkottai","pinCode":"620011","city":"Tiruchirappalli","district":"Tiruchirappalli","state":"Tamil Nadu"},{"pinCodeSeq":5210,"postOfficeName":"Crawford Colony","pinCode":"620012","city":"Tiruchirappalli","district":"Tiruchirappalli","state":"Tamil Nadu"},{"pinCodeSeq":5211,"postOfficeName":"Edamalaipattipudur","pinCode":"620012","city":"Tiruchirappalli","district":"Tiruchirappalli","state":"Tamil Nadu"},{"pinCodeSeq":5212,"postOfficeName":"Tiruverambur","pinCode":"620013","city":"Tiruchirappalli","district":"Tiruchirappalli","state":"Tamil Nadu"},{"pinCodeSeq":5213,"postOfficeName":"Administrative Office Bhel","pinCode":"620014","city":"Tiruchirappalli","district":"Tiruchirappalli","state":"Tamil Nadu"},{"pinCodeSeq":5214,"postOfficeName":"Bhel","pinCode":"620014","city":"Tiruchirappalli","district":"Tiruchirappalli","state":"Tamil Nadu"},{"pinCodeSeq":5215,"postOfficeName":"Boiler Project","pinCode":"620014","city":"Tiruchirappalli","district":"Tiruchirappalli","state":"Tamil Nadu"},{"pinCodeSeq":5216,"postOfficeName":"Trichy","pinCode":"620015","city":"Tiruchirappalli","district":"Tiruchirappalli","state":"Tamil Nadu"},{"pinCodeSeq":5217,"postOfficeName":"Oradance Estate","pinCode":"620016","city":"Tiruchirappalli","district":"Tiruchirappalli","state":"Tamil Nadu"},{"pinCodeSeq":5218,"postOfficeName":"Tennur","pinCode":"620017","city":"Tiruchirappalli","district":"Tiruchirappalli","state":"Tamil Nadu"},{"pinCodeSeq":5219,"postOfficeName":"Tennur East","pinCode":"620017","city":"Tiruchirappalli","district":"Tiruchirappalli","state":"Tamil Nadu"},{"pinCodeSeq":5220,"postOfficeName":"Thillainagar","pinCode":"620018","city":"Tiruchirappalli","district":"Tiruchirappalli","state":"Tamil Nadu"},{"pinCodeSeq":5221,"postOfficeName":"Pappakurichi Kattur","pinCode":"620019","city":"Tiruchirappalli","district":"Tiruchirappalli","state":"Tamil Nadu"},{"pinCodeSeq":5222,"postOfficeName":"Jamal Mohamed College","pinCode":"620020","city":"Tiruchirappalli","district":"Tiruchirappalli","state":"Tamil Nadu"},{"pinCodeSeq":5223,"postOfficeName":"Khajamalai Colony","pinCode":"620020","city":"Tiruchirappalli","district":"Tiruchirappalli","state":"Tamil Nadu"},{"pinCodeSeq":5224,"postOfficeName":"Khajanagar","pinCode":"620020","city":"Tiruchirappalli","district":"Tiruchirappalli","state":"Tamil Nadu"},{"pinCodeSeq":5225,"postOfficeName":"Mannarpuram","pinCode":"620020","city":"Tiruchirappalli","district":"Tiruchirappalli","state":"Tamil Nadu"},{"pinCodeSeq":5226,"postOfficeName":"Subramaniapuram","pinCode":"620020","city":"Tiruchirappalli","district":"Tiruchirappalli","state":"Tamil Nadu"},{"pinCodeSeq":5227,"postOfficeName":"K K Nagar Metre Factory R","pinCode":"620021","city":"Tiruchirappalli","district":"Tiruchirappalli","state":"Tamil Nadu"},{"pinCodeSeq":5228,"postOfficeName":"Thuvagudimalai","pinCode":"620022","city":"Tiruchirappalli","district":"Tiruchirappalli","state":"Tamil Nadu"},{"pinCodeSeq":5229,"postOfficeName":"Manikandam","pinCode":"620051","city":"Tiruchirappalli","district":"Tiruchirappalli","state":"Tamil Nadu"},{"pinCodeSeq":5230,"postOfficeName":"Asoor","pinCode":"620052","city":"Tiruchirappalli","district":"Tiruchirappalli","state":"Tamil Nadu"},{"pinCodeSeq":5231,"postOfficeName":"Mutharasanallur","pinCode":"620101","city":"Tiruchirappalli","district":"Tiruchirappalli","state":"Tamil Nadu"},{"pinCodeSeq":5232,"postOfficeName":"Somarasampettai","pinCode":"620102","city":"Tiruchirappalli","district":"Tiruchirappalli","state":"Tamil Nadu"},{"pinCodeSeq":5233,"postOfficeName":"Erakudi","pinCode":"621001","city":"Tiruchirappalli","district":"Tiruchirappalli","state":"Tamil Nadu"},{"pinCodeSeq":5234,"postOfficeName":"Kirambur","pinCode":"621002","city":"Tiruchirappalli","district":"Tiruchirappalli","state":"Tamil Nadu"},{"pinCodeSeq":5235,"postOfficeName":"Kottapalayam","pinCode":"621003","city":"Tiruchirappalli","district":"Tiruchirappalli","state":"Tamil Nadu"},{"pinCodeSeq":5236,"postOfficeName":"Kottatur","pinCode":"621004","city":"Tiruchirappalli","district":"Tiruchirappalli","state":"Tamil Nadu"},{"pinCodeSeq":5238,"postOfficeName":"Manachanallur North","pinCode":"621005","city":"Tiruchirappalli","district":"Tiruchirappalli","state":"Tamil Nadu"},{"pinCodeSeq":5239,"postOfficeName":"Pulivalam","pinCode":"621006","city":"Tiruchirappalli","district":"Tiruchirappalli","state":"Tamil Nadu"},{"pinCodeSeq":5240,"postOfficeName":"Puthanampatti","pinCode":"621007","city":"Tiruchirappalli","district":"Tiruchirappalli","state":"Tamil Nadu"},{"pinCodeSeq":5241,"postOfficeName":"Sikkal Thambur","pinCode":"621008","city":"Tiruchirappalli","district":"Tiruchirappalli","state":"Tamil Nadu"},{"pinCodeSeq":5242,"postOfficeName":"Thiruvellari","pinCode":"621009","city":"Tiruchirappalli","district":"Tiruchirappalli","state":"Tamil Nadu"},{"pinCodeSeq":5243,"postOfficeName":"Turaiyur Bazar","pinCode":"621010","city":"Tiruchirappalli","district":"Tiruchirappalli","state":"Tamil Nadu"},{"pinCodeSeq":5244,"postOfficeName":"Turaiyur Bus Stand","pinCode":"621010","city":"Tiruchirappalli","district":"Tiruchirappalli","state":"Tamil Nadu"},{"pinCodeSeq":5245,"postOfficeName":"Turaiyur Extension","pinCode":"621010","city":"Tiruchirappalli","district":"Tiruchirappalli","state":"Tamil Nadu"},{"pinCodeSeq":5246,"postOfficeName":"Turaiyur H O Trichy","pinCode":"621010","city":"Tiruchirappalli","district":"Tiruchirappalli","state":"Tamil Nadu"},{"pinCodeSeq":5248,"postOfficeName":"Vyrichettipalayam","pinCode":"621012","city":"Tiruchirappalli","district":"Tiruchirappalli","state":"Tamil Nadu"},{"pinCodeSeq":5249,"postOfficeName":"Pagalavadi","pinCode":"621014","city":"Tiruchirappalli","district":"Tiruchirappalli","state":"Tamil Nadu"},{"pinCodeSeq":5250,"postOfficeName":"Panchaperumalpatti","pinCode":"621015","city":"Tiruchirappalli","district":"Tiruchirappalli","state":"Tamil Nadu"},{"pinCodeSeq":5251,"postOfficeName":"Perumalpalayam","pinCode":"621016","city":"Tiruchirappalli","district":"Tiruchirappalli","state":"Tamil Nadu"},{"pinCodeSeq":5252,"postOfficeName":"Chenguttupatti","pinCode":"621017","city":"Tiruchirappalli","district":"Tiruchirappalli","state":"Tamil Nadu"},{"pinCodeSeq":5253,"postOfficeName":"Sengattapatti","pinCode":"621017","city":"Tiruchirappalli","district":"Tiruchirappalli","state":"Tamil Nadu"},{"pinCodeSeq":5254,"postOfficeName":"Sobanapuram","pinCode":"621018","city":"Tiruchirappalli","district":"Tiruchirappalli","state":"Tamil Nadu"},{"pinCodeSeq":5255,"postOfficeName":"T Pudupalayam","pinCode":"621019","city":"Tiruchirappalli","district":"Tiruchirappalli","state":"Tamil Nadu"},{"pinCodeSeq":5256,"postOfficeName":"T Ranganathapuram","pinCode":"621019","city":"Tiruchirappalli","district":"Tiruchirappalli","state":"Tamil Nadu"},{"pinCodeSeq":5257,"postOfficeName":"Murungaipatti","pinCode":"621020","city":"Tiruchirappalli","district":"Tiruchirappalli","state":"Tamil Nadu"},{"pinCodeSeq":5258,"postOfficeName":"Thinnanur","pinCode":"621021","city":"Tiruchirappalli","district":"Tiruchirappalli","state":"Tamil Nadu"},{"pinCodeSeq":5259,"postOfficeName":"Okkarai","pinCode":"621022","city":"Tiruchirappalli","district":"Tiruchirappalli","state":"Tamil Nadu"},{"pinCodeSeq":5260,"postOfficeName":"Nagalapuram","pinCode":"621023","city":"Tiruchirappalli","district":"Tiruchirappalli","state":"Tamil Nadu"},{"pinCodeSeq":5261,"postOfficeName":"Ammapalayam","pinCode":"621101","city":"Tiruchirappalli","district":"Tiruchirappalli","state":"Tamil Nadu"},{"pinCodeSeq":5264,"postOfficeName":"Chettikulam","pinCode":"621104","city":"Tiruchirappalli","district":"Tiruchirappalli","state":"Tamil Nadu"},{"pinCodeSeq":5265,"postOfficeName":"Irungalur","pinCode":"621105","city":"Tiruchirappalli","district":"Tiruchirappalli","state":"Tamil Nadu"},{"pinCodeSeq":5266,"postOfficeName":"Kolakalnatham","pinCode":"621106","city":"Tiruchirappalli","district":"Tiruchirappalli","state":"Tamil Nadu"},{"pinCodeSeq":5269,"postOfficeName":"Padalur","pinCode":"621109","city":"Tiruchirappalli","district":"Tiruchirappalli","state":"Tamil Nadu"},{"pinCodeSeq":5271,"postOfficeName":"Purathagudi","pinCode":"621111","city":"Tiruchirappalli","district":"Tiruchirappalli","state":"Tamil Nadu"},{"pinCodeSeq":5272,"postOfficeName":"Samayapuram","pinCode":"621112","city":"Tiruchirappalli","district":"Tiruchirappalli","state":"Tamil Nadu"},{"pinCodeSeq":5273,"postOfficeName":"Siruvachur","pinCode":"621113","city":"Tiruchirappalli","district":"Tiruchirappalli","state":"Tamil Nadu"},{"pinCodeSeq":5274,"postOfficeName":"T Kalathur","pinCode":"621114","city":"Tiruchirappalli","district":"Tiruchirappalli","state":"Tamil Nadu"},{"pinCodeSeq":5275,"postOfficeName":"Valikondapuram","pinCode":"621115","city":"Tiruchirappalli","district":"Tiruchirappalli","state":"Tamil Nadu"},{"pinCodeSeq":5276,"postOfficeName":"Veppanthatti","pinCode":"621116","city":"Tiruchirappalli","district":"Tiruchirappalli","state":"Tamil Nadu"},{"pinCodeSeq":5277,"postOfficeName":"V Kalathur","pinCode":"621117","city":"Tiruchirappalli","district":"Tiruchirappalli","state":"Tamil Nadu"},{"pinCodeSeq":5278,"postOfficeName":"Nakkalalem","pinCode":"621118","city":"Tiruchirappalli","district":"Tiruchirappalli","state":"Tamil Nadu"},{"pinCodeSeq":5279,"postOfficeName":"Bommanapadi","pinCode":"621120","city":"Tiruchirappalli","district":"Tiruchirappalli","state":"Tamil Nadu"},{"pinCodeSeq":5280,"postOfficeName":"Ladapuram","pinCode":"621121","city":"Tiruchirappalli","district":"Tiruchirappalli","state":"Tamil Nadu"},{"pinCodeSeq":5281,"postOfficeName":"Naranmangalam","pinCode":"621126","city":"Tiruchirappalli","district":"Tiruchirappalli","state":"Tamil Nadu"},{"pinCodeSeq":5282,"postOfficeName":"Kilapuliyur","pinCode":"621127","city":"Tiruchirappalli","district":"Tiruchirappalli","state":"Tamil Nadu"},{"pinCodeSeq":5283,"postOfficeName":"Natham Balasmudram","pinCode":"621127","city":"Tiruchirappalli","district":"Tiruchirappalli","state":"Tamil Nadu"},{"pinCodeSeq":5284,"postOfficeName":"Karai","pinCode":"621128","city":"Tiruchirappalli","district":"Tiruchirappalli","state":"Tamil Nadu"},{"pinCodeSeq":5286,"postOfficeName":"Konalai","pinCode":"621132","city":"Tiruchirappalli","district":"Tiruchirappalli","state":"Tamil Nadu"},{"pinCodeSeq":5287,"postOfficeName":"Arts College","pinCode":"621201","city":"Tiruchirappalli","district":"Tiruchirappalli","state":"Tamil Nadu"},{"pinCodeSeq":5290,"postOfficeName":"Jambunathapuram","pinCode":"621205","city":"Tiruchirappalli","district":"Tiruchirappalli","state":"Tamil Nadu"},{"pinCodeSeq":5291,"postOfficeName":"Kannanur","pinCode":"621206","city":"Tiruchirappalli","district":"Tiruchirappalli","state":"Tamil Nadu"},{"pinCodeSeq":5292,"postOfficeName":"Kolakudi Manmedu","pinCode":"621208","city":"Tiruchirappalli","district":"Tiruchirappalli","state":"Tamil Nadu"},{"pinCodeSeq":5293,"postOfficeName":"Manamedu","pinCode":"621209","city":"Tiruchirappalli","district":"Tiruchirappalli","state":"Tamil Nadu"},{"pinCodeSeq":5295,"postOfficeName":"Madanagopalapuram","pinCode":"621212","city":"Tiruchirappalli","district":"Tiruchirappalli","state":"Tamil Nadu"},{"pinCodeSeq":5297,"postOfficeName":"Sirugambur","pinCode":"621213","city":"Tiruchirappalli","district":"Tiruchirappalli","state":"Tamil Nadu"},{"pinCodeSeq":5298,"postOfficeName":"Thathiengarpet","pinCode":"621214","city":"Tiruchirappalli","district":"Tiruchirappalli","state":"Tamil Nadu"},{"pinCodeSeq":5299,"postOfficeName":"Thottayam","pinCode":"621215","city":"Tiruchirappalli","district":"Tiruchirappalli","state":"Tamil Nadu"},{"pinCodeSeq":5300,"postOfficeName":"Bikshandarkoil","pinCode":"621216","city":"Tiruchirappalli","district":"Tiruchirappalli","state":"Tamil Nadu"},{"pinCodeSeq":5301,"postOfficeName":"Thandalaiputtur","pinCode":"621217","city":"Tiruchirappalli","district":"Tiruchirappalli","state":"Tamil Nadu"},{"pinCodeSeq":5302,"postOfficeName":"Valady","pinCode":"621218","city":"Tiruchirappalli","district":"Tiruchirappalli","state":"Tamil Nadu"},{"pinCodeSeq":5303,"postOfficeName":"Yesanai","pinCode":"621219","city":"Tiruchirappalli","district":"Tiruchirappalli","state":"Tamil Nadu"},{"pinCodeSeq":5304,"postOfficeName":"Thoramangalam","pinCode":"621220","city":"Tiruchirappalli","district":"Tiruchirappalli","state":"Tamil Nadu"},{"pinCodeSeq":5306,"postOfficeName":"Urakkarai","pinCode":"621224","city":"Tiruchirappalli","district":"Tiruchirappalli","state":"Tamil Nadu"},{"pinCodeSeq":5307,"postOfficeName":"Natham","pinCode":"621229","city":"Tiruchirappalli","district":"Tiruchirappalli","state":"Tamil Nadu"},{"pinCodeSeq":5308,"postOfficeName":"Elangakurichi","pinCode":"621302","city":"Tiruchirappalli","district":"Tiruchirappalli","state":"Tamil Nadu"},{"pinCodeSeq":5309,"postOfficeName":"Inamkolathur R S","pinCode":"621303","city":"Tiruchirappalli","district":"Tiruchirappalli","state":"Tamil Nadu"},{"pinCodeSeq":5310,"postOfficeName":"Kallupatti Murungapuri","pinCode":"621304","city":"Tiruchirappalli","district":"Tiruchirappalli","state":"Tamil Nadu"},{"pinCodeSeq":5312,"postOfficeName":"Manaparai","pinCode":"621306","city":"Tiruchirappalli","district":"Tiruchirappalli","state":"Tamil Nadu"},{"pinCodeSeq":5313,"postOfficeName":"Manaparai R S","pinCode":"621306","city":"Tiruchirappalli","district":"Tiruchirappalli","state":"Tamil Nadu"},{"pinCodeSeq":5314,"postOfficeName":"Manjampatti","pinCode":"621307","city":"Tiruchirappalli","district":"Tiruchirappalli","state":"Tamil Nadu"},{"pinCodeSeq":5315,"postOfficeName":"Puludipatti","pinCode":"621309","city":"Tiruchirappalli","district":"Tiruchirappalli","state":"Tamil Nadu"},{"pinCodeSeq":5316,"postOfficeName":"Tharangampatti","pinCode":"621311","city":"Tiruchirappalli","district":"Tiruchirappalli","state":"Tamil Nadu"},{"pinCodeSeq":5317,"postOfficeName":"Thaigesar Alai","pinCode":"621312","city":"Tiruchirappalli","district":"Tiruchirappalli","state":"Tamil Nadu"},{"pinCodeSeq":5319,"postOfficeName":"Thuvarankurichi","pinCode":"621314","city":"Tiruchirappalli","district":"Tiruchirappalli","state":"Tamil Nadu"},{"pinCodeSeq":5322,"postOfficeName":"Valandu","pinCode":"621317","city":"Tiruchirappalli","district":"Tiruchirappalli","state":"Tamil Nadu"},{"pinCodeSeq":5323,"postOfficeName":"Lalgudi H O","pinCode":"621601","city":"Tiruchirappalli","district":"Tiruchirappalli","state":"Tamil Nadu"},{"pinCodeSeq":5325,"postOfficeName":"Kallakudi Noth","pinCode":"621652","city":"Tiruchirappalli","district":"Tiruchirappalli","state":"Tamil Nadu"},{"pinCodeSeq":5326,"postOfficeName":"Ambapur","pinCode":"621701","city":"Tiruchirappalli","district":"Tiruchirappalli","state":"Tamil Nadu"},{"pinCodeSeq":5327,"postOfficeName":"Ambil","pinCode":"621702","city":"Tiruchirappalli","district":"Tiruchirappalli","state":"Tamil Nadu"},{"pinCodeSeq":5328,"postOfficeName":"Angarai","pinCode":"621703","city":"Tiruchirappalli","district":"Tiruchirappalli","state":"Tamil Nadu"},{"pinCodeSeq":5329,"postOfficeName":"Ariyalur Bazar","pinCode":"621704","city":"Tiruchirappalli","district":"Tiruchirappalli","state":"Tamil Nadu"},{"pinCodeSeq":5330,"postOfficeName":"Ariyalur Cement Factory","pinCode":"621704","city":"Tiruchirappalli","district":"Tiruchirappalli","state":"Tamil Nadu"},{"pinCodeSeq":5331,"postOfficeName":"Ariyalur Trichy","pinCode":"621704","city":"Tiruchirappalli","district":"Tiruchirappalli","state":"Tamil Nadu"},{"pinCodeSeq":5332,"postOfficeName":"Kallankurichi","pinCode":"621705","city":"Tiruchirappalli","district":"Tiruchirappalli","state":"Tamil Nadu"},{"pinCodeSeq":5333,"postOfficeName":"Kilapaluvur","pinCode":"621707","city":"Tiruchirappalli","district":"Tiruchirappalli","state":"Tamil Nadu"},{"pinCodeSeq":5335,"postOfficeName":"Mathur-Trichy","pinCode":"621709","city":"Tiruchirappalli","district":"Tiruchirappalli","state":"Tamil Nadu"},{"pinCodeSeq":5337,"postOfficeName":"Pullambadi","pinCode":"621711","city":"Tiruchirappalli","district":"Tiruchirappalli","state":"Tamil Nadu"},{"pinCodeSeq":5339,"postOfficeName":"Rajajinagar Tiruchy","pinCode":"621713","city":"Tiruchirappalli","district":"Tiruchirappalli","state":"Tamil Nadu"},{"pinCodeSeq":5340,"postOfficeName":"Sendurai","pinCode":"621714","city":"Tiruchirappalli","district":"Tiruchirappalli","state":"Tamil Nadu"},{"pinCodeSeq":5341,"postOfficeName":"Tirumanur","pinCode":"621715","city":"Tiruchirappalli","district":"Tiruchirappalli","state":"Tamil Nadu"},{"pinCodeSeq":5342,"postOfficeName":"Tungapuram","pinCode":"621716","city":"Tiruchirappalli","district":"Tiruchirappalli","state":"Tamil Nadu"},{"pinCodeSeq":5343,"postOfficeName":"Veppur Trichur","pinCode":"621717","city":"Tiruchirappalli","district":"Tiruchirappalli","state":"Tamil Nadu"},{"pinCodeSeq":5344,"postOfficeName":"Rayambaram","pinCode":"621718","city":"Tiruchirappalli","district":"Tiruchirappalli","state":"Tamil Nadu"},{"pinCodeSeq":5345,"postOfficeName":"Asaveerankudikadu","pinCode":"621719","city":"Tiruchirappalli","district":"Tiruchirappalli","state":"Tamil Nadu"},{"pinCodeSeq":5346,"postOfficeName":"Viragalur","pinCode":"621722","city":"Tiruchirappalli","district":"Tiruchirappalli","state":"Tamil Nadu"},{"pinCodeSeq":5349,"postOfficeName":"Jayankondacholapuram","pinCode":"621802","city":"Tiruchirappalli","district":"Tiruchirappalli","state":"Tamil Nadu"},{"pinCodeSeq":5350,"postOfficeName":"Jayankondacholapuram West","pinCode":"621802","city":"Tiruchirappalli","district":"Tiruchirappalli","state":"Tamil Nadu"},{"pinCodeSeq":5351,"postOfficeName":"Kallathur Thandalai","pinCode":"621803","city":"Tiruchirappalli","district":"Tiruchirappalli","state":"Tamil Nadu"},{"pinCodeSeq":5352,"postOfficeName":"Vardajampettai","pinCode":"621805","city":"Tiruchirappalli","district":"Tiruchirappalli","state":"Tamil Nadu"},{"pinCodeSeq":5354,"postOfficeName":"Tirumalaivadi","pinCode":"621851","city":"Tiruchirappalli","district":"Tiruchirappalli","state":"Tamil Nadu"},{"pinCodeSeq":5355,"postOfficeName":"Ilandaikudam","pinCode":"621853","city":"Tiruchirappalli","district":"Tiruchirappalli","state":"Tamil Nadu"},{"pinCodeSeq":5573,"postOfficeName":"Natarajapuram","pinCode":"623555","city":"Tiruchirappalli","district":"Tiruchirappalli","state":"Tamil Nadu"},{"pinCodeSeq":6097,"postOfficeName":"Venkatachalapuram","pinCode":"626572","city":"Tiruchirappalli","district":"Tiruchirappalli","state":"Tamil Nadu"},{"pinCodeSeq":7142,"postOfficeName":"Natarajapuram","pinCode":"637001","city":"Tiruchirappalli","district":"Tiruchirappalli","state":"Tamil Nadu"},{"pinCodeSeq":7204,"postOfficeName":"Singalandapuram","pinCode":"637412","city":"Tiruchirappalli","district":"Tiruchirappalli","state":"Tamil Nadu"}]