[{"pinCodeSeq":4125,"postOfficeName":"Padi","pinCode":"600050","city":"Vellore","district":"Vellore","state":"Tamil Nadu"},{"pinCodeSeq":4375,"postOfficeName":"Avarakkam","pinCode":"604001","city":"Vellore","district":"Vellore","state":"Tamil Nadu"},{"pinCodeSeq":4376,"postOfficeName":"Tindivanam Bazar","pinCode":"604001","city":"Vellore","district":"Vellore","state":"Tamil Nadu"},{"pinCodeSeq":4377,"postOfficeName":"Tindivanam H O","pinCode":"604001","city":"Vellore","district":"Vellore","state":"Tamil Nadu"},{"pinCodeSeq":4378,"postOfficeName":"Tindivanam West","pinCode":"604001","city":"Vellore","district":"Vellore","state":"Tamil Nadu"},{"pinCodeSeq":4379,"postOfficeName":"Tindivanam East","pinCode":"604002","city":"Vellore","district":"Vellore","state":"Tamil Nadu"},{"pinCodeSeq":4380,"postOfficeName":"Akshipakkam","pinCode":"604101","city":"Vellore","district":"Vellore","state":"Tamil Nadu"},{"pinCodeSeq":4381,"postOfficeName":"Kiliyanur S A","pinCode":"604102","city":"Vellore","district":"Vellore","state":"Tamil Nadu"},{"pinCodeSeq":4382,"postOfficeName":"Thailapuram","pinCode":"604103","city":"Vellore","district":"Vellore","state":"Tamil Nadu"},{"pinCodeSeq":4383,"postOfficeName":"Alampoondi","pinCode":"604151","city":"Vellore","district":"Vellore","state":"Tamil Nadu"},{"pinCodeSeq":4384,"postOfficeName":"Nallanpillaipetral","pinCode":"604152","city":"Vellore","district":"Vellore","state":"Tamil Nadu"},{"pinCodeSeq":4385,"postOfficeName":"Satyamangalam Sa","pinCode":"604153","city":"Vellore","district":"Vellore","state":"Tamil Nadu"},{"pinCodeSeq":4389,"postOfficeName":"Bazar","pinCode":"604202","city":"Vellore","district":"Vellore","state":"Tamil Nadu"},{"pinCodeSeq":4391,"postOfficeName":"Melmalaiyanur","pinCode":"604204","city":"Vellore","district":"Vellore","state":"Tamil Nadu"},{"pinCodeSeq":4392,"postOfficeName":"Minambur","pinCode":"604205","city":"Vellore","district":"Vellore","state":"Tamil Nadu"},{"pinCodeSeq":4393,"postOfficeName":"Vallimedupettai","pinCode":"604207","city":"Vellore","district":"Vellore","state":"Tamil Nadu"},{"pinCodeSeq":4398,"postOfficeName":"Brahmadesam","pinCode":"604301","city":"Vellore","district":"Vellore","state":"Tamil Nadu"},{"pinCodeSeq":4399,"postOfficeName":"Kutteripattu","pinCode":"604302","city":"Vellore","district":"Vellore","state":"Tamil Nadu"},{"pinCodeSeq":4400,"postOfficeName":"Markanam","pinCode":"604303","city":"Vellore","district":"Vellore","state":"Tamil Nadu"},{"pinCodeSeq":4401,"postOfficeName":"Mailam","pinCode":"604304","city":"Vellore","district":"Vellore","state":"Tamil Nadu"},{"pinCodeSeq":4402,"postOfficeName":"Olakkur","pinCode":"604305","city":"Vellore","district":"Vellore","state":"Tamil Nadu"},{"pinCodeSeq":4403,"postOfficeName":"Rettanai","pinCode":"604306","city":"Vellore","district":"Vellore","state":"Tamil Nadu"},{"pinCodeSeq":4404,"postOfficeName":"Saram","pinCode":"604307","city":"Vellore","district":"Vellore","state":"Tamil Nadu"},{"pinCodeSeq":4405,"postOfficeName":"Anukkavur","pinCode":"604401","city":"Vellore","district":"Vellore","state":"Tamil Nadu"},{"pinCodeSeq":4407,"postOfficeName":"Kilkodungalur","pinCode":"604403","city":"Vellore","district":"Vellore","state":"Tamil Nadu"},{"pinCodeSeq":4408,"postOfficeName":"Kilkovalavedu","pinCode":"604404","city":"Vellore","district":"Vellore","state":"Tamil Nadu"},{"pinCodeSeq":4410,"postOfficeName":"Tellar","pinCode":"604406","city":"Vellore","district":"Vellore","state":"Tamil Nadu"},{"pinCodeSeq":4411,"postOfficeName":"Cutcherry","pinCode":"604407","city":"Vellore","district":"Vellore","state":"Tamil Nadu"},{"pinCodeSeq":4412,"postOfficeName":"Tiruvetipuram","pinCode":"604407","city":"Vellore","district":"Vellore","state":"Tamil Nadu"},{"pinCodeSeq":4415,"postOfficeName":"Vandavasi Cutcherry","pinCode":"604408","city":"Vellore","district":"Vellore","state":"Tamil Nadu"},{"pinCodeSeq":4417,"postOfficeName":"Valikadai","pinCode":"604409","city":"Vellore","district":"Vellore","state":"Tamil Nadu"},{"pinCodeSeq":4418,"postOfficeName":"Vembakkam","pinCode":"604410","city":"Vellore","district":"Vellore","state":"Tamil Nadu"},{"pinCodeSeq":4419,"postOfficeName":"Kilnarma","pinCode":"604412","city":"Vellore","district":"Vellore","state":"Tamil Nadu"},{"pinCodeSeq":4421,"postOfficeName":"Ponnur","pinCode":"604414","city":"Vellore","district":"Vellore","state":"Tamil Nadu"},{"pinCodeSeq":4422,"postOfficeName":"Elankadu","pinCode":"604415","city":"Vellore","district":"Vellore","state":"Tamil Nadu"},{"pinCodeSeq":4424,"postOfficeName":"Pernamallur","pinCode":"604503","city":"Vellore","district":"Vellore","state":"Tamil Nadu"},{"pinCodeSeq":4425,"postOfficeName":"Tirumani Arni","pinCode":"604504","city":"Vellore","district":"Vellore","state":"Tamil Nadu"},{"pinCodeSeq":4426,"postOfficeName":"Vallam Arni","pinCode":"604505","city":"Vellore","district":"Vellore","state":"Tamil Nadu"},{"pinCodeSeq":4428,"postOfficeName":"Tattanchavadi","pinCode":"605009","city":"Vellore","district":"Vellore","state":"Tamil Nadu"},{"pinCodeSeq":4429,"postOfficeName":"Padmininagar","pinCode":"605012","city":"Vellore","district":"Vellore","state":"Tamil Nadu"},{"pinCodeSeq":4430,"postOfficeName":"Olugarai","pinCode":"605051","city":"Vellore","district":"Vellore","state":"Tamil Nadu"},{"pinCodeSeq":4431,"postOfficeName":"Aroville","pinCode":"605101","city":"Vellore","district":"Vellore","state":"Tamil Nadu"},{"pinCodeSeq":4432,"postOfficeName":"Kandamangalam","pinCode":"605102","city":"Vellore","district":"Vellore","state":"Tamil Nadu"},{"pinCodeSeq":4433,"postOfficeName":"Koliyanur","pinCode":"605103","city":"Vellore","district":"Vellore","state":"Tamil Nadu"},{"pinCodeSeq":4435,"postOfficeName":"Mokshakulam","pinCode":"605105","city":"Vellore","district":"Vellore","state":"Tamil Nadu"},{"pinCodeSeq":4436,"postOfficeName":"Pallineliyanur","pinCode":"605107","city":"Vellore","district":"Vellore","state":"Tamil Nadu"},{"pinCodeSeq":4438,"postOfficeName":"Kariyamanickam","pinCode":"605113","city":"Vellore","district":"Vellore","state":"Tamil Nadu"},{"pinCodeSeq":4439,"postOfficeName":"V Mathur","pinCode":"605118","city":"Vellore","district":"Vellore","state":"Tamil Nadu"},{"pinCodeSeq":4440,"postOfficeName":"Anantapuram","pinCode":"605201","city":"Vellore","district":"Vellore","state":"Tamil Nadu"},{"pinCodeSeq":4441,"postOfficeName":"Anniyur","pinCode":"605202","city":"Vellore","district":"Vellore","state":"Tamil Nadu"},{"pinCodeSeq":4442,"postOfficeName":"Kanjanur","pinCode":"605203","city":"Vellore","district":"Vellore","state":"Tamil Nadu"},{"pinCodeSeq":4443,"postOfficeName":"Kanai","pinCode":"605301","city":"Vellore","district":"Vellore","state":"Tamil Nadu"},{"pinCodeSeq":4444,"postOfficeName":"Mambalapattu","pinCode":"605302","city":"Vellore","district":"Vellore","state":"Tamil Nadu"},{"pinCodeSeq":4445,"postOfficeName":"Kandamanadi","pinCode":"605401","city":"Vellore","district":"Vellore","state":"Tamil Nadu"},{"pinCodeSeq":4446,"postOfficeName":"Kedar","pinCode":"605402","city":"Vellore","district":"Vellore","state":"Tamil Nadu"},{"pinCodeSeq":4447,"postOfficeName":"Valudavur","pinCode":"605502","city":"Vellore","district":"Vellore","state":"Tamil Nadu"},{"pinCodeSeq":4448,"postOfficeName":"Mundiyambakkam","pinCode":"605601","city":"Vellore","district":"Vellore","state":"Tamil Nadu"},{"pinCodeSeq":4449,"postOfficeName":"Kamalanagar","pinCode":"605602","city":"Vellore","district":"Vellore","state":"Tamil Nadu"},{"pinCodeSeq":4450,"postOfficeName":"Maharajapuram","pinCode":"605602","city":"Vellore","district":"Vellore","state":"Tamil Nadu"},{"pinCodeSeq":4451,"postOfficeName":"Santhanagopalapuram","pinCode":"605602","city":"Vellore","district":"Vellore","state":"Tamil Nadu"},{"pinCodeSeq":4452,"postOfficeName":"V Marudur","pinCode":"605602","city":"Vellore","district":"Vellore","state":"Tamil Nadu"},{"pinCodeSeq":4453,"postOfficeName":"Villupuram East","pinCode":"605602","city":"Vellore","district":"Vellore","state":"Tamil Nadu"},{"pinCodeSeq":4454,"postOfficeName":"Villupuram H O","pinCode":"605602","city":"Vellore","district":"Vellore","state":"Tamil Nadu"},{"pinCodeSeq":4455,"postOfficeName":"Villupuram West","pinCode":"605602","city":"Vellore","district":"Vellore","state":"Tamil Nadu"},{"pinCodeSeq":4456,"postOfficeName":"Villupuram South","pinCode":"605604","city":"Vellore","district":"Vellore","state":"Tamil Nadu"},{"pinCodeSeq":4457,"postOfficeName":"South Arcot","pinCode":"605605","city":"Vellore","district":"Vellore","state":"Tamil Nadu"},{"pinCodeSeq":4458,"postOfficeName":"South Arcot","pinCode":"605605","city":"Vellore","district":"Vellore","state":"Tamil Nadu"},{"pinCodeSeq":4459,"postOfficeName":"Peria Thatchur","pinCode":"605651","city":"Vellore","district":"Vellore","state":"Tamil Nadu"},{"pinCodeSeq":4462,"postOfficeName":"Kandachipuram","pinCode":"605701","city":"Vellore","district":"Vellore","state":"Tamil Nadu"},{"pinCodeSeq":4463,"postOfficeName":"Moongilthuraipattu","pinCode":"605702","city":"Vellore","district":"Vellore","state":"Tamil Nadu"},{"pinCodeSeq":4466,"postOfficeName":"Kilayur S A","pinCode":"605753","city":"Vellore","district":"Vellore","state":"Tamil Nadu"},{"pinCodeSeq":4468,"postOfficeName":"Megaiyur","pinCode":"605755","city":"Vellore","district":"Vellore","state":"Tamil Nadu"},{"pinCodeSeq":4469,"postOfficeName":"Thapovanam","pinCode":"605756","city":"Vellore","district":"Vellore","state":"Tamil Nadu"},{"pinCodeSeq":4470,"postOfficeName":"Santhapettai","pinCode":"605757","city":"Vellore","district":"Vellore","state":"Tamil Nadu"},{"pinCodeSeq":4471,"postOfficeName":"Tirukkoyilur Bus Stand","pinCode":"605757","city":"Vellore","district":"Vellore","state":"Tamil Nadu"},{"pinCodeSeq":4472,"postOfficeName":"Tirukkoyiylur H O","pinCode":"605757","city":"Vellore","district":"Vellore","state":"Tamil Nadu"},{"pinCodeSeq":4473,"postOfficeName":"Tirukoyilur Bazar","pinCode":"605757","city":"Vellore","district":"Vellore","state":"Tamil Nadu"},{"pinCodeSeq":4474,"postOfficeName":"Virapandi S A","pinCode":"605758","city":"Vellore","district":"Vellore","state":"Tamil Nadu"},{"pinCodeSeq":4475,"postOfficeName":"Manampoondi","pinCode":"605759","city":"Vellore","district":"Vellore","state":"Tamil Nadu"},{"pinCodeSeq":4476,"postOfficeName":"Ariyalur","pinCode":"605801","city":"Vellore","district":"Vellore","state":"Tamil Nadu"},{"pinCodeSeq":4478,"postOfficeName":"Sithalingamadam","pinCode":"605803","city":"Vellore","district":"Vellore","state":"Tamil Nadu"},{"pinCodeSeq":4479,"postOfficeName":"Tiruvarangam","pinCode":"605805","city":"Vellore","district":"Vellore","state":"Tamil Nadu"},{"pinCodeSeq":4480,"postOfficeName":"Vridhachalam","pinCode":"605809","city":"Vellore","district":"Vellore","state":"Tamil Nadu"},{"pinCodeSeq":4481,"postOfficeName":"Cutcherry","pinCode":"606001","city":"Vellore","district":"Vellore","state":"Tamil Nadu"},{"pinCodeSeq":4482,"postOfficeName":"Vriddhachalam Bazar","pinCode":"606001","city":"Vellore","district":"Vellore","state":"Tamil Nadu"},{"pinCodeSeq":4483,"postOfficeName":"Vriddhachalam H O","pinCode":"606001","city":"Vellore","district":"Vellore","state":"Tamil Nadu"},{"pinCodeSeq":4484,"postOfficeName":"Vriddhalchalam","pinCode":"606001","city":"Vellore","district":"Vellore","state":"Tamil Nadu"},{"pinCodeSeq":4485,"postOfficeName":"Vridhachalam West","pinCode":"606001","city":"Vellore","district":"Vellore","state":"Tamil Nadu"},{"pinCodeSeq":4486,"postOfficeName":"Vridhachalam R S","pinCode":"606002","city":"Vellore","district":"Vellore","state":"Tamil Nadu"},{"pinCodeSeq":4487,"postOfficeName":"Budamur","pinCode":"606003","city":"Vellore","district":"Vellore","state":"Tamil Nadu"},{"pinCodeSeq":4489,"postOfficeName":"Kammapuram","pinCode":"606103","city":"Vellore","district":"Vellore","state":"Tamil Nadu"},{"pinCodeSeq":4490,"postOfficeName":"Mangalam S A","pinCode":"606104","city":"Vellore","district":"Vellore","state":"Tamil Nadu"},{"pinCodeSeq":4492,"postOfficeName":"Tittagudi","pinCode":"606106","city":"Vellore","district":"Vellore","state":"Tamil Nadu"},{"pinCodeSeq":4493,"postOfficeName":"Ullunderpet","pinCode":"606107","city":"Vellore","district":"Vellore","state":"Tamil Nadu"},{"pinCodeSeq":4494,"postOfficeName":"Ulunderpet Bus Stand","pinCode":"606107","city":"Vellore","district":"Vellore","state":"Tamil Nadu"},{"pinCodeSeq":4495,"postOfficeName":"Karuveppilankurichi","pinCode":"606110","city":"Vellore","district":"Vellore","state":"Tamil Nadu"},{"pinCodeSeq":4496,"postOfficeName":"Pannadam R S","pinCode":"606111","city":"Vellore","district":"Vellore","state":"Tamil Nadu"},{"pinCodeSeq":4498,"postOfficeName":"Padur","pinCode":"606115","city":"Vellore","district":"Vellore","state":"Tamil Nadu"},{"pinCodeSeq":4499,"postOfficeName":"Mukhasaparur","pinCode":"606120","city":"Vellore","district":"Vellore","state":"Tamil Nadu"},{"pinCodeSeq":4502,"postOfficeName":"Emapper","pinCode":"606202","city":"Vellore","district":"Vellore","state":"Tamil Nadu"},{"pinCodeSeq":4503,"postOfficeName":"Kallakurichi Bazaar","pinCode":"606202","city":"Vellore","district":"Vellore","state":"Tamil Nadu"},{"pinCodeSeq":4504,"postOfficeName":"Kallakurichi H O","pinCode":"606202","city":"Vellore","district":"Vellore","state":"Tamil Nadu"},{"pinCodeSeq":4505,"postOfficeName":"Kallakurichi South","pinCode":"606202","city":"Vellore","district":"Vellore","state":"Tamil Nadu"},{"pinCodeSeq":4506,"postOfficeName":"Nagalur S A","pinCode":"606203","city":"Vellore","district":"Vellore","state":"Tamil Nadu"},{"pinCodeSeq":4507,"postOfficeName":"Pukkiravari","pinCode":"606204","city":"Vellore","district":"Vellore","state":"Tamil Nadu"},{"pinCodeSeq":4508,"postOfficeName":"Rishivandiyam","pinCode":"606205","city":"Vellore","district":"Vellore","state":"Tamil Nadu"},{"pinCodeSeq":4509,"postOfficeName":"Tiyagadrug","pinCode":"606206","city":"Vellore","district":"Vellore","state":"Tamil Nadu"},{"pinCodeSeq":4510,"postOfficeName":"Vadakkanendal","pinCode":"606207","city":"Vellore","district":"Vellore","state":"Tamil Nadu"},{"pinCodeSeq":4511,"postOfficeName":"Murarbad","pinCode":"606208","city":"Vellore","district":"Vellore","state":"Tamil Nadu"},{"pinCodeSeq":4512,"postOfficeName":"Cholampattu","pinCode":"606221","city":"Vellore","district":"Vellore","state":"Tamil Nadu"},{"pinCodeSeq":4513,"postOfficeName":"Vilambur","pinCode":"606223","city":"Vellore","district":"Vellore","state":"Tamil Nadu"},{"pinCodeSeq":4514,"postOfficeName":"Nainarpalayam","pinCode":"606301","city":"Vellore","district":"Vellore","state":"Tamil Nadu"},{"pinCodeSeq":4516,"postOfficeName":"Toludur","pinCode":"606303","city":"Vellore","district":"Vellore","state":"Tamil Nadu"},{"pinCodeSeq":4517,"postOfficeName":"Veppur S A","pinCode":"606304","city":"Vellore","district":"Vellore","state":"Tamil Nadu"},{"pinCodeSeq":4519,"postOfficeName":"Koothakudi","pinCode":"606307","city":"Vellore","district":"Vellore","state":"Tamil Nadu"},{"pinCodeSeq":4520,"postOfficeName":"Kothakudi","pinCode":"606307","city":"Vellore","district":"Vellore","state":"Tamil Nadu"},{"pinCodeSeq":4522,"postOfficeName":"Pandalam","pinCode":"606402","city":"Vellore","district":"Vellore","state":"Tamil Nadu"},{"pinCodeSeq":4523,"postOfficeName":"Tiruvannamalai Bazar","pinCode":"606601","city":"Vellore","district":"Vellore","state":"Tamil Nadu"},{"pinCodeSeq":4524,"postOfficeName":"Tiruvannamalai H O","pinCode":"606601","city":"Vellore","district":"Vellore","state":"Tamil Nadu"},{"pinCodeSeq":4525,"postOfficeName":"Kilnathur","pinCode":"606602","city":"Vellore","district":"Vellore","state":"Tamil Nadu"},{"pinCodeSeq":4526,"postOfficeName":"Tiruvannamalai R S","pinCode":"606602","city":"Vellore","district":"Vellore","state":"Tamil Nadu"},{"pinCodeSeq":4527,"postOfficeName":"Sri Ramanashraman","pinCode":"606603","city":"Vellore","district":"Vellore","state":"Tamil Nadu"},{"pinCodeSeq":4528,"postOfficeName":"Vengikal","pinCode":"606604","city":"Vellore","district":"Vellore","state":"Tamil Nadu"},{"pinCodeSeq":4531,"postOfficeName":"Kanji","pinCode":"606702","city":"Vellore","district":"Vellore","state":"Tamil Nadu"},{"pinCodeSeq":4532,"postOfficeName":"Melpallipattu","pinCode":"606703","city":"Vellore","district":"Vellore","state":"Tamil Nadu"},{"pinCodeSeq":4533,"postOfficeName":"Pudupalayam Na","pinCode":"606705","city":"Vellore","district":"Vellore","state":"Tamil Nadu"},{"pinCodeSeq":4534,"postOfficeName":"Sathanur Dam","pinCode":"606706","city":"Vellore","district":"Vellore","state":"Tamil Nadu"},{"pinCodeSeq":4535,"postOfficeName":"Tandarampattu","pinCode":"606707","city":"Vellore","district":"Vellore","state":"Tamil Nadu"},{"pinCodeSeq":4536,"postOfficeName":"Tanipadi","pinCode":"606708","city":"Vellore","district":"Vellore","state":"Tamil Nadu"},{"pinCodeSeq":4537,"postOfficeName":"Thukkapettai","pinCode":"606709","city":"Vellore","district":"Vellore","state":"Tamil Nadu"},{"pinCodeSeq":4538,"postOfficeName":"Paramandal","pinCode":"606710","city":"Vellore","district":"Vellore","state":"Tamil Nadu"},{"pinCodeSeq":4539,"postOfficeName":"Melchengam","pinCode":"606711","city":"Vellore","district":"Vellore","state":"Tamil Nadu"},{"pinCodeSeq":4540,"postOfficeName":"Kilsirupakkam","pinCode":"606712","city":"Vellore","district":"Vellore","state":"Tamil Nadu"},{"pinCodeSeq":4541,"postOfficeName":"Melvanakkambadi","pinCode":"606713","city":"Vellore","district":"Vellore","state":"Tamil Nadu"},{"pinCodeSeq":4542,"postOfficeName":"Thenmudiyanur","pinCode":"606714","city":"Vellore","district":"Vellore","state":"Tamil Nadu"},{"pinCodeSeq":4543,"postOfficeName":"S I Sorpanandal","pinCode":"606715","city":"Vellore","district":"Vellore","state":"Tamil Nadu"},{"pinCodeSeq":4544,"postOfficeName":"Taradapattu","pinCode":"606716","city":"Vellore","district":"Vellore","state":"Tamil Nadu"},{"pinCodeSeq":4545,"postOfficeName":"Kilvanakkambadi","pinCode":"606717","city":"Vellore","district":"Vellore","state":"Tamil Nadu"},{"pinCodeSeq":4547,"postOfficeName":"Kalasapakkam","pinCode":"606751","city":"Vellore","district":"Vellore","state":"Tamil Nadu"},{"pinCodeSeq":4549,"postOfficeName":"Vanapuram","pinCode":"606753","city":"Vellore","district":"Vellore","state":"Tamil Nadu"},{"pinCodeSeq":4551,"postOfficeName":"Chettupattu Polur","pinCode":"606801","city":"Vellore","district":"Vellore","state":"Tamil Nadu"},{"pinCodeSeq":4552,"postOfficeName":"Nayudumangalam","pinCode":"606802","city":"Vellore","district":"Vellore","state":"Tamil Nadu"},{"pinCodeSeq":4553,"postOfficeName":"Polur","pinCode":"606803","city":"Vellore","district":"Vellore","state":"Tamil Nadu"},{"pinCodeSeq":4555,"postOfficeName":"Polur Town","pinCode":"606803","city":"Vellore","district":"Vellore","state":"Tamil Nadu"},{"pinCodeSeq":4557,"postOfficeName":"Tandarai","pinCode":"606804","city":"Vellore","district":"Vellore","state":"Tamil Nadu"},{"pinCodeSeq":4558,"postOfficeName":"Turinjapuram","pinCode":"606805","city":"Vellore","district":"Vellore","state":"Tamil Nadu"},{"pinCodeSeq":4559,"postOfficeName":"Pavitram","pinCode":"606806","city":"Vellore","district":"Vellore","state":"Tamil Nadu"},{"pinCodeSeq":4560,"postOfficeName":"Nedungunam","pinCode":"606807","city":"Vellore","district":"Vellore","state":"Tamil Nadu"},{"pinCodeSeq":4561,"postOfficeName":"Narthampoondi","pinCode":"606809","city":"Vellore","district":"Vellore","state":"Tamil Nadu"},{"pinCodeSeq":4562,"postOfficeName":"Andampallam","pinCode":"606810","city":"Vellore","district":"Vellore","state":"Tamil Nadu"},{"pinCodeSeq":4563,"postOfficeName":"Adamangalam","pinCode":"606901","city":"Vellore","district":"Vellore","state":"Tamil Nadu"},{"pinCodeSeq":4564,"postOfficeName":"Devikapuram","pinCode":"606902","city":"Vellore","district":"Vellore","state":"Tamil Nadu"},{"pinCodeSeq":4566,"postOfficeName":"Mandakolathur","pinCode":"606904","city":"Vellore","district":"Vellore","state":"Tamil Nadu"},{"pinCodeSeq":4567,"postOfficeName":"Santhavasai","pinCode":"606905","city":"Vellore","district":"Vellore","state":"Tamil Nadu"},{"pinCodeSeq":4568,"postOfficeName":"Vilvarani","pinCode":"606906","city":"Vellore","district":"Vellore","state":"Tamil Nadu"},{"pinCodeSeq":4569,"postOfficeName":"Vadamathimangalam","pinCode":"606907","city":"Vellore","district":"Vellore","state":"Tamil Nadu"},{"pinCodeSeq":4570,"postOfficeName":"Kadaladi N A","pinCode":"606908","city":"Vellore","district":"Vellore","state":"Tamil Nadu"},{"pinCodeSeq":4571,"postOfficeName":"Kasthampadi","pinCode":"606909","city":"Vellore","district":"Vellore","state":"Tamil Nadu"},{"pinCodeSeq":4572,"postOfficeName":"Kettavarampalayam","pinCode":"606910","city":"Vellore","district":"Vellore","state":"Tamil Nadu"},{"pinCodeSeq":4574,"postOfficeName":"Mansurabad","pinCode":"606912","city":"Vellore","district":"Vellore","state":"Tamil Nadu"},{"pinCodeSeq":4576,"postOfficeName":"Bharathi Road","pinCode":"607001","city":"Vellore","district":"Vellore","state":"Tamil Nadu"},{"pinCodeSeq":4580,"postOfficeName":"Fort Saint David","pinCode":"607001","city":"Vellore","district":"Vellore","state":"Tamil Nadu"},{"pinCodeSeq":4581,"postOfficeName":"Manjakuppam","pinCode":"607001","city":"Vellore","district":"Vellore","state":"Tamil Nadu"},{"pinCodeSeq":4582,"postOfficeName":"Marisusainagar","pinCode":"607001","city":"Vellore","district":"Vellore","state":"Tamil Nadu"},{"pinCodeSeq":4584,"postOfficeName":"Seemandalam","pinCode":"607001","city":"Vellore","district":"Vellore","state":"Tamil Nadu"},{"pinCodeSeq":4585,"postOfficeName":"Veenugopalapuram","pinCode":"607001","city":"Vellore","district":"Vellore","state":"Tamil Nadu"},{"pinCodeSeq":4586,"postOfficeName":"Vilvarayanatham","pinCode":"607001","city":"Vellore","district":"Vellore","state":"Tamil Nadu"},{"pinCodeSeq":4587,"postOfficeName":"Tiruppadiraipuliyur","pinCode":"607002","city":"Vellore","district":"Vellore","state":"Tamil Nadu"},{"pinCodeSeq":4588,"postOfficeName":"Tiruppadiraipuliyur Bazar","pinCode":"607002","city":"Vellore","district":"Vellore","state":"Tamil Nadu"},{"pinCodeSeq":4592,"postOfficeName":"Seemanthottam","pinCode":"607003","city":"Vellore","district":"Vellore","state":"Tamil Nadu"},{"pinCodeSeq":4593,"postOfficeName":"Vandipaliyam","pinCode":"607004","city":"Vellore","district":"Vellore","state":"Tamil Nadu"},{"pinCodeSeq":4594,"postOfficeName":"Pachayankuppam","pinCode":"607051","city":"Vellore","district":"Vellore","state":"Tamil Nadu"},{"pinCodeSeq":4596,"postOfficeName":"Chinnappanaickenpalayam","pinCode":"607102","city":"Vellore","district":"Vellore","state":"Tamil Nadu"},{"pinCodeSeq":4597,"postOfficeName":"Kadambuliyur","pinCode":"607103","city":"Vellore","district":"Vellore","state":"Tamil Nadu"},{"pinCodeSeq":4598,"postOfficeName":"Melpattambakkam","pinCode":"607104","city":"Vellore","district":"Vellore","state":"Tamil Nadu"},{"pinCodeSeq":4600,"postOfficeName":"Nellikuppam Bazaar","pinCode":"607105","city":"Vellore","district":"Vellore","state":"Tamil Nadu"},{"pinCodeSeq":4606,"postOfficeName":"Puthupet","pinCode":"607108","city":"Vellore","district":"Vellore","state":"Tamil Nadu"},{"pinCodeSeq":4607,"postOfficeName":"Varkalpattu","pinCode":"607109","city":"Vellore","district":"Vellore","state":"Tamil Nadu"},{"pinCodeSeq":4608,"postOfficeName":"Elaiyapuram","pinCode":"607111","city":"Vellore","district":"Vellore","state":"Tamil Nadu"},{"pinCodeSeq":4609,"postOfficeName":"Eruvelipattu","pinCode":"607111","city":"Vellore","district":"Vellore","state":"Tamil Nadu"},{"pinCodeSeq":4610,"postOfficeName":"Iruvelipattu","pinCode":"607111","city":"Vellore","district":"Vellore","state":"Tamil Nadu"},{"pinCodeSeq":4612,"postOfficeName":"Oraiyur","pinCode":"607116","city":"Vellore","district":"Vellore","state":"Tamil Nadu"},{"pinCodeSeq":4613,"postOfficeName":"Eraiyur","pinCode":"607201","city":"Vellore","district":"Vellore","state":"Tamil Nadu"},{"pinCodeSeq":4614,"postOfficeName":"Elavanasur","pinCode":"607202","city":"Vellore","district":"Vellore","state":"Tamil Nadu"},{"pinCodeSeq":4615,"postOfficeName":"Tiruvennainallur","pinCode":"607203","city":"Vellore","district":"Vellore","state":"Tamil Nadu"},{"pinCodeSeq":4616,"postOfficeName":"Tirunallur","pinCode":"607204","city":"Vellore","district":"Vellore","state":"Tamil Nadu"},{"pinCodeSeq":4618,"postOfficeName":"Kullanchavadi","pinCode":"607301","city":"Vellore","district":"Vellore","state":"Tamil Nadu"},{"pinCodeSeq":4620,"postOfficeName":"Kurinjipadi Bazaar","pinCode":"607302","city":"Vellore","district":"Vellore","state":"Tamil Nadu"},{"pinCodeSeq":4622,"postOfficeName":"Vahakollai","pinCode":"607307","city":"Vellore","district":"Vellore","state":"Tamil Nadu"},{"pinCodeSeq":4623,"postOfficeName":"Tiruvendipuram","pinCode":"607401","city":"Vellore","district":"Vellore","state":"Tamil Nadu"},{"pinCodeSeq":4631,"postOfficeName":"Thandavankuppam","pinCode":"607802","city":"Vellore","district":"Vellore","state":"Tamil Nadu"},{"pinCodeSeq":4632,"postOfficeName":"Neyveli Block 19","pinCode":"607803","city":"Vellore","district":"Vellore","state":"Tamil Nadu"},{"pinCodeSeq":4633,"postOfficeName":"Neyveli Block 27","pinCode":"607803","city":"Vellore","district":"Vellore","state":"Tamil Nadu"},{"pinCodeSeq":4634,"postOfficeName":"Neyveli General Hospital","pinCode":"607803","city":"Vellore","district":"Vellore","state":"Tamil Nadu"},{"pinCodeSeq":4635,"postOfficeName":"Neyveli Thermal Bus Stand","pinCode":"607803","city":"Vellore","district":"Vellore","state":"Tamil Nadu"},{"pinCodeSeq":4636,"postOfficeName":"Aziz Nagar","pinCode":"607804","city":"Vellore","district":"Vellore","state":"Tamil Nadu"},{"pinCodeSeq":4637,"postOfficeName":"Oomangalam","pinCode":"607804","city":"Vellore","district":"Vellore","state":"Tamil Nadu"},{"pinCodeSeq":4638,"postOfficeName":"Perperiyankuppam","pinCode":"607805","city":"Vellore","district":"Vellore","state":"Tamil Nadu"},{"pinCodeSeq":4639,"postOfficeName":"Neyveli Block 29","pinCode":"607807","city":"Vellore","district":"Vellore","state":"Tamil Nadu"},{"pinCodeSeq":4646,"postOfficeName":"Cutcherry","pinCode":"608001","city":"Vellore","district":"Vellore","state":"Tamil Nadu"},{"pinCodeSeq":4647,"postOfficeName":"Kanagasabainagar","pinCode":"608001","city":"Vellore","district":"Vellore","state":"Tamil Nadu"},{"pinCodeSeq":4648,"postOfficeName":"Annamalai University","pinCode":"608002","city":"Vellore","district":"Vellore","state":"Tamil Nadu"},{"pinCodeSeq":4649,"postOfficeName":"Annamalainagar","pinCode":"608002","city":"Vellore","district":"Vellore","state":"Tamil Nadu"},{"pinCodeSeq":4650,"postOfficeName":"Killai","pinCode":"608102","city":"Vellore","district":"Vellore","state":"Tamil Nadu"},{"pinCodeSeq":4651,"postOfficeName":"Orathur","pinCode":"608201","city":"Vellore","district":"Vellore","state":"Tamil Nadu"},{"pinCodeSeq":4656,"postOfficeName":"T Nedunjeri","pinCode":"608305","city":"Vellore","district":"Vellore","state":"Tamil Nadu"},{"pinCodeSeq":4658,"postOfficeName":"B Mutlur","pinCode":"608501","city":"Vellore","district":"Vellore","state":"Tamil Nadu"},{"pinCodeSeq":4660,"postOfficeName":"Small Bazaar","pinCode":"608502","city":"Vellore","district":"Vellore","state":"Tamil Nadu"},{"pinCodeSeq":4663,"postOfficeName":"Palayamkottai S A","pinCode":"608701","city":"Vellore","district":"Vellore","state":"Tamil Nadu"},{"pinCodeSeq":4664,"postOfficeName":"Settiatope","pinCode":"608702","city":"Vellore","district":"Vellore","state":"Tamil Nadu"},{"pinCodeSeq":4668,"postOfficeName":"Thaigavalli","pinCode":"608803","city":"Vellore","district":"Vellore","state":"Tamil Nadu"},{"pinCodeSeq":4950,"postOfficeName":"Varagur","pinCode":"613109","city":"Vellore","district":"Vellore","state":"Tamil Nadu"},{"pinCodeSeq":5173,"postOfficeName":"Ponnagar","pinCode":"620001","city":"Vellore","district":"Vellore","state":"Tamil Nadu"},{"pinCodeSeq":6631,"postOfficeName":"Karaikudi Angodi","pinCode":"630001","city":"Vellore","district":"Vellore","state":"Tamil Nadu"},{"pinCodeSeq":6632,"postOfficeName":"Karaikudi Bus Stand","pinCode":"630001","city":"Vellore","district":"Vellore","state":"Tamil Nadu"},{"pinCodeSeq":6633,"postOfficeName":"Karaikudi H O","pinCode":"630001","city":"Vellore","district":"Vellore","state":"Tamil Nadu"},{"pinCodeSeq":6634,"postOfficeName":"Karaikudi South Street","pinCode":"630001","city":"Vellore","district":"Vellore","state":"Tamil Nadu"},{"pinCodeSeq":6635,"postOfficeName":"Arakkonam Bazaar","pinCode":"631001","city":"Vellore","district":"Vellore","state":"Tamil Nadu"},{"pinCodeSeq":6636,"postOfficeName":"Arakkonam H O","pinCode":"631001","city":"Vellore","district":"Vellore","state":"Tamil Nadu"},{"pinCodeSeq":6637,"postOfficeName":"Ashok Nagar","pinCode":"631001","city":"Vellore","district":"Vellore","state":"Tamil Nadu"},{"pinCodeSeq":6638,"postOfficeName":"Rajijinagar","pinCode":"631001","city":"Vellore","district":"Vellore","state":"Tamil Nadu"},{"pinCodeSeq":6639,"postOfficeName":"Jothinagar","pinCode":"631003","city":"Vellore","district":"Vellore","state":"Tamil Nadu"},{"pinCodeSeq":6640,"postOfficeName":"Ekhunagar","pinCode":"631004","city":"Vellore","district":"Vellore","state":"Tamil Nadu"},{"pinCodeSeq":6643,"postOfficeName":"Tirumalpur","pinCode":"631053","city":"Vellore","district":"Vellore","state":"Tamil Nadu"},{"pinCodeSeq":6644,"postOfficeName":"Valaikulam","pinCode":"631057","city":"Vellore","district":"Vellore","state":"Tamil Nadu"},{"pinCodeSeq":6645,"postOfficeName":"Ichiputhur","pinCode":"631060","city":"Vellore","district":"Vellore","state":"Tamil Nadu"},{"pinCodeSeq":6646,"postOfficeName":"Thanigaipolur","pinCode":"631061","city":"Vellore","district":"Vellore","state":"Tamil Nadu"},{"pinCodeSeq":6647,"postOfficeName":"Guruvarajupettai","pinCode":"631101","city":"Vellore","district":"Vellore","state":"Tamil Nadu"},{"pinCodeSeq":6648,"postOfficeName":"Sholinghur","pinCode":"631102","city":"Vellore","district":"Vellore","state":"Tamil Nadu"},{"pinCodeSeq":6649,"postOfficeName":"Sholinghur Bazaar","pinCode":"631102","city":"Vellore","district":"Vellore","state":"Tamil Nadu"},{"pinCodeSeq":6650,"postOfficeName":"Jambukulam","pinCode":"631104","city":"Vellore","district":"Vellore","state":"Tamil Nadu"},{"pinCodeSeq":6652,"postOfficeName":"Takkolam","pinCode":"631151","city":"Vellore","district":"Vellore","state":"Tamil Nadu"},{"pinCodeSeq":6668,"postOfficeName":"Tiruvelangadu","pinCode":"631210","city":"Vellore","district":"Vellore","state":"Tamil Nadu"},{"pinCodeSeq":6677,"postOfficeName":"Ulandai","pinCode":"631404","city":"Vellore","district":"Vellore","state":"Tamil Nadu"},{"pinCodeSeq":6690,"postOfficeName":"Edayarpakkam","pinCode":"631553","city":"Vellore","district":"Vellore","state":"Tamil Nadu"},{"pinCodeSeq":6694,"postOfficeName":"Thenneri","pinCode":"631604","city":"Vellore","district":"Vellore","state":"Tamil Nadu"},{"pinCodeSeq":6699,"postOfficeName":"Akkur N A","pinCode":"631701","city":"Vellore","district":"Vellore","state":"Tamil Nadu"},{"pinCodeSeq":6700,"postOfficeName":"Mamandur-Kcm","pinCode":"631702","city":"Vellore","district":"Vellore","state":"Tamil Nadu"},{"pinCodeSeq":6702,"postOfficeName":"Kosapet","pinCode":"632001","city":"Vellore","district":"Vellore","state":"Tamil Nadu"},{"pinCodeSeq":6703,"postOfficeName":"Krishna Nagar","pinCode":"632001","city":"Vellore","district":"Vellore","state":"Tamil Nadu"},{"pinCodeSeq":6704,"postOfficeName":"Old district Brd Building","pinCode":"632001","city":"Vellore","district":"Vellore","state":"Tamil Nadu"},{"pinCodeSeq":6705,"postOfficeName":"Old Town Vlr","pinCode":"632001","city":"Vellore","district":"Vellore","state":"Tamil Nadu"},{"pinCodeSeq":6706,"postOfficeName":"Sainathapuram Vlr","pinCode":"632001","city":"Vellore","district":"Vellore","state":"Tamil Nadu"},{"pinCodeSeq":6707,"postOfficeName":"Sankaranpalayam","pinCode":"632001","city":"Vellore","district":"Vellore","state":"Tamil Nadu"},{"pinCodeSeq":6708,"postOfficeName":"Sullivananpet","pinCode":"632001","city":"Vellore","district":"Vellore","state":"Tamil Nadu"},{"pinCodeSeq":6709,"postOfficeName":"Voorhees College","pinCode":"632001","city":"Vellore","district":"Vellore","state":"Tamil Nadu"},{"pinCodeSeq":6710,"postOfficeName":"Bagayam","pinCode":"632002","city":"Vellore","district":"Vellore","state":"Tamil Nadu"},{"pinCodeSeq":6711,"postOfficeName":"Christian Medical College","pinCode":"632002","city":"Vellore","district":"Vellore","state":"Tamil Nadu"},{"pinCodeSeq":6713,"postOfficeName":"Thorapalli","pinCode":"632002","city":"Vellore","district":"Vellore","state":"Tamil Nadu"},{"pinCodeSeq":6714,"postOfficeName":"Vellore Kasba","pinCode":"632003","city":"Vellore","district":"Vellore","state":"Tamil Nadu"},{"pinCodeSeq":6715,"postOfficeName":"Bakiyath","pinCode":"632004","city":"Vellore","district":"Vellore","state":"Tamil Nadu"},{"pinCodeSeq":6716,"postOfficeName":"Bye Pass Road","pinCode":"632004","city":"Vellore","district":"Vellore","state":"Tamil Nadu"},{"pinCodeSeq":6717,"postOfficeName":"Christian Medical College","pinCode":"632004","city":"Vellore","district":"Vellore","state":"Tamil Nadu"},{"pinCodeSeq":6718,"postOfficeName":"Gandhi Road","pinCode":"632004","city":"Vellore","district":"Vellore","state":"Tamil Nadu"},{"pinCodeSeq":6719,"postOfficeName":"Vellore Bazar","pinCode":"632004","city":"Vellore","district":"Vellore","state":"Tamil Nadu"},{"pinCodeSeq":6720,"postOfficeName":"Vellore Cantoment","pinCode":"632004","city":"Vellore","district":"Vellore","state":"Tamil Nadu"},{"pinCodeSeq":6721,"postOfficeName":"Vellore Fort","pinCode":"632004","city":"Vellore","district":"Vellore","state":"Tamil Nadu"},{"pinCodeSeq":6722,"postOfficeName":"Vellore Market","pinCode":"632004","city":"Vellore","district":"Vellore","state":"Tamil Nadu"},{"pinCodeSeq":6723,"postOfficeName":"Vellore Collectorate","pinCode":"632005","city":"Vellore","district":"Vellore","state":"Tamil Nadu"},{"pinCodeSeq":6724,"postOfficeName":"Gandhi Nagar East","pinCode":"632006","city":"Vellore","district":"Vellore","state":"Tamil Nadu"},{"pinCodeSeq":6725,"postOfficeName":"Gandhi Nagar Vellore","pinCode":"632006","city":"Vellore","district":"Vellore","state":"Tamil Nadu"},{"pinCodeSeq":6726,"postOfficeName":"Gandhi Nagar West","pinCode":"632006","city":"Vellore","district":"Vellore","state":"Tamil Nadu"},{"pinCodeSeq":6727,"postOfficeName":"Virudhampet","pinCode":"632006","city":"Vellore","district":"Vellore","state":"Tamil Nadu"},{"pinCodeSeq":6730,"postOfficeName":"Sathavachari","pinCode":"632009","city":"Vellore","district":"Vellore","state":"Tamil Nadu"},{"pinCodeSeq":6731,"postOfficeName":"Sathuvachari Extension","pinCode":"632009","city":"Vellore","district":"Vellore","state":"Tamil Nadu"},{"pinCodeSeq":6732,"postOfficeName":"Abdullapuram","pinCode":"632010","city":"Vellore","district":"Vellore","state":"Tamil Nadu"},{"pinCodeSeq":6734,"postOfficeName":"Kakothapattarai Vellore","pinCode":"632012","city":"Vellore","district":"Vellore","state":"Tamil Nadu"},{"pinCodeSeq":6735,"postOfficeName":"Saidapet Vellore","pinCode":"632012","city":"Vellore","district":"Vellore","state":"Tamil Nadu"},{"pinCodeSeq":6737,"postOfficeName":"Palamathi","pinCode":"632051","city":"Vellore","district":"Vellore","state":"Tamil Nadu"},{"pinCodeSeq":6738,"postOfficeName":"Edayansathu","pinCode":"632052","city":"Vellore","district":"Vellore","state":"Tamil Nadu"},{"pinCodeSeq":6739,"postOfficeName":"Brahmapuram","pinCode":"632053","city":"Vellore","district":"Vellore","state":"Tamil Nadu"},{"pinCodeSeq":6740,"postOfficeName":"Perumugai","pinCode":"632054","city":"Vellore","district":"Vellore","state":"Tamil Nadu"},{"pinCodeSeq":6741,"postOfficeName":"Ariyur","pinCode":"632055","city":"Vellore","district":"Vellore","state":"Tamil Nadu"},{"pinCodeSeq":6742,"postOfficeName":"Munjurupattu","pinCode":"632057","city":"Vellore","district":"Vellore","state":"Tamil Nadu"},{"pinCodeSeq":6743,"postOfficeName":"Anaikattu","pinCode":"632101","city":"Vellore","district":"Vellore","state":"Tamil Nadu"},{"pinCodeSeq":6744,"postOfficeName":"Kaniyambadi","pinCode":"632102","city":"Vellore","district":"Vellore","state":"Tamil Nadu"},{"pinCodeSeq":6745,"postOfficeName":"Odukkathur","pinCode":"632103","city":"Vellore","district":"Vellore","state":"Tamil Nadu"},{"pinCodeSeq":6746,"postOfficeName":"Virnjipuram","pinCode":"632104","city":"Vellore","district":"Vellore","state":"Tamil Nadu"},{"pinCodeSeq":6747,"postOfficeName":"Ussoor","pinCode":"632105","city":"Vellore","district":"Vellore","state":"Tamil Nadu"},{"pinCodeSeq":6748,"postOfficeName":"S L R Sanitorium","pinCode":"632106","city":"Vellore","district":"Vellore","state":"Tamil Nadu"},{"pinCodeSeq":6749,"postOfficeName":"Guruvarajapalayam","pinCode":"632107","city":"Vellore","district":"Vellore","state":"Tamil Nadu"},{"pinCodeSeq":6750,"postOfficeName":"Sevur","pinCode":"632108","city":"Vellore","district":"Vellore","state":"Tamil Nadu"},{"pinCodeSeq":6751,"postOfficeName":"Veppankuppam","pinCode":"632109","city":"Vellore","district":"Vellore","state":"Tamil Nadu"},{"pinCodeSeq":6752,"postOfficeName":"Pinnathurai","pinCode":"632110","city":"Vellore","district":"Vellore","state":"Tamil Nadu"},{"pinCodeSeq":6753,"postOfficeName":"Eripudur","pinCode":"632112","city":"Vellore","district":"Vellore","state":"Tamil Nadu"},{"pinCodeSeq":6754,"postOfficeName":"Kilvaithinankuppam","pinCode":"632201","city":"Vellore","district":"Vellore","state":"Tamil Nadu"},{"pinCodeSeq":6755,"postOfficeName":"Latteri","pinCode":"632202","city":"Vellore","district":"Vellore","state":"Tamil Nadu"},{"pinCodeSeq":6756,"postOfficeName":"Melmayil","pinCode":"632203","city":"Vellore","district":"Vellore","state":"Tamil Nadu"},{"pinCodeSeq":6757,"postOfficeName":"Vaduganthangal","pinCode":"632204","city":"Vellore","district":"Vellore","state":"Tamil Nadu"},{"pinCodeSeq":6759,"postOfficeName":"Machanur","pinCode":"632205","city":"Vellore","district":"Vellore","state":"Tamil Nadu"},{"pinCodeSeq":6760,"postOfficeName":"Kanguppam","pinCode":"632206","city":"Vellore","district":"Vellore","state":"Tamil Nadu"},{"pinCodeSeq":6761,"postOfficeName":"Melkavanur","pinCode":"632207","city":"Vellore","district":"Vellore","state":"Tamil Nadu"},{"pinCodeSeq":6762,"postOfficeName":"Ramalai","pinCode":"632208","city":"Vellore","district":"Vellore","state":"Tamil Nadu"},{"pinCodeSeq":6763,"postOfficeName":"Ruhsa Campus","pinCode":"632209","city":"Vellore","district":"Vellore","state":"Tamil Nadu"},{"pinCodeSeq":6764,"postOfficeName":"Kilkothur","pinCode":"632211","city":"Vellore","district":"Vellore","state":"Tamil Nadu"},{"pinCodeSeq":6765,"postOfficeName":"Arni Bazaar","pinCode":"632301","city":"Vellore","district":"Vellore","state":"Tamil Nadu"},{"pinCodeSeq":6766,"postOfficeName":"Arni Fort","pinCode":"632301","city":"Vellore","district":"Vellore","state":"Tamil Nadu"},{"pinCodeSeq":6767,"postOfficeName":"Arni H O","pinCode":"632301","city":"Vellore","district":"Vellore","state":"Tamil Nadu"},{"pinCodeSeq":6768,"postOfficeName":"Arunagirichatram","pinCode":"632301","city":"Vellore","district":"Vellore","state":"Tamil Nadu"},{"pinCodeSeq":6769,"postOfficeName":"Saidapettai Arni","pinCode":"632301","city":"Vellore","district":"Vellore","state":"Tamil Nadu"},{"pinCodeSeq":6771,"postOfficeName":"Kattukanur","pinCode":"632312","city":"Vellore","district":"Vellore","state":"Tamil Nadu"},{"pinCodeSeq":6772,"postOfficeName":"Kolappalur N A","pinCode":"632313","city":"Vellore","district":"Vellore","state":"Tamil Nadu"},{"pinCodeSeq":6773,"postOfficeName":"Kunnathur Arni","pinCode":"632314","city":"Vellore","district":"Vellore","state":"Tamil Nadu"},{"pinCodeSeq":6774,"postOfficeName":"Onnupuram","pinCode":"632315","city":"Vellore","district":"Vellore","state":"Tamil Nadu"},{"pinCodeSeq":6775,"postOfficeName":"Chevur","pinCode":"632316","city":"Vellore","district":"Vellore","state":"Tamil Nadu"},{"pinCodeSeq":6776,"postOfficeName":"Satyavizhianagaram","pinCode":"632317","city":"Vellore","district":"Vellore","state":"Tamil Nadu"},{"pinCodeSeq":6777,"postOfficeName":"Valapandal","pinCode":"632318","city":"Vellore","district":"Vellore","state":"Tamil Nadu"},{"pinCodeSeq":6778,"postOfficeName":"Kammavanpettai","pinCode":"632319","city":"Vellore","district":"Vellore","state":"Tamil Nadu"},{"pinCodeSeq":6779,"postOfficeName":"Sedarampatti","pinCode":"632320","city":"Vellore","district":"Vellore","state":"Tamil Nadu"},{"pinCodeSeq":6780,"postOfficeName":"Munugapattu","pinCode":"632322","city":"Vellore","district":"Vellore","state":"Tamil Nadu"},{"pinCodeSeq":6781,"postOfficeName":"Melsishamangalam","pinCode":"632323","city":"Vellore","district":"Vellore","state":"Tamil Nadu"},{"pinCodeSeq":6782,"postOfficeName":"Nanjukondapuram","pinCode":"632324","city":"Vellore","district":"Vellore","state":"Tamil Nadu"},{"pinCodeSeq":6783,"postOfficeName":"Sirumur","pinCode":"632325","city":"Vellore","district":"Vellore","state":"Tamil Nadu"},{"pinCodeSeq":6784,"postOfficeName":"Ranipet Bazaar","pinCode":"632401","city":"Vellore","district":"Vellore","state":"Tamil Nadu"},{"pinCodeSeq":6785,"postOfficeName":"Ranipet East","pinCode":"632401","city":"Vellore","district":"Vellore","state":"Tamil Nadu"},{"pinCodeSeq":6786,"postOfficeName":"Ranipet H O","pinCode":"632401","city":"Vellore","district":"Vellore","state":"Tamil Nadu"},{"pinCodeSeq":6787,"postOfficeName":"Navalpur","pinCode":"632402","city":"Vellore","district":"Vellore","state":"Tamil Nadu"},{"pinCodeSeq":6788,"postOfficeName":"Ranipet Ind Estate","pinCode":"632403","city":"Vellore","district":"Vellore","state":"Tamil Nadu"},{"pinCodeSeq":6789,"postOfficeName":"Karai N A","pinCode":"632404","city":"Vellore","district":"Vellore","state":"Tamil Nadu"},{"pinCodeSeq":6790,"postOfficeName":"Mukundarayapuram","pinCode":"632405","city":"Vellore","district":"Vellore","state":"Tamil Nadu"},{"pinCodeSeq":6792,"postOfficeName":"Anavardhikhanpettai","pinCode":"632502","city":"Vellore","district":"Vellore","state":"Tamil Nadu"},{"pinCodeSeq":6793,"postOfficeName":"Arcot Bazaar","pinCode":"632503","city":"Vellore","district":"Vellore","state":"Tamil Nadu"},{"pinCodeSeq":6794,"postOfficeName":"Arcot H O","pinCode":"632503","city":"Vellore","district":"Vellore","state":"Tamil Nadu"},{"pinCodeSeq":6795,"postOfficeName":"Arcot West","pinCode":"632503","city":"Vellore","district":"Vellore","state":"Tamil Nadu"},{"pinCodeSeq":6796,"postOfficeName":"Arignar Anna Govt","pinCode":"632503","city":"Vellore","district":"Vellore","state":"Tamil Nadu"},{"pinCodeSeq":6797,"postOfficeName":"Thoppukana","pinCode":"632503","city":"Vellore","district":"Vellore","state":"Tamil Nadu"},{"pinCodeSeq":6798,"postOfficeName":"Damarapakkam","pinCode":"632504","city":"Vellore","district":"Vellore","state":"Tamil Nadu"},{"pinCodeSeq":6799,"postOfficeName":"Banavaram","pinCode":"632505","city":"Vellore","district":"Vellore","state":"Tamil Nadu"},{"pinCodeSeq":6801,"postOfficeName":"Kavanur","pinCode":"632507","city":"Vellore","district":"Vellore","state":"Tamil Nadu"},{"pinCodeSeq":6802,"postOfficeName":"Kaveripauk","pinCode":"632508","city":"Vellore","district":"Vellore","state":"Tamil Nadu"},{"pinCodeSeq":6803,"postOfficeName":"Melvishram","pinCode":"632509","city":"Vellore","district":"Vellore","state":"Tamil Nadu"},{"pinCodeSeq":6804,"postOfficeName":"Minnal","pinCode":"632510","city":"Vellore","district":"Vellore","state":"Tamil Nadu"},{"pinCodeSeq":6805,"postOfficeName":"Sakkaramallur","pinCode":"632511","city":"Vellore","district":"Vellore","state":"Tamil Nadu"},{"pinCodeSeq":6808,"postOfficeName":"Walajapet Bazar","pinCode":"632513","city":"Vellore","district":"Vellore","state":"Tamil Nadu"},{"pinCodeSeq":6809,"postOfficeName":"Ponnai","pinCode":"632514","city":"Vellore","district":"Vellore","state":"Tamil Nadu"},{"pinCodeSeq":6810,"postOfficeName":"Tiruvalam","pinCode":"632515","city":"Vellore","district":"Vellore","state":"Tamil Nadu"},{"pinCodeSeq":6811,"postOfficeName":"Vennampalle","pinCode":"632516","city":"Vellore","district":"Vellore","state":"Tamil Nadu"},{"pinCodeSeq":6812,"postOfficeName":"Ratnagiri Kilminnal","pinCode":"632517","city":"Vellore","district":"Vellore","state":"Tamil Nadu"},{"pinCodeSeq":6814,"postOfficeName":"Vellore Sugar Mills","pinCode":"632519","city":"Vellore","district":"Vellore","state":"Tamil Nadu"},{"pinCodeSeq":6816,"postOfficeName":"Ozhugur","pinCode":"632522","city":"Vellore","district":"Vellore","state":"Tamil Nadu"},{"pinCodeSeq":6818,"postOfficeName":"Valluvambakkam","pinCode":"632524","city":"Vellore","district":"Vellore","state":"Tamil Nadu"},{"pinCodeSeq":6819,"postOfficeName":"Moranam","pinCode":"632525","city":"Vellore","district":"Vellore","state":"Tamil Nadu"},{"pinCodeSeq":6820,"postOfficeName":"Kadaperi","pinCode":"632526","city":"Vellore","district":"Vellore","state":"Tamil Nadu"},{"pinCodeSeq":6822,"postOfficeName":"Brahmadesam","pinCode":"632528","city":"Vellore","district":"Vellore","state":"Tamil Nadu"},{"pinCodeSeq":6823,"postOfficeName":"Keerasathu","pinCode":"632529","city":"Vellore","district":"Vellore","state":"Tamil Nadu"},{"pinCodeSeq":6824,"postOfficeName":"Puttuthakku","pinCode":"632530","city":"Vellore","district":"Vellore","state":"Tamil Nadu"},{"pinCodeSeq":6825,"postOfficeName":"Ocheri","pinCode":"632531","city":"Vellore","district":"Vellore","state":"Tamil Nadu"},{"pinCodeSeq":6826,"postOfficeName":"Dharnampet","pinCode":"632601","city":"Vellore","district":"Vellore","state":"Tamil Nadu"},{"pinCodeSeq":6827,"postOfficeName":"Pichanur Gudiyattam","pinCode":"632601","city":"Vellore","district":"Vellore","state":"Tamil Nadu"},{"pinCodeSeq":6828,"postOfficeName":"Gudiyattam Cutcherry","pinCode":"632602","city":"Vellore","district":"Vellore","state":"Tamil Nadu"},{"pinCodeSeq":6829,"postOfficeName":"Gudiyattam H O","pinCode":"632602","city":"Vellore","district":"Vellore","state":"Tamil Nadu"},{"pinCodeSeq":6830,"postOfficeName":"Gudiyattam South","pinCode":"632602","city":"Vellore","district":"Vellore","state":"Tamil Nadu"},{"pinCodeSeq":6831,"postOfficeName":"Paradarami","pinCode":"632603","city":"Vellore","district":"Vellore","state":"Tamil Nadu"},{"pinCodeSeq":6832,"postOfficeName":"Gandhi Nagar Gudiyatham","pinCode":"632604","city":"Vellore","district":"Vellore","state":"Tamil Nadu"},{"pinCodeSeq":6833,"postOfficeName":"Sempalli","pinCode":"632605","city":"Vellore","district":"Vellore","state":"Tamil Nadu"},{"pinCodeSeq":6834,"postOfficeName":"Kallapadi","pinCode":"632606","city":"Vellore","district":"Vellore","state":"Tamil Nadu"},{"pinCodeSeq":6835,"postOfficeName":"Veerisettipall","pinCode":"632607","city":"Vellore","district":"Vellore","state":"Tamil Nadu"},{"pinCodeSeq":6836,"postOfficeName":"Kizhalathur","pinCode":"632608","city":"Vellore","district":"Vellore","state":"Tamil Nadu"},{"pinCodeSeq":6873,"postOfficeName":"Agraharam","pinCode":"635129","city":"Vellore","district":"Vellore","state":"Tamil Nadu"},{"pinCodeSeq":6880,"postOfficeName":"Jagadab","pinCode":"635135","city":"Vellore","district":"Vellore","state":"Tamil Nadu"},{"pinCodeSeq":6896,"postOfficeName":"Jagadevi","pinCode":"635210","city":"Vellore","district":"Vellore","state":"Tamil Nadu"},{"pinCodeSeq":6916,"postOfficeName":"Tiruppatur Bazar","pinCode":"635602","city":"Vellore","district":"Vellore","state":"Tamil Nadu"},{"pinCodeSeq":6918,"postOfficeName":"Pudupettai","pinCode":"635651","city":"Vellore","district":"Vellore","state":"Tamil Nadu"},{"pinCodeSeq":6920,"postOfficeName":"Vengalapurm","pinCode":"635653","city":"Vellore","district":"Vellore","state":"Tamil Nadu"},{"pinCodeSeq":6924,"postOfficeName":"Jayapuram","pinCode":"635657","city":"Vellore","district":"Vellore","state":"Tamil Nadu"},{"pinCodeSeq":6930,"postOfficeName":"Andiappanur","pinCode":"635702","city":"Vellore","district":"Vellore","state":"Tamil Nadu"},{"pinCodeSeq":6931,"postOfficeName":"Jamanamarathur","pinCode":"635703","city":"Vellore","district":"Vellore","state":"Tamil Nadu"},{"pinCodeSeq":6939,"postOfficeName":"Pudur","pinCode":"635751","city":"Vellore","district":"Vellore","state":"Tamil Nadu"},{"pinCodeSeq":6940,"postOfficeName":"Vanimbadi","pinCode":"635751","city":"Vellore","district":"Vellore","state":"Tamil Nadu"},{"pinCodeSeq":6941,"postOfficeName":"Vanimbadi Cutcherry","pinCode":"635751","city":"Vellore","district":"Vellore","state":"Tamil Nadu"},{"pinCodeSeq":6943,"postOfficeName":"Khaderpet","pinCode":"635753","city":"Vellore","district":"Vellore","state":"Tamil Nadu"},{"pinCodeSeq":6946,"postOfficeName":"Vellakuttai","pinCode":"635756","city":"Vellore","district":"Vellore","state":"Tamil Nadu"},{"pinCodeSeq":6949,"postOfficeName":"Ambalur","pinCode":"635801","city":"Vellore","district":"Vellore","state":"Tamil Nadu"},{"pinCodeSeq":6953,"postOfficeName":"Gudiyattam R S","pinCode":"635803","city":"Vellore","district":"Vellore","state":"Tamil Nadu"},{"pinCodeSeq":6954,"postOfficeName":"Madanur","pinCode":"635804","city":"Vellore","district":"Vellore","state":"Tamil Nadu"},{"pinCodeSeq":6955,"postOfficeName":"Mailpatti","pinCode":"635805","city":"Vellore","district":"Vellore","state":"Tamil Nadu"},{"pinCodeSeq":6956,"postOfficeName":"Melalathur","pinCode":"635806","city":"Vellore","district":"Vellore","state":"Tamil Nadu"},{"pinCodeSeq":6957,"postOfficeName":"Minnur","pinCode":"635807","city":"Vellore","district":"Vellore","state":"Tamil Nadu"},{"pinCodeSeq":6958,"postOfficeName":"Oomarabad","pinCode":"635808","city":"Vellore","district":"Vellore","state":"Tamil Nadu"},{"pinCodeSeq":6960,"postOfficeName":"Perambur","pinCode":"635810","city":"Vellore","district":"Vellore","state":"Tamil Nadu"},{"pinCodeSeq":6962,"postOfficeName":"Vadapudpet","pinCode":"635812","city":"Vellore","district":"Vellore","state":"Tamil Nadu"},{"pinCodeSeq":6963,"postOfficeName":"Valathoor","pinCode":"635813","city":"Vellore","district":"Vellore","state":"Tamil Nadu"},{"pinCodeSeq":6964,"postOfficeName":"Shanakuppam","pinCode":"635814","city":"Vellore","district":"Vellore","state":"Tamil Nadu"},{"pinCodeSeq":6965,"postOfficeName":"Kethandapatti Sugar Mills","pinCode":"635815","city":"Vellore","district":"Vellore","state":"Tamil Nadu"},{"pinCodeSeq":6969,"postOfficeName":"Nariyambattu","pinCode":"635819","city":"Vellore","district":"Vellore","state":"Tamil Nadu"},{"pinCodeSeq":6977,"postOfficeName":"Jolarpettai","pinCode":"635851","city":"Vellore","district":"Vellore","state":"Tamil Nadu"},{"pinCodeSeq":6978,"postOfficeName":"Pakkirthakka","pinCode":"635853","city":"Vellore","district":"Vellore","state":"Tamil Nadu"},{"pinCodeSeq":6979,"postOfficeName":"Pachur","pinCode":"635854","city":"Vellore","district":"Vellore","state":"Tamil Nadu"},{"pinCodeSeq":6984,"postOfficeName":"Agraharam","pinCode":"636001","city":"Vellore","district":"Vellore","state":"Tamil Nadu"},{"pinCodeSeq":7156,"postOfficeName":"Varagur","pinCode":"637021","city":"Vellore","district":"Vellore","state":"Tamil Nadu"},{"pinCodeSeq":7205,"postOfficeName":"Pattanam","pinCode":"637413","city":"Vellore","district":"Vellore","state":"Tamil Nadu"},{"pinCodeSeq":7223,"postOfficeName":"Agraharam","pinCode":"638008","city":"Vellore","district":"Vellore","state":"Tamil Nadu"},{"pinCodeSeq":7290,"postOfficeName":"Rangasamudram","pinCode":"638402","city":"Vellore","district":"Vellore","state":"Tamil Nadu"}]