[{"pinCodeSeq":4190,"postOfficeName":"Korattur","pinCode":"600080","city":"Viluppuram","district":"Viluppuram","state":"Tamil Nadu"},{"pinCodeSeq":4387,"postOfficeName":"Kanakkankuppam","pinCode":"604155","city":"Viluppuram","district":"Viluppuram","state":"Tamil Nadu"},{"pinCodeSeq":4388,"postOfficeName":"Avalurpet","pinCode":"604201","city":"Viluppuram","district":"Viluppuram","state":"Tamil Nadu"},{"pinCodeSeq":4390,"postOfficeName":"Melolakkur","pinCode":"604203","city":"Viluppuram","district":"Viluppuram","state":"Tamil Nadu"},{"pinCodeSeq":4394,"postOfficeName":"Valathi","pinCode":"604208","city":"Viluppuram","district":"Viluppuram","state":"Tamil Nadu"},{"pinCodeSeq":4395,"postOfficeName":"Illodu","pinCode":"604210","city":"Viluppuram","district":"Viluppuram","state":"Tamil Nadu"},{"pinCodeSeq":4396,"postOfficeName":"Modaiyur","pinCode":"604212","city":"Viluppuram","district":"Viluppuram","state":"Tamil Nadu"},{"pinCodeSeq":4437,"postOfficeName":"Vanur","pinCode":"605109","city":"Viluppuram","district":"Viluppuram","state":"Tamil Nadu"},{"pinCodeSeq":4461,"postOfficeName":"Pombur","pinCode":"605655","city":"Viluppuram","district":"Viluppuram","state":"Tamil Nadu"},{"pinCodeSeq":4488,"postOfficeName":"Kalamarudur","pinCode":"606102","city":"Viluppuram","district":"Viluppuram","state":"Tamil Nadu"},{"pinCodeSeq":4518,"postOfficeName":"Asanur","pinCode":"606305","city":"Viluppuram","district":"Viluppuram","state":"Tamil Nadu"},{"pinCodeSeq":4546,"postOfficeName":"Sathanur","pinCode":"606718","city":"Viluppuram","district":"Viluppuram","state":"Tamil Nadu"},{"pinCodeSeq":4573,"postOfficeName":"Gangavaram","pinCode":"606911","city":"Viluppuram","district":"Viluppuram","state":"Tamil Nadu"},{"pinCodeSeq":4595,"postOfficeName":"Anathur","pinCode":"607101","city":"Viluppuram","district":"Viluppuram","state":"Tamil Nadu"},{"pinCodeSeq":4605,"postOfficeName":"Perangiyur","pinCode":"607107","city":"Viluppuram","district":"Viluppuram","state":"Tamil Nadu"},{"pinCodeSeq":4617,"postOfficeName":"Madapattu","pinCode":"607207","city":"Viluppuram","district":"Viluppuram","state":"Tamil Nadu"},{"pinCodeSeq":5262,"postOfficeName":"Annamangalam","pinCode":"621102","city":"Viluppuram","district":"Viluppuram","state":"Tamil Nadu"},{"pinCodeSeq":5305,"postOfficeName":"Amur","pinCode":"621221","city":"Viluppuram","district":"Viluppuram","state":"Tamil Nadu"},{"pinCodeSeq":5991,"postOfficeName":"Aviyur","pinCode":"626160","city":"Viluppuram","district":"Viluppuram","state":"Tamil Nadu"},{"pinCodeSeq":6001,"postOfficeName":"Puthur","pinCode":"626169","city":"Viluppuram","district":"Viluppuram","state":"Tamil Nadu"},{"pinCodeSeq":6417,"postOfficeName":"Kurumbur","pinCode":"628207","city":"Viluppuram","district":"Viluppuram","state":"Tamil Nadu"},{"pinCodeSeq":6813,"postOfficeName":"Pennagar","pinCode":"632518","city":"Viluppuram","district":"Viluppuram","state":"Tamil Nadu"},{"pinCodeSeq":7171,"postOfficeName":"Kumaramangalam","pinCode":"637205","city":"Viluppuram","district":"Viluppuram","state":"Tamil Nadu"},{"pinCodeSeq":7203,"postOfficeName":"Semmedu","pinCode":"637411","city":"Viluppuram","district":"Viluppuram","state":"Tamil Nadu"},{"pinCodeSeq":7511,"postOfficeName":"Tadagam","pinCode":"641108","city":"Viluppuram","district":"Viluppuram","state":"Tamil Nadu"}]