[{"pinCodeSeq":4732,"postOfficeName":"Vadakarai","pinCode":"609314","city":"Virudhunagar","district":"Virudhunagar","state":"Tamil Nadu"},{"pinCodeSeq":5320,"postOfficeName":"Vaiyampatti","pinCode":"621315","city":"Virudhunagar","district":"Virudhunagar","state":"Tamil Nadu"},{"pinCodeSeq":5891,"postOfficeName":"Kamarajanagar","pinCode":"626001","city":"Virudhunagar","district":"Virudhunagar","state":"Tamil Nadu"},{"pinCodeSeq":5892,"postOfficeName":"Virudhunagar Bazar","pinCode":"626001","city":"Virudhunagar","district":"Virudhunagar","state":"Tamil Nadu"},{"pinCodeSeq":5893,"postOfficeName":"Virudhunagar Bus Stand","pinCode":"626001","city":"Virudhunagar","district":"Virudhunagar","state":"Tamil Nadu"},{"pinCodeSeq":5894,"postOfficeName":"Virudhunagar Extension","pinCode":"626001","city":"Virudhunagar","district":"Virudhunagar","state":"Tamil Nadu"},{"pinCodeSeq":5895,"postOfficeName":"Virudhunagar H O","pinCode":"626001","city":"Virudhunagar","district":"Virudhunagar","state":"Tamil Nadu"},{"pinCodeSeq":5896,"postOfficeName":"Virudhunagar North","pinCode":"626001","city":"Virudhunagar","district":"Virudhunagar","state":"Tamil Nadu"},{"pinCodeSeq":5897,"postOfficeName":"Virudhunagar Rs","pinCode":"626001","city":"Virudhunagar","district":"Virudhunagar","state":"Tamil Nadu"},{"pinCodeSeq":5898,"postOfficeName":"Virudhunagar Town","pinCode":"626001","city":"Virudhunagar","district":"Virudhunagar","state":"Tamil Nadu"},{"pinCodeSeq":5899,"postOfficeName":"Virudhunagar West","pinCode":"626001","city":"Virudhunagar","district":"Virudhunagar","state":"Tamil Nadu"},{"pinCodeSeq":5900,"postOfficeName":"Virudhunagar Ind Estate","pinCode":"626003","city":"Virudhunagar","district":"Virudhunagar","state":"Tamil Nadu"},{"pinCodeSeq":5901,"postOfficeName":"Palavanatham","pinCode":"626004","city":"Virudhunagar","district":"Virudhunagar","state":"Tamil Nadu"},{"pinCodeSeq":5902,"postOfficeName":"Amathur","pinCode":"626005","city":"Virudhunagar","district":"Virudhunagar","state":"Tamil Nadu"},{"pinCodeSeq":5903,"postOfficeName":"Mullipatti","pinCode":"626051","city":"Virudhunagar","district":"Virudhunagar","state":"Tamil Nadu"},{"pinCodeSeq":5904,"postOfficeName":"Pattambudur","pinCode":"626052","city":"Virudhunagar","district":"Virudhunagar","state":"Tamil Nadu"},{"pinCodeSeq":5905,"postOfficeName":"Kullursandai","pinCode":"626053","city":"Virudhunagar","district":"Virudhunagar","state":"Tamil Nadu"},{"pinCodeSeq":5906,"postOfficeName":"Malaipatti","pinCode":"626054","city":"Virudhunagar","district":"Virudhunagar","state":"Tamil Nadu"},{"pinCodeSeq":5907,"postOfficeName":"Kodkalancheri","pinCode":"626055","city":"Virudhunagar","district":"Virudhunagar","state":"Tamil Nadu"},{"pinCodeSeq":5908,"postOfficeName":"Alagianallur","pinCode":"626056","city":"Virudhunagar","district":"Virudhunagar","state":"Tamil Nadu"},{"pinCodeSeq":5910,"postOfficeName":"Messalur","pinCode":"626058","city":"Virudhunagar","district":"Virudhunagar","state":"Tamil Nadu"},{"pinCodeSeq":5911,"postOfficeName":"Avalsurampatti","pinCode":"626059","city":"Virudhunagar","district":"Virudhunagar","state":"Tamil Nadu"},{"pinCodeSeq":5912,"postOfficeName":"Aruppukkottai H O","pinCode":"626101","city":"Virudhunagar","district":"Virudhunagar","state":"Tamil Nadu"},{"pinCodeSeq":5913,"postOfficeName":"Aruppukottai Bazaar","pinCode":"626101","city":"Virudhunagar","district":"Virudhunagar","state":"Tamil Nadu"},{"pinCodeSeq":5914,"postOfficeName":"Aruppukottai East","pinCode":"626101","city":"Virudhunagar","district":"Virudhunagar","state":"Tamil Nadu"},{"pinCodeSeq":5915,"postOfficeName":"Aruppukottai Nehru Maidan","pinCode":"626101","city":"Virudhunagar","district":"Virudhunagar","state":"Tamil Nadu"},{"pinCodeSeq":5916,"postOfficeName":"Aruppukottai West","pinCode":"626101","city":"Virudhunagar","district":"Virudhunagar","state":"Tamil Nadu"},{"pinCodeSeq":5917,"postOfficeName":"Aruvankadu","pinCode":"626101","city":"Virudhunagar","district":"Virudhunagar","state":"Tamil Nadu"},{"pinCodeSeq":5918,"postOfficeName":"Chatrapatti Virudhunagar","pinCode":"626102","city":"Virudhunagar","district":"Virudhunagar","state":"Tamil Nadu"},{"pinCodeSeq":5919,"postOfficeName":"Erichinatham","pinCode":"626103","city":"Virudhunagar","district":"Virudhunagar","state":"Tamil Nadu"},{"pinCodeSeq":5920,"postOfficeName":"Kalkurchi","pinCode":"626104","city":"Virudhunagar","district":"Virudhunagar","state":"Tamil Nadu"},{"pinCodeSeq":5921,"postOfficeName":"Kallurani","pinCode":"626105","city":"Virudhunagar","district":"Virudhunagar","state":"Tamil Nadu"},{"pinCodeSeq":5922,"postOfficeName":"Kanapatti","pinCode":"626106","city":"Virudhunagar","district":"Virudhunagar","state":"Tamil Nadu"},{"pinCodeSeq":5923,"postOfficeName":"Kovilangulam","pinCode":"626107","city":"Virudhunagar","district":"Virudhunagar","state":"Tamil Nadu"},{"pinCodeSeq":5924,"postOfficeName":"Kumarasamirajanagar","pinCode":"626108","city":"Virudhunagar","district":"Virudhunagar","state":"Tamil Nadu"},{"pinCodeSeq":5925,"postOfficeName":"Mallanginar","pinCode":"626109","city":"Virudhunagar","district":"Virudhunagar","state":"Tamil Nadu"},{"pinCodeSeq":5926,"postOfficeName":"Vellaur Mdu","pinCode":"626109","city":"Virudhunagar","district":"Virudhunagar","state":"Tamil Nadu"},{"pinCodeSeq":5927,"postOfficeName":"Sahibpuram","pinCode":"626110","city":"Virudhunagar","district":"Virudhunagar","state":"Tamil Nadu"},{"pinCodeSeq":5928,"postOfficeName":"Muhavur","pinCode":"626111","city":"Virudhunagar","district":"Virudhunagar","state":"Tamil Nadu"},{"pinCodeSeq":5929,"postOfficeName":"Palayampatti","pinCode":"626112","city":"Virudhunagar","district":"Virudhunagar","state":"Tamil Nadu"},{"pinCodeSeq":5930,"postOfficeName":"Panthalkudi","pinCode":"626113","city":"Virudhunagar","district":"Virudhunagar","state":"Tamil Nadu"},{"pinCodeSeq":5931,"postOfficeName":"Paralachi","pinCode":"626114","city":"Virudhunagar","district":"Virudhunagar","state":"Tamil Nadu"},{"pinCodeSeq":5932,"postOfficeName":"Perunali","pinCode":"626115","city":"Virudhunagar","district":"Virudhunagar","state":"Tamil Nadu"},{"pinCodeSeq":5933,"postOfficeName":"Pudupatti Watrap","pinCode":"626116","city":"Virudhunagar","district":"Virudhunagar","state":"Tamil Nadu"},{"pinCodeSeq":5934,"postOfficeName":"Ambalapuli Bazaar","pinCode":"626117","city":"Virudhunagar","district":"Virudhunagar","state":"Tamil Nadu"},{"pinCodeSeq":5940,"postOfficeName":"Reddiarpatti","pinCode":"626118","city":"Virudhunagar","district":"Virudhunagar","state":"Tamil Nadu"},{"pinCodeSeq":5941,"postOfficeName":"Sankarlingapuram","pinCode":"626119","city":"Virudhunagar","district":"Virudhunagar","state":"Tamil Nadu"},{"pinCodeSeq":5944,"postOfficeName":"Settiyarpatti","pinCode":"626122","city":"Virudhunagar","district":"Virudhunagar","state":"Tamil Nadu"},{"pinCodeSeq":5945,"postOfficeName":"Ammankoilpatti","pinCode":"626123","city":"Virudhunagar","district":"Virudhunagar","state":"Tamil Nadu"},{"pinCodeSeq":5946,"postOfficeName":"Sivakasi Bazaar","pinCode":"626123","city":"Virudhunagar","district":"Virudhunagar","state":"Tamil Nadu"},{"pinCodeSeq":5947,"postOfficeName":"Sivakasi Bus Stand","pinCode":"626123","city":"Virudhunagar","district":"Virudhunagar","state":"Tamil Nadu"},{"pinCodeSeq":5948,"postOfficeName":"Sivakasi Coronation Cly","pinCode":"626123","city":"Virudhunagar","district":"Virudhunagar","state":"Tamil Nadu"},{"pinCodeSeq":5949,"postOfficeName":"Sivakasi H O","pinCode":"626123","city":"Virudhunagar","district":"Virudhunagar","state":"Tamil Nadu"},{"pinCodeSeq":5950,"postOfficeName":"Sivakasi R S","pinCode":"626123","city":"Virudhunagar","district":"Virudhunagar","state":"Tamil Nadu"},{"pinCodeSeq":5951,"postOfficeName":"Sivakasi South","pinCode":"626123","city":"Virudhunagar","district":"Virudhunagar","state":"Tamil Nadu"},{"pinCodeSeq":5952,"postOfficeName":"Sivakasi West","pinCode":"626124","city":"Virudhunagar","district":"Virudhunagar","state":"Tamil Nadu"},{"pinCodeSeq":5953,"postOfficeName":"Medavar Vilagam","pinCode":"626125","city":"Virudhunagar","district":"Virudhunagar","state":"Tamil Nadu"},{"pinCodeSeq":5954,"postOfficeName":"Pennington Market","pinCode":"626125","city":"Virudhunagar","district":"Virudhunagar","state":"Tamil Nadu"},{"pinCodeSeq":5955,"postOfficeName":"Srivalliputtur H O","pinCode":"626125","city":"Virudhunagar","district":"Virudhunagar","state":"Tamil Nadu"},{"pinCodeSeq":5956,"postOfficeName":"Srivilliputtur North","pinCode":"626125","city":"Virudhunagar","district":"Virudhunagar","state":"Tamil Nadu"},{"pinCodeSeq":5958,"postOfficeName":"Tamilnadu Cements","pinCode":"626127","city":"Virudhunagar","district":"Virudhunagar","state":"Tamil Nadu"},{"pinCodeSeq":5959,"postOfficeName":"Thayilpatti","pinCode":"626128","city":"Virudhunagar","district":"Virudhunagar","state":"Tamil Nadu"},{"pinCodeSeq":5960,"postOfficeName":"Tiruchuli","pinCode":"626129","city":"Virudhunagar","district":"Virudhunagar","state":"Tamil Nadu"},{"pinCodeSeq":5961,"postOfficeName":"Tiruthangal","pinCode":"626130","city":"Virudhunagar","district":"Virudhunagar","state":"Tamil Nadu"},{"pinCodeSeq":5962,"postOfficeName":"Vembakottai","pinCode":"626131","city":"Virudhunagar","district":"Virudhunagar","state":"Tamil Nadu"},{"pinCodeSeq":5963,"postOfficeName":"Watrap","pinCode":"626132","city":"Virudhunagar","district":"Virudhunagar","state":"Tamil Nadu"},{"pinCodeSeq":5964,"postOfficeName":"Kummapatti","pinCode":"626133","city":"Virudhunagar","district":"Virudhunagar","state":"Tamil Nadu"},{"pinCodeSeq":5966,"postOfficeName":"Kannirajapuram","pinCode":"626135","city":"Virudhunagar","district":"Virudhunagar","state":"Tamil Nadu"},{"pinCodeSeq":5967,"postOfficeName":"Kilarajakularaman","pinCode":"626136","city":"Virudhunagar","district":"Virudhunagar","state":"Tamil Nadu"},{"pinCodeSeq":5968,"postOfficeName":"Pillayarkulam","pinCode":"626137","city":"Virudhunagar","district":"Virudhunagar","state":"Tamil Nadu"},{"pinCodeSeq":5969,"postOfficeName":"Kunnur","pinCode":"626138","city":"Virudhunagar","district":"Virudhunagar","state":"Tamil Nadu"},{"pinCodeSeq":5970,"postOfficeName":"Cholapuram South","pinCode":"626139","city":"Virudhunagar","district":"Virudhunagar","state":"Tamil Nadu"},{"pinCodeSeq":5971,"postOfficeName":"Sevalpatti","pinCode":"626140","city":"Virudhunagar","district":"Virudhunagar","state":"Tamil Nadu"},{"pinCodeSeq":5972,"postOfficeName":"Malli","pinCode":"626141","city":"Virudhunagar","district":"Virudhunagar","state":"Tamil Nadu"},{"pinCodeSeq":5973,"postOfficeName":"Sundaranchiapuram","pinCode":"626142","city":"Virudhunagar","district":"Virudhunagar","state":"Tamil Nadu"},{"pinCodeSeq":5975,"postOfficeName":"Devadanam","pinCode":"626145","city":"Virudhunagar","district":"Virudhunagar","state":"Tamil Nadu"},{"pinCodeSeq":5976,"postOfficeName":"Ilandaikulam","pinCode":"626146","city":"Virudhunagar","district":"Virudhunagar","state":"Tamil Nadu"},{"pinCodeSeq":5977,"postOfficeName":"Melpattamkarisalkulam","pinCode":"626147","city":"Virudhunagar","district":"Virudhunagar","state":"Tamil Nadu"},{"pinCodeSeq":5978,"postOfficeName":"Meenkashipuram","pinCode":"626148","city":"Virudhunagar","district":"Virudhunagar","state":"Tamil Nadu"},{"pinCodeSeq":5979,"postOfficeName":"Maharajapuram","pinCode":"626149","city":"Virudhunagar","district":"Virudhunagar","state":"Tamil Nadu"},{"pinCodeSeq":5980,"postOfficeName":"Nachiarkoil","pinCode":"626150","city":"Virudhunagar","district":"Virudhunagar","state":"Tamil Nadu"},{"pinCodeSeq":5981,"postOfficeName":"Nattampatti","pinCode":"626151","city":"Virudhunagar","district":"Virudhunagar","state":"Tamil Nadu"},{"pinCodeSeq":5982,"postOfficeName":"Koppusithampatti","pinCode":"626152","city":"Virudhunagar","district":"Virudhunagar","state":"Tamil Nadu"},{"pinCodeSeq":5983,"postOfficeName":"Sivalaingapuram","pinCode":"626153","city":"Virudhunagar","district":"Virudhunagar","state":"Tamil Nadu"},{"pinCodeSeq":5984,"postOfficeName":"Vaithilingapuram","pinCode":"626154","city":"Virudhunagar","district":"Virudhunagar","state":"Tamil Nadu"},{"pinCodeSeq":5985,"postOfficeName":"Neeravikarisalkulam","pinCode":"626155","city":"Virudhunagar","district":"Virudhunagar","state":"Tamil Nadu"},{"pinCodeSeq":5986,"postOfficeName":"S Tharaikudi","pinCode":"626156","city":"Virudhunagar","district":"Virudhunagar","state":"Tamil Nadu"},{"pinCodeSeq":5987,"postOfficeName":"Vellayapuram","pinCode":"626157","city":"Virudhunagar","district":"Virudhunagar","state":"Tamil Nadu"},{"pinCodeSeq":5988,"postOfficeName":"Ethilodu","pinCode":"626158","city":"Virudhunagar","district":"Virudhunagar","state":"Tamil Nadu"},{"pinCodeSeq":5989,"postOfficeName":"Vilampatti","pinCode":"626158","city":"Virudhunagar","district":"Virudhunagar","state":"Tamil Nadu"},{"pinCodeSeq":5990,"postOfficeName":"Ramasaminagar","pinCode":"626159","city":"Virudhunagar","district":"Virudhunagar","state":"Tamil Nadu"},{"pinCodeSeq":5992,"postOfficeName":"Puliyuram","pinCode":"626161","city":"Virudhunagar","district":"Virudhunagar","state":"Tamil Nadu"},{"pinCodeSeq":5993,"postOfficeName":"Naripaiyur","pinCode":"626162","city":"Virudhunagar","district":"Virudhunagar","state":"Tamil Nadu"},{"pinCodeSeq":5994,"postOfficeName":"Zamin Kollangondan","pinCode":"626163","city":"Virudhunagar","district":"Virudhunagar","state":"Tamil Nadu"},{"pinCodeSeq":5995,"postOfficeName":"Sethunarayanapuram","pinCode":"626164","city":"Virudhunagar","district":"Virudhunagar","state":"Tamil Nadu"},{"pinCodeSeq":5996,"postOfficeName":"Anuppankulam","pinCode":"626165","city":"Virudhunagar","district":"Virudhunagar","state":"Tamil Nadu"},{"pinCodeSeq":5997,"postOfficeName":"Varaganur","pinCode":"626166","city":"Virudhunagar","district":"Virudhunagar","state":"Tamil Nadu"},{"pinCodeSeq":5998,"postOfficeName":"Kottaiyur","pinCode":"626167","city":"Virudhunagar","district":"Virudhunagar","state":"Tamil Nadu"},{"pinCodeSeq":5999,"postOfficeName":"Kottaiyur Guruswamy","pinCode":"626167","city":"Virudhunagar","district":"Virudhunagar","state":"Tamil Nadu"},{"pinCodeSeq":6000,"postOfficeName":"Terku Venganallur","pinCode":"626168","city":"Virudhunagar","district":"Virudhunagar","state":"Tamil Nadu"},{"pinCodeSeq":6002,"postOfficeName":"Kansapuram","pinCode":"626170","city":"Virudhunagar","district":"Virudhunagar","state":"Tamil Nadu"},{"pinCodeSeq":6003,"postOfficeName":"M Pudupatti","pinCode":"626171","city":"Virudhunagar","district":"Virudhunagar","state":"Tamil Nadu"},{"pinCodeSeq":6004,"postOfficeName":"Mudalipatti","pinCode":"626172","city":"Virudhunagar","district":"Virudhunagar","state":"Tamil Nadu"},{"pinCodeSeq":6005,"postOfficeName":"Vetrilaiyurani","pinCode":"626173","city":"Virudhunagar","district":"Virudhunagar","state":"Tamil Nadu"},{"pinCodeSeq":6006,"postOfficeName":"Nallamanaickenpatti","pinCode":"626175","city":"Virudhunagar","district":"Virudhunagar","state":"Tamil Nadu"},{"pinCodeSeq":6008,"postOfficeName":"Eluppaiyur","pinCode":"626177","city":"Virudhunagar","district":"Virudhunagar","state":"Tamil Nadu"},{"pinCodeSeq":6009,"postOfficeName":"Illuppaiyur","pinCode":"626177","city":"Virudhunagar","district":"Virudhunagar","state":"Tamil Nadu"},{"pinCodeSeq":6010,"postOfficeName":"Karisalkulam","pinCode":"626178","city":"Virudhunagar","district":"Virudhunagar","state":"Tamil Nadu"},{"pinCodeSeq":6011,"postOfficeName":"Maraneri","pinCode":"626179","city":"Virudhunagar","district":"Virudhunagar","state":"Tamil Nadu"},{"pinCodeSeq":6013,"postOfficeName":"Injar","pinCode":"626180","city":"Virudhunagar","district":"Virudhunagar","state":"Tamil Nadu"},{"pinCodeSeq":6014,"postOfficeName":"Sengundapuram","pinCode":"626181","city":"Virudhunagar","district":"Virudhunagar","state":"Tamil Nadu"},{"pinCodeSeq":6016,"postOfficeName":"Vadhuvarpatti","pinCode":"626183","city":"Virudhunagar","district":"Virudhunagar","state":"Tamil Nadu"},{"pinCodeSeq":6018,"postOfficeName":"Villuppanur","pinCode":"626186","city":"Virudhunagar","district":"Virudhunagar","state":"Tamil Nadu"},{"pinCodeSeq":6019,"postOfficeName":"Idivilagi","pinCode":"626187","city":"Virudhunagar","district":"Virudhunagar","state":"Tamil Nadu"},{"pinCodeSeq":6020,"postOfficeName":"Dalavaipuram","pinCode":"626188","city":"Virudhunagar","district":"Virudhunagar","state":"Tamil Nadu"},{"pinCodeSeq":6021,"postOfficeName":"Musittakurichi","pinCode":"626195","city":"Virudhunagar","district":"Virudhunagar","state":"Tamil Nadu"},{"pinCodeSeq":6023,"postOfficeName":"Nenmeni","pinCode":"626202","city":"Virudhunagar","district":"Virudhunagar","state":"Tamil Nadu"},{"pinCodeSeq":6027,"postOfficeName":"Ramasamyrajanagar","pinCode":"626204","city":"Virudhunagar","district":"Virudhunagar","state":"Tamil Nadu"},{"pinCodeSeq":6028,"postOfficeName":"Uppathur","pinCode":"626205","city":"Virudhunagar","district":"Virudhunagar","state":"Tamil Nadu"},{"pinCodeSeq":6029,"postOfficeName":"Irukkangudi","pinCode":"626206","city":"Virudhunagar","district":"Virudhunagar","state":"Tamil Nadu"},{"pinCodeSeq":6030,"postOfficeName":"Koil","pinCode":"626207","city":"Virudhunagar","district":"Virudhunagar","state":"Tamil Nadu"},{"pinCodeSeq":6031,"postOfficeName":"Thulakkapatti R S","pinCode":"626208","city":"Virudhunagar","district":"Virudhunagar","state":"Tamil Nadu"},{"pinCodeSeq":6032,"postOfficeName":"Avadayapuram","pinCode":"626209","city":"Virudhunagar","district":"Virudhunagar","state":"Tamil Nadu"},{"pinCodeSeq":6033,"postOfficeName":"T Sedapatti","pinCode":"626210","city":"Virudhunagar","district":"Virudhunagar","state":"Tamil Nadu"},{"pinCodeSeq":6034,"postOfficeName":"Surangudi","pinCode":"626211","city":"Virudhunagar","district":"Virudhunagar","state":"Tamil Nadu"},{"pinCodeSeq":6035,"postOfficeName":"Panayadipatti","pinCode":"626212","city":"Virudhunagar","district":"Virudhunagar","state":"Tamil Nadu"},{"pinCodeSeq":6036,"postOfficeName":"Appanayakkanpatti","pinCode":"626213","city":"Virudhunagar","district":"Virudhunagar","state":"Tamil Nadu"},{"pinCodeSeq":6281,"postOfficeName":"Mullikulam","pinCode":"627755","city":"Virudhunagar","district":"Virudhunagar","state":"Tamil Nadu"},{"pinCodeSeq":6295,"postOfficeName":"Vadamalaipuram","pinCode":"627762","city":"Virudhunagar","district":"Virudhunagar","state":"Tamil Nadu"},{"pinCodeSeq":6450,"postOfficeName":"Puvani","pinCode":"628308","city":"Virudhunagar","district":"Virudhunagar","state":"Tamil Nadu"},{"pinCodeSeq":7202,"postOfficeName":"Vaiyampatti","pinCode":"637410","city":"Virudhunagar","district":"Virudhunagar","state":"Tamil Nadu"}]